PK,NOMBRE,DESCRIPCION-ENTIDAD,HORARIO,EQUIPAMIENTO,DESCRIPCION,ACCESIBILIDAD,CONTENT-URL,NOMBRE-VIA,CLASE-VIAL,TIPO-NUM,NUM,ORIENTACION,LOCALIDAD,PROVINCIA,CODIGO-POSTAL,BARRIO,DISTRITO,COORDENADA-X,COORDENADA-Y,LATITUD,LONGITUD,TELEFONO,FAX,EMAIL,TIPO
7902770,Bibliometro," El  Bibliometro  es un servicio de extensi�n bibliotecaria destinado al fomento de la lectura mediante el pr�stamo gratuito de libros en el Metro de Madrid.  Promovido conjuntamente por el Ayuntamiento de Madrid y la Comunidad de Madrid en colaboraci�n con Metro, el Bibliometro es el primer servicio com�n a los dos sistemas de Bibliotecas P�blicas del Ayuntamiento de Madrid y la Comunidad de Madrid.  El servicio gestionado por el Ayuntamiento de Madrid se centraliza en la Unidad T�cnica de Bibliotecas P�blicas, localizada en la calle Pr�ncipe de Vergara, 140. ","  Horario:  de 13.30 a 20.00 de lunes a viernes, excepto festivos. ",  Datos de localizaci�n  de los distintos  m�dulos de Bibliometro .  Servicios:  Pr�stamo y renovaci�n de libros. Acceda al  cat�logo de Bibliometro  para b�squeda de libros y renovar sus pr�stamos. ,,0,http://www.madrid.es/vgn-ext-templating/v/index.jsp?vgnextchannel=9e4c43db40317010VgnVCM100000dc0ca8c0RCRD&vgnextoid=3d2cd4bdf66bb410VgnVCM1000000b205a0aRCRD,PRINCIPE DE VERGARA,CALLE,V,140,,MADRID,MADRID,28002,CIUDAD JARDIN,CHAMARTIN,442601,4477517,40.44444653179131,-3.67813993012987,"                                    
91 588 57 24       
",,,/contenido/entidadesYorganismos/BibliotecasPublicas
8053214,Bibliored," El  Bibliored  es un servicio de extensi�n bibliotecaria destinado al fomento de la lectura mediante el pr�stamo gratuito de libros, un proyecto similar al de Bibliometro pero en la superficie.  Existen dos m�dulos de Bibliored: el de Cuatro Caminos y el de Sanchinarro, situados dentro de un centro juvenil y un centro cultural respectivamente.  El servicio, gestionado por el Ayuntamiento de Madrid, se centraliza en la Unidad T�cnica de Bibliotecas P�blicas, localizada en la calle Pr�ncipe de Vergara, 140. ","  Horario:  de 13.30 a 20.00 de lunes a viernes, excepto festivos. ","  Datos de localizaci�n : 
 
  Bibliored Cuatro Caminos : calle Raimundo Fern�ndez Villaverde, 2. Tel�fono: 91 535 34 56 (para el servicio de renovaciones: 91 588 56 60). Email:  br1@madrid.es     
  Bibliored Sanchinarro : calle Princesa de �boli, 21. Tel�fono: 91 318 58 46. Email:  brsanchinarro@madrid.es      
 
  Servicios:  Pr�stamo y renovaci�n de libros.  Acceda al cat�logo  para la b�squeda de libros y renovar sus pr�stamos. 
 * Los libros del m�dulo de Sanchinarro solo se podr�n prestar y devolver en sus instalaciones, usando el carn� municipal. Los libros del m�dulo de Cuatro Caminos podr�n devolverse adem�s en cualquier m�dulo de Bibliometro. Las condiciones de pr�stamo son las mismas que para Bibliometro. 
 El Bibliored de Sanchinarro est� situado dentro del Centro Cultural de Sanchinarro, puede consultar la informaci�n sobre sus instalaciones (salas de estudio, salas polivalentes y aulas de tecnolog�a) en su  web . ",,0,http://www.madrid.es/vgn-ext-templating/v/index.jsp?vgnextchannel=9e4c43db40317010VgnVCM100000dc0ca8c0RCRD&vgnextoid=917c40221457d410VgnVCM2000000c205a0aRCRD,PRINCIPE DE VERGARA,CALLE,V,140,,MADRID,MADRID,28002,CIUDAD JARDIN,CHAMARTIN,442601,4477517,40.44444653179131,-3.67813993012987,"                                               
91 588 57 24                  
",,,/contenido/entidadesYorganismos/BibliotecasPublicas
1881,Biblioteca Hist�rica Municipal," El origen de la  Biblioteca Hist�rica Municipal  fue la formaci�n de una colecci�n de libros sobre Madrid. Creada como Biblioteca Municipal en 1876 a iniciativa de Ram�n de Mesonero Romanos, en 1990 recibe la denominaci�n de Hist�rica y se constituye en un centro para la investigaci�n. Su principal objetivo es la protecci�n del legado patrimonial bibliogr�fico y su difusi�n. 
 Entre sus  colecciones especiales  est�n las siguientes: Madrid, Teatro y M�sica (manuscritos e impresos de los siglos  XVII  a  XIX ), Bio-bibliograf�a (Colecci�n Beltr�n), Paremiolog�a, Raros, Veterinaria, Guerra Civil Espa�ola (Colecci�n Tom�s Borr�s), Lope de Vega, Cervantes y Toros. ",  Horario : de lunes a viernes de 8:30 a 14:30 horas.   Cerrada  festivos y los d�as 24 y 31 de diciembre. ," Los  servicios que se prestan  son los siguientes: 
 
 Pr�stamo en Sala de investigaci�n. 
 Consulta de la colecci�n de referencia en la Sala de investigaci�n.  
 Petici�n anticipada de documentos a trav�s del correo:  bibliotecah@madrid.es  
 Informaci�n bibliogr�fica por correo postal, correo electr�nico y tel�fono.  
 Reprografia.  
  Cat�logo en l�nea  
 
  Requisitos:  Ser mayor de edad y tener carn� de usuario ","   Directorio:  
 
  Direcci�n  Ilda Mar�a del Rosario P�rez Garc�a Tel�fono: 91 588 57 44 Correo electr�nico  bibliotecah@madrid.es  
  Negociado Administrativo / Secretar�a   Tel�fono: 91 5885723; 91 5885737 
  Secci�n de Informaci�n y Referencia  Tel�fono: 91 4800557 Correo electr�nico  bibliotecah@madrid.es  
  Secci�n de Colecciones Especiales  Correo electr�nico:  bibliotecah@madrid.es  
  Secci�n de Fondos Generales  Correo electr�nico  bibliotecah@madrid.es  
 ",1,http://www.madrid.es/vgn-ext-templating/v/index.jsp?vgnextchannel=9e4c43db40317010VgnVCM100000dc0ca8c0RCRD&vgnextoid=ccbc3d0b5e71c010VgnVCM1000000b205a0aRCRD,CONDE DUQUE,CALLE,V,9,,MADRID,MADRID,28015,UNIVERSIDAD,CENTRO,439832,4475644,40.42737760210632,-3.7106116887809817,"Secretar�a: 915885737. Informaci�n y Referencia: 915885756, 914800557 y 915885744 ",,bibliotecah@madrid.es,/contenido/entidadesYorganismos/BibliotecasPublicas
6779450,Biblioteca Musical V�ctor Espin�s,"   La  Biblioteca Musical V�ctor Espin�s  fue fundada en 1919 a propuesta de V�ctor Espin�s como  Biblioteca Musical Circulante . Es un centro creado para la difusi�n y fomento de la educaci�n musical y desde sus comienzos tiene un marcado car�cter de servicio p�blico, abierto a todo tipo de usuarios. En 1932 se inicia un servicio pionero de pr�stamo de instrumentos cuyo fin es facilitar el estudio musical. ", De lunes a viernes de 8:30 a 21:00 horas.   Cerrado  festivos y los d�as 24 y 31 de diciembre. ," Accesible a personas con discapacidad f�sica.  Espacios:  Sala de consulta y lectura; Salas de ensayo; Sala polivalente.  Servicios:  Pr�stamo de libros, partituras, multimedia y revistas; Pr�stamo de instrumentos; Zona WiFi; Informaci�n bibliogr�fica; Formaci�n de usuarios; Animaci�n a la lectura; Reprograf�a ","   Directorio:     
 
  Direcci�n:   Inmaculada Seldas Fern�ndez Tfno: 91 513 36 81 
  Adjunto:  Ignacio G�mez Novillo Tel�fono: 91 480 14 17   
  Pr�stamo de Instrumentos  Tel�fono: 91 588 57 55  
  Informaci�n bibliogr�fica  Tel�fono: 91 588 57 51  
  Gesti�n econ�mica y administrativa  Tel�fono: 91 588 57 53 Tel�fono: 91 480 13 44 
  Mostrador de pr�stamo / Cabinas de ensayo  Tel�fonos: 91 588 57 60 / 91 588 57 39   
 ",1,http://www.madrid.es/vgn-ext-templating/v/index.jsp?vgnextchannel=9e4c43db40317010VgnVCM100000dc0ca8c0RCRD&vgnextoid=d482270f58c6c310VgnVCM2000000c205a0aRCRD,CONDE DUQUE,CALLE,V,9,,MADRID,MADRID,28015,UNIVERSIDAD,CENTRO,439832,4475644,40.42737760210632,-3.7106116887809817,"91 588 57 53 / 91 588 57 39 / 91 588 57 55                                                         
91 588 57 60",,bibliomusical@madrid.es,/contenido/entidadesYorganismos/BibliotecasPublicas
1771,Biblioteca P�blica Acu�a,,"  Secci�n de adultos:  de lunes a viernes de 9 a 21 horas. S�bados de 9 a 14 horas. 
  Secci�n infantil/juvenil:  de lunes a viernes de 15 a 21 horas. S�bados de 9 a 14 horas. 
  Servicio de pr�stamo y acceso a internet:  lunes a viernes de 9 a 20:45 horas; s�bados de 9 a 13:45 horas "," 
  Sala adultos o principal : capacidad: 60. Puestos de atenci�n: 5. 
  Internet : capacidad: 4. 
  Sala infantil/juvenil : capacidad: 20. Puestos de atenci�n: 2. 
  Hemeroteca : capacidad: 9. 
 ","  Pr�stamo domiciliario:  carn� gratuito presentando el  DNI,  u otro documento que acredite legalmente la identidad personal y para los menores de 14 a�os, con autorizaci�n del padre, la madre o tutor legal 
  D�as de cierre de la Biblioteca 2016:   
 
 S�bados: 26 de marzo; s�bados de julio y agosto; 3 y 10 de septiembre 
 Domingos: todos 
 Festivos: 1 y 6 de enero; 24 y 25 de marzo; 2 y 16  de mayo; 25 de julio; 15 de agosto; 12 de octubre; 1 y 9 de noviembre; 6, 8 y 26 de diciembre. 
 Otros: 24 y 31 de diciembre 
 ",1,http://www.madrid.es/vgn-ext-templating/v/index.jsp?vgnextchannel=9e4c43db40317010VgnVCM100000dc0ca8c0RCRD&vgnextoid=e9ad995a8bf5d010VgnVCM2000000c205a0aRCRD,QUINTANA,CALLE,V,9,,MADRID,MADRID,28008,ARGUELLES,MONCLOA-ARAVACA,439294,4475711,40.427942010682415,-3.7169600607379985,"915 413 619                                                                       
",915 426 939,bib.acuna@madrid.org,/contenido/entidadesYorganismos/BibliotecasPublicas
1767,Biblioteca P�blica Canillejas,,"  Adultos:  lunes, jueves y viernes de 9 a 14 horas. Martes y mi�rcoles de 16 a 20:45 horas. 
 La biblioteca infantil est� cerrada hasta nuevo aviso. 
  D�as de cierre 2016 : 
 
 Fines de semana y festivos 
 Del 1 al 7 de enero 
 8 de febrero 
 Semana Santa (18 al 29 de marzo) 
 2 y 16 de mayo 
 Julio y agosto 
 12 de octubre 
 1 y 9 de noviembre 
 6 y 8 de diciembre 
 "," 
  Sala adultos o principal : capacidad: 30. 
  Audiovisuales y materiales especiales : capacidad: 2. 
  Internet : capacidad: 6. 
  Sala infantil/juvenil : capacidad: 32. Puestos de atenci�n: 1. 
  Ordenadores multimedia : capacidad: 2. 
 ","  Pr�stamo domiciliario: c arn� gratuito presentando el  DNI  u otro documento que acredite legalmente la identidad personal y, para los menores de 14 a�os, con autorizaci�n del padre, la madre o tutor legal ",1,http://www.madrid.es/vgn-ext-templating/v/index.jsp?vgnextchannel=9e4c43db40317010VgnVCM100000dc0ca8c0RCRD&vgnextoid=a8cd995a8bf5d010VgnVCM2000000c205a0aRCRD,MUSAS,CALLE,V,11,,MADRID,MADRID,28022,CANILLEJAS,SAN BLAS-CANILLEJAS,448512,4476732,40.43776263645119,-3.6083782410803944,917 424 499,913 200 943,bib.canillejas@madrid.org,/contenido/entidadesYorganismos/BibliotecasPublicas
5765642,Biblioteca P�blica Carabanchel Luis Rosales,," De lunes a viernes de 9 a 21 horas. 
 Fines de semana y festivos, de 11 a 19 horas  
 El 24 y 31 de diciembre la biblioteca abrir� de 9 a 14 horas. 
 D�as de cierre: 1 de enero, 1 de mayo, fines de semana y festivos del mes de agosto y 25 de diciembre. "," 
  Sala infantil: Capacidad: 58. Adaptados para discapacitados: Pc con software para ciegos y zoom tex, lupas, y telelupas. Puestos de atenci�n: 1. Otra informaci�n: 10 puestos multimedia + 2 cat�logos de consulta. 
  Sala adultos o principal: Capacidad: 161. Adaptados para discapacitados: Pc con sofware para ciegos y zoom tex. Puestos de atenci�n: 2. 
  Sala juvenil: Capacidad: 77. Adaptados para discapacitados: Pc con software para ciegos y zoom tex, lupas. Puestos de atenci�n: 1. Otra informaci�n: 29 puestos internet + 2 cat�logos de consulta. 
  Hemeroteca: Capacidad: 21. Adaptados para discapacitados: Pc con software para ciegos y zoom Tex, lupas, y telelupas. Puestos de atenci�n: 1. 
  Ordenadores multimedia:  Capacidad: 2. Puestos de atenci�n: 1. 
 Internet: Capacidad: 45. Adaptados para discapacitados: 4 Puesto adaptado para ciegos con Software espec�fico y Zoom Tex. Puestos de atenci�n: 1. 
  Internet : Capacidad: 45. Adapt.discapacitados: 4 Puesto adaptado para ciegos con Software espef�co y Zoom Tex. Puestos de atenci�n: 1. 
  Sal�n de actos:  Capacidad: 120. Adaptados para discapacitados: Bucle magn�tico para sordos. Otra informaci�n: proyector, Pantalla, Megafon�a, Reproductor DVD. 
  Sala-taller:  Capacidad: 60. Otra informaci�n: Pizarra digital, proyector, port�til, Monitor TV. 
  Audiovisuales y materiales especiales:  Capacidad: 4. Puestos de atenci�n: 1. 
  Zona de trabajos o servicios internos:  Adaptadas para discapacitados: Mesa accesible. 
 ","  Pr�stamo domiciliario:  Carn� gratuito presentando el  D.N.I  u otro documento que acredite legalmente la identidad personal y, para los menores 14 a�os de edad, con autorizaci�n del padre, la madre o tutor legal. 
  Informaci�n adicional sobre horarios:  los fines de semana y festivos de 14:30 a 15:30 horas no se asignar�n pr�stamos de libros ni acceso a Internet pero s� continuar� abierta la sala de lectura. Todos los d�as los servicios de pr�stamo y acceso a Internet finalizar�n 15 minutos antes del cierre. ",1,http://www.madrid.es/vgn-ext-templating/v/index.jsp?vgnextchannel=9e4c43db40317010VgnVCM100000dc0ca8c0RCRD&vgnextoid=7a73f884ad3f9210VgnVCM1000000b205a0aRCRD,ANTONIA RODRIGUEZ SACRISTAN,CALLE,V,7,,MADRID,MADRID,28044,PUERTA BONITA,CARABANCHEL,436603,4469681,40.373420234648606,-3.7480802097487653,"912 760 233                                                                                                          
",914 613 331,bib.carabanchel@madrid.org,/contenido/entidadesYorganismos/BibliotecasPublicas
1764,Biblioteca P�blica Central,," 
  Secci�n de adultos:  lunes a viernes de  9  a 21 horas. S�bados de 9 a 14 horas. 
   Secci�n infantil/juvenil:  lunes a viernes de 15 a 21 horas. S�bados de 9 a 14 horas. 
 
 Los servicios de pr�stamo y acceso a internet finalizan 15 minutos antes del cierre de la Biblioteca. 
   "," 
  Sala adultos o principal : capacidad: 102. Condiciones de acceso: libre acceso. 
  Hemeroteca : capacidad: 22. Puestos de atenci�n: 1. 
  Internet : capacidad: 20. Puestos de atenci�n: 2. 
  Sala infantil/juvenil : capacidad: 29. Puestos de atenci�n: 2. 
  Sal�n de actos : condiciones de acceso: seg�n aforo. 
  Dep�sitos  
  Otras instalaciones : capacidad: 14. Puestos de atenci�n: 2. 
  Sala-taller : puestos de atenci�n: 20. 
 ","  D�as de cierre en 2016  :  
 
  S�bados : 26 marzo; s�bados de julio y agosto; 3 y 10 septiembre; 24 y 31 diciembre. 
  Domingos  
  Festivos : 1 y 6 enero; 24 y 25 marzo; 2 y 16 mayo; 25 julio; 15 agosto; 12 octubre; 1 y 9 noviembre; 6, 8 y 26 diciembre 
 ",1,http://www.madrid.es/vgn-ext-templating/v/index.jsp?vgnextchannel=9e4c43db40317010VgnVCM100000dc0ca8c0RCRD&vgnextoid=5a2279262ef5d010VgnVCM1000000b205a0aRCRD,FELIPE EL HERMOSO,CALLE,V,4,,MADRID,MADRID,28010,TRAFALGAR,CHAMBERI,440772,4476526,40.43539063992494,-3.6996132452669075,914 459 782,914 472 444,bib.central@madrid.org,/contenido/entidadesYorganismos/BibliotecasPublicas
1798,Biblioteca P�blica Centro Pedro Salinas,,"  Secci�n de adultos:  de lunes a viernes de 9 a  21 horas 
  Secci�n infantil/juvenil:  de lunes a viernes de 15 a 21 horas 
  Cierre del siervicio de pr�stamo:  15 minutos antes 
     "," 
  Sala adultos o principal : Capacidad: 132 
  Internet : Capacidad: 18.  
  Sal�n de actos : Capacidad: 45 
  Zona de trabajos o servicios internos : Capacidad: 4 
  Sala infantil/juvenil : Capacidad: 72 
  Hemeroteca : Capacidad: 15 
 ","  Pr�stamo domiciliario:  Carn� gratuito presentando el  D.N.I  u otro documento que acredite legalmente la identidad personal y, para los menores 14 a�os de edad, con autorizaci�n del padre, la madre o tutor legal. ",1,http://www.madrid.es/vgn-ext-templating/v/index.jsp?vgnextchannel=9e4c43db40317010VgnVCM100000dc0ca8c0RCRD&vgnextoid=67ed995a8bf5d010VgnVCM2000000c205a0aRCRD,PUERTA DE TOLEDO,GLORIETA,V,1,,MADRID,MADRID,28005,EMBAJADORES,CENTRO,439776,4473392,40.40709558029403,-3.711046518464516,913 665 407,913 657 523,bib.centro@madrid.org,/contenido/entidadesYorganismos/BibliotecasPublicas
66904,Biblioteca P�blica Fuencarral - El Pardo. Rafael Alberti,,"  Secciones de adultos, prensa y audiovisuales : de lunes a viernes de 9 a 21 horas. (Pr�stamo hasta las 20:45 horas).; S�bados de  9 a 14 horas (Pr�stamo hasta las 13:45 horas). 
  Secci�n infantil:  de lunes a viernes de 15 a 21 horas. (Pr�stamo hasta las 20:45 horas).; S�bados de  9 a 14 horas (Pr�stamo hasta las 13:45 horas) 
  Sala de lectura:  de lunes a viernes de 9 a 21 horas. S�bados de  9 a 14 horas "," 
 Sala adultos o principal. Capacidad :99 
 Audiovisuales y materiales especiales. Capacidad: 12 
 Internet. Capacidad: 14 
 Sala infantil. Capacidad: 55 
 Hemeroteca: Capacidad: 35 
 Fondo Local 
 Ordenadores multimedia 
 Sal�n de actos 
 Zona de trabajos o servicios internos 
 Dep�sitos 
 Otras instalaciones 
 ","  Pr�stamo domiciliario:  carn� gratuito presentando el  DNI  u otro documento que acredite legalmente la identidad personal y, para los menores de 14 a�os, con autorizaci�n de padre, la madre o tutor legal. 
  D�as cierre biblioteca a�o 2016:   
 
  S�bados:  2 de enero; 26 de marzo; s�bados de julio y agosto; 3 y 10 de septiembre; 24 y 31 de diciembre. 
  Domingos : Todos 
  Festivos:  1 y 6 de enero; 24 y 25 de marzo; 2 y 16 de mayo; 25 de julio; 15 de agosto; 12 de octubre; 1 y 9 de noviembre; 6, 8 y 26 de diciembre. 
 
     ",1,http://www.madrid.es/vgn-ext-templating/v/index.jsp?vgnextchannel=9e4c43db40317010VgnVCM100000dc0ca8c0RCRD&vgnextoid=260e995a8bf5d010VgnVCM2000000c205a0aRCRD,SANGENJO,CALLE,V,38,,MADRID,MADRID,28034,LA PAZ,FUENCARRAL-EL PARDO,440920,4482355,40.48791129077104,-3.6984002338920092,917 319 552 / 917 319 553,917 398 231,bib.fuencarral@madrid.org,/contenido/entidadesYorganismos/BibliotecasPublicas
1770,Biblioteca P�blica Hortaleza,," De lunes a jueves de 9 a 20:30 horas. Viernes de 9 a 14:30 horas 
   "," 
 Sala adultos o principal: capacidad: 56. Puestos de atenci�n: 1. 
 Audiovisuales y materiales especiales 
 Internet: capacidad: 4. 
 Sala infantil/juvenil: capacidad: 16. Puestos de atenci�n: 1. 
 ","  Pr�stamo domiciliario:  carn� gratuito presentando el  DNI  u otro documento que acredite legalmente la identidad personal y, para los menores de edad, con autorizaci�n del padre, la madre o tutor legal 
  D�as de cierre de la bibliioteca (2016 ): Fines de semana y festivos; del 1 al 7 de enero; 8 de febrero; del 18 al 29 de marzo; 2 y 16 de mayo; 10 de junio; los meses de julio y agosto; 12 de octubre; 1 y 9 de noviembre; 6 y 8 de diciembre; del 23 al 31 de diciembre; adem�s, los d�as no lectivos regidos por el  calendario escolar 2016-2017   ",1,http://www.madrid.es/vgn-ext-templating/v/index.jsp?vgnextchannel=9e4c43db40317010VgnVCM100000dc0ca8c0RCRD&vgnextoid=e42e995a8bf5d010VgnVCM2000000c205a0aRCRD,ABERTURA,CALLE,V,2,,MADRID,MADRID,28033,PINAR DEL REY,HORTALEZA,445046,4481138,40.47723185032398,-3.6496247031818596,917 633 284,917 633 284,bib.hortaleza@madrid.org,/contenido/entidadesYorganismos/BibliotecasPublicas
25526,Biblioteca P�blica Latina - Antonio Mingote,,"  Secci�n de adultos y sala de lectura:  de lunes  a viernes de  9 a 21 horas. S�bados de 9 a 14 horas. 
  Secci�n infantil/juvenil:  de lunes  a viernes de  15 a 21 horas. S�bados de 9 a 14 horas. "," 
  Sala adultos o principal : capacidad: 108. Puestos de atenci�n: 6. 
  Internet : capacidad: 25. 
  Sal�n de actos : capacidad: 132. 
  Sala infantil/juvenil : capacidad: 49. Puestos de atenci�n: 1. 
  Hemeroteca : capacidad: 27. 
  Ordenadores multimedia : capacidad: 2. Otra informaci�n: 1 en adultos 1 en infantil. 
  Sala-taller : capacidad: 12. Otra informaci�n: en este taller hay DVD 
  Audiovisuales y materiales especiales:  Capacidad: 2 
 ","  Pr�stamos domiciliarios:  carn� gratuito para todas las edades rellenando ficha de inscripci�n y presentando  DNI , pasaporte o autorizaci�n de padres o tutor para menores de 14 a�os. 
  D�as de cierre de la Biblioteca 2016:  
 
 S�bados: 26 de marzo; s�bados de julio y agosto; 3 y 10 de septiembre 
 Domingos: todos 
 Festivos: 1 y 6 de enero; 24 y 25 de marzo; 2 y 16  de mayo; 25 de julio; 15 de agosto; 12 de octubre; 1 y 9 de noviembre; 6, 8 y 26 de diciembre. 
 Otros: 24 y 31 de diciembre 
 ",1,http://www.madrid.es/vgn-ext-templating/v/index.jsp?vgnextchannel=9e4c43db40317010VgnVCM100000dc0ca8c0RCRD&vgnextoid=c73e995a8bf5d010VgnVCM2000000c205a0aRCRD,RAFAEL FINAT,CALLE,V,51,,MADRID,MADRID,28044,LAS AGUILAS,LATINA,434795,4470364,40.37944226151668,-3.769445829090458,915 093 625,917 068 193,bib.latina@madrid.org,/contenido/entidadesYorganismos/BibliotecasPublicas
1773,Biblioteca P�blica Moratalaz,," Secci�n de adultos e infantil/juvenil: de lunes a viernes de 9 a 21 horas. S�bados de 9 a 14 horas. 
 Horario servicio de pr�stamo y acceso a Internet:  de lunes a viernes de 9 a 20:45 horas. S�bados de 9 a 13:45 horas. "," 
  Sala adultos o principal : capacidad: 42. 
  Internet : capacidad: 8. 
  Sala infantil/juvenil : capacidad: 32. Puestos de atenci�n: 2. 
  Hemeroteca : capacidad: 13. 
  Ordenadores multimedia : capacidad: 1. 
 ","  Pr�stamo domiciliario:  carn� gratutito presentando el  D.N.I  u otro documento que acredite legalmente la identidad personal y, para los menores de 14 a�os, con autorizaci�n del padre, la madre o tutor legal. 
  D�as de cierre de la Biblioteca 2016:  
 
 S�bados: 26 de marzo; s�bados de julio y agosto; 3 y 10 de septiembre 
 Domingos: todos 
 Festivos: 1 y 6 de enero; 24 y 25 de marzo; 2 y 16  de mayo; 25 de julio; 15 de agosto; 12 de octubre; 1 y 9 de noviembre; 6, 8 y 26 de diciembre. 
 Otros: 24 y 31 de diciembre 
 
     ",1,http://www.madrid.es/vgn-ext-templating/v/index.jsp?vgnextchannel=9e4c43db40317010VgnVCM100000dc0ca8c0RCRD&vgnextoid=457e995a8bf5d010VgnVCM2000000c205a0aRCRD,CORREGIDOR ALONSO DE TOBAR,CALLE,V,5,,MADRID,MADRID,28030,FONTARRON,MORATALAZ,445000,4473014,40.404043531769375,-3.649450874958104,914 394 688,914 370 234,bib.moratalaz@madrid.org,/contenido/entidadesYorganismos/BibliotecasPublicas
1757,Biblioteca P�blica Municipal Aluche (Latina)," La Biblioteca P�blica de Aluche se inaugur� en junio de 1992 con la asistencia del entonces alcalde D. Jos� Mar�a Alvarez del Manzano. Se sit�a en la primera planta del Centro Cultural Fernando de los R�os, dise�ado por el arquitecto Jos� Mar�a Guijarro. Desde 1986 y hasta la fecha de su inauguraci�n oficial, se encontraba situada en este mismo centro cultural y planta pero en el ala derecha del edificio y con la mitad de superficie. La ubicaci�n de la biblioteca en el centro cultural en la d�cada de los 80  se decidi� porque �ste era considerado un elemento aglutinador de la vida asociativa y cultural de los distritos. ", De lunes a viernes de 8:30 a 21 horas. Festivos cerrados. ," Accesible a personas con discapacidad f�sica.  Espacios:  Sala de Consulta y Lectura; Zona de publicaciones peri�dicas; Sala infantil y juvenil.  Servicios:  Pr�stamo de libros, multimedia y revistas; Pr�stamo de dispositivos de ayuda a la lectura (lupas para libros y discman para audiolibros); Servicio de Acceso P�blico a Internet; Zona wifi; Informaci�n bibliogr�fica; Animaci�n a la lectura; Formaci�n de usuarios. "," 
  Superficie:  712 metros cuadrados 
  Puestos de lectura:  130 
  Puestos de Internet:  18 
 ",1,http://www.madrid.es/vgn-ext-templating/v/index.jsp?vgnextchannel=9e4c43db40317010VgnVCM100000dc0ca8c0RCRD&vgnextoid=7f0e3d0b5e71c010VgnVCM1000000b205a0aRCRD,CAMARENA,CALLE,V,10,,MADRID,MADRID,28047,ALUCHE,LATINA,435929,4472190,40.39597072367931,-3.7562716852987847,91 719 89 96,,bpaluche@madrid.es,/contenido/entidadesYorganismos/BibliotecasPublicas
1755,Biblioteca P�blica Municipal Ana Mar�a Matute (Carabanchel)," La Biblioteca P�blica Municipal Ana Mar�a Matute sustituy� a la antigua Biblioteca P�blica Municipal de Carabanchel. La Biblioteca de Carabanchel, sita en la calle de los Hermanos del Moral 15, fue inaugurada el 12 de diciembre de 1981 por el entonces alcalde, Enrique Tierno Galv�n, contaba con unos 250  m&sup2; . Despues de 32 a�os de servicio, se traslada a su actual emplazamiento bajo el nombre actual. El proyecto arquitect�nico fue encargado al estudio RSP. A la inauguraci�n, el 28 de enero de 2013, asistieron la escritora Ana Mar�a Matute y la alcaldesa Ana Mar�a Botella. ", De lunes a viernes de 8:30 a 21 horas. Festivos cerrados. ," Accesible a personas con discapacidad f�sica.  Espacios:  Sala de consulta y lectura; Salas de trabajo en grupo; Sala polivalente; Zona de publicaciones peri�dicas; Sala infantil y juvenil.  Servicios:  Pr�stamo de libros, multimedia y revistas; Pr�stamo de dispositivos de ayuda a la lectura (lupas para libros y discman para audiolibros); Servicio de telelupa; Servicio de Acceso P�blico a Internet; Zona wifi; Informaci�n bibliogr�fica; Animaci�n a la lectura; Formaci�n de usuarios; Reprograf�a. "," 
  Superficie:  3.369 metros cuadrados 
  Puestos de lectura:  244 
  Puestos de Internet:  44 
  Sala polivalente:  74 
  Salas de trabajo en grupo:  3 (20 personas en total) 
 ",1,http://www.madrid.es/vgn-ext-templating/v/index.jsp?vgnextchannel=9e4c43db40317010VgnVCM100000dc0ca8c0RCRD&vgnextoid=628e3d0b5e71c010VgnVCM1000000b205a0aRCRD,DE LOS COMUNEROS DE CASTILLA,CALLE,V,30,,MADRID,MADRID,28019,SAN ISIDRO,CARABANCHEL,438946,4472344,40.3975850662447,-3.7207386328562357,"91 588 08 30                                                                                                                                                      
",,bpanammatute@madrid.es,/contenido/entidadesYorganismos/BibliotecasPublicas
1762,Biblioteca P�blica Municipal Buenavista (Salamanca)," La Biblioteca P�blica Municipal Buenavista se encuentra dentro del Centro Cultural hom�nimo. El edificio que la alberga fue construido durante la  II  Rep�blica por el Ayuntamiento de Madrid para Casa de Ba�os, seg�n proyecto de Jos� Lorite y reformado por el arquitecto municipal Salvador P�rez Arroyo en 1982. El cambio de funci�n e inauguraci�n como Centro C�vico tuvo lugar el 30 de abril de 1983 y la Biblioteca abri� sus puertas el 12 marzo de 1984.  La Biblioteca, ocupa uno de los pabellones que alojaron las piletas de las piscinas y sus vestuarios, en concreto, la zona del vaso destinada al ba�o de los hombres. En la actualidad esta estructura se observa en la sala de lectura y consulta donde los usuarios adultos se sumergen en sus fondos bibliogr�f�cos ", De lunes a viernes de 9 a 21 horas. Festivos cerrados. ," Accesible a personas con discapacidad f�sica.  Espacios:  Sala de Consulta y Lectura; Zona de publicaciones peri�dicas; Sala infantil y juvenil.   Servicios:  Pr�stamo de libros, multimedia y revistas; Pr�stamo de dispositivos de ayuda a la lectura (lupas para libros); Servicio de Acceso P�blico a Internet; Zona wifi; Informaci�n bibliogr�fica; Animaci�n a la lectura; Formaci�n de usuarios; Reprograf�a. "," 
  Superficie:  371 metros cuadrados 
  Puestos de lectura:  76 
  Puestos de Internet:  15 
 ",1,http://www.madrid.es/vgn-ext-templating/v/index.jsp?vgnextchannel=9e4c43db40317010VgnVCM100000dc0ca8c0RCRD&vgnextoid=c53e3d0b5e71c010VgnVCM1000000b205a0aRCRD,TOREROS,AVENIDA,V,5,,MADRID,MADRID,28028,GUINDALERA,SALAMANCA,443202,4476130,40.43199309720514,-3.670929243543714,91 724 08 04,,bpbuenavista@madrid.es,/contenido/entidadesYorganismos/BibliotecasPublicas
1745,Biblioteca P�blica Municipal Canillejas (San Blas-Canillejas)," La Biblioteca P�blica Municipal de Canillejas se inaugur� el 4 de agosto de 1981 en la tercera planta del edificio que entonces ocupaba la Junta Municipal del Distrito de San Blas, en la calle Torre Arias. Ocho a�os despu�s se traslad� al edificio que ocupa hoy, en la calle Bolta�a, justo enfrente de su ubicaci�n anterior y en pleno n�cleo comercial del barrio de Canillejas. Su reapertura al p�blico, en las nuevas instalaciones, se produjo el 15 de marzo de 1989, compartiendo edificio con el Centro Cultural Buero Vallejo. ", De lunes a viernes de 8:30 a 21 horas. Festivos cerrados. ,"  Espacios:  Sala de Consulta y Lectura; Zona de publicaciones peri�dicas; Sala infantil y juvenil; Sala polivalente (capacidad: 16 personas)  Servicios:  Pr�stamo de libros, multimedia y revistas; Pr�stamo de dispositivos de ayuda a la lectura (lupas para libros y discman para audiolibros); Servicio de Acceso P�blico a Internet; Zona wifi; Informaci�n bibliogr�fica; Animaci�n a la lectura; Formaci�n de usuarios; Reprograf�a. "," 
  Superficie:  466 metros cuadrados 
  Puestos de lectura:  98 
  Puestos de Internet:  6 
 ",0,http://www.madrid.es/vgn-ext-templating/v/index.jsp?vgnextchannel=9e4c43db40317010VgnVCM100000dc0ca8c0RCRD&vgnextoid=eb9e995a8bf5d010VgnVCM2000000c205a0aRCRD,BOLTA�A,CALLE,NUM,23,EN CENTRO CULTURAL BUERO VALLEJO,MADRID,MADRID,28022,CANILLEJAS,SAN BLAS-CANILLEJAS,448229,4477693,40.44640229188281,-3.6117933204271098,91 741 11 34,,bpcanillejas@madrid.es,/contenido/entidadesYorganismos/BibliotecasPublicas
1794,Biblioteca P�blica Municipal Ciudad Lineal (Ciudad Lineal),"  La Biblioteca de Ciudad Lineal se inaugur� en febrero de 1993 asistiendo al acto el Alcalde, Jos� M&ordf; Alvarez del Manzano, y la entonces Concejal de Cultura, Esperanza Aguirre.   Se encuentra dentro del Centro Cultural Pr�ncipe de Asturias, en la primera planta. Su construcci�n se realiz� para dar servicio a la zona y sustituir a la anterior biblioteca que hab�a en los locales de un edificio de viviendas. Desde entonces ha sido ampliada tan solo una vez, en 50  m&sup2; , en el a�o 2004, afectando esta obra a su distribuci�n interna. ", De lunes a viernes de 8:30 a 21 horas. Festivos cerrados. ," Accesible a personas con discapacidad f�sica.   Espacios:  Sala de Consulta y Lectura; Zona de publicaciones peri�dicas; Sala infantil y juvenil.   Servicios:  Pr�stamo de libros, multimedia y revistas; Pr�stamo de dispositivos de ayuda a la lectura (lupas para libros y discman para audiolibros); Servicio de Acceso P�blico a Internet; Zona wifi; Informaci�n bibliogr�fica; Animaci�n a la lectura; Formaci�n de usuarios; Reprograf�a. "," 
  Superficie:  483 metros cuadrados 
  Puestos de lectura:  114 
  Puestos de Internet:  10 
 ",1,http://www.madrid.es/vgn-ext-templating/v/index.jsp?vgnextchannel=9e4c43db40317010VgnVCM100000dc0ca8c0RCRD&vgnextoid=82ce995a8bf5d010VgnVCM2000000c205a0aRCRD,HERMANOS GARCIA NOBLEJAS,CALLE,V,14,,MADRID,MADRID,28037,PUEBLO NUEVO,CIUDAD LINEAL,446054,4476600,40.43641736294729,-3.637346971302506,915 887 566,,bpciudadlineal@madrid.es,/contenido/entidadesYorganismos/BibliotecasPublicas
1882,Biblioteca P�blica Municipal Conde Duque (Centro)," La Biblioteca P�blica Conde Duque se inaugura en los a�os 90, cuando se traslada a este edificio la Biblioteca Municipal situada en el actual emplazamiento del Museo de Historia de Madrid, en la calle Fuencarral, separ�ndose la Biblioteca P�blica de la Biblioteca Hist�rica, que hab�an estado juntas hasta entonces. 
 El Cuartel de Conde Duque se reform� en 2011, obra llevada a cabo por el arquitecto Carlos de Ria�o, reinaugur�ndose la biblioteca al a�o siguiente, en un primer momento fusionada con la Biblioteca Musical V�ctor Espin�s, de la que posteriormente se separar�a. Con la reforma gan� en amplitud y homogeneidad con el resto de la red, ya que anteriormente no contaba con sala infantil ni multimedia. ", De lunes a viernes de 8:30 a 21 horas. Festivos cerrados. ," Accesible a personas con discapacidad f�sica.   Espacios:  Sala de Consulta y Lectura; Pr�stamo de libros, CDs, CD-Rom y DVD; Zona de publicaciones peri�dicas.  Servicios:  Servicio de Acceso P�blico a Internet; Zona wifi; Informaci�n bibliogr�fica; Animaci�n a la lectura; Formaci�n de usuarios; Sala infantil; Reprograf�a. "," 
  Superficie:  5.870 metros cuadrados 
  Puestos de lectura:  227 
  Puestos de Internet:  26 
 ",1,http://www.madrid.es/vgn-ext-templating/v/index.jsp?vgnextchannel=9e4c43db40317010VgnVCM100000dc0ca8c0RCRD&vgnextoid=13ec3d0b5e71c010VgnVCM1000000b205a0aRCRD,CONDE DUQUE,CALLE,V,9,,MADRID,MADRID,28015,UNIVERSIDAD,CENTRO,439833,4475645,40.42738668300474,-3.7105999955473625,91 588 59 10,,bpcondeduque@madrid.es,/contenido/entidadesYorganismos/BibliotecasPublicas
51188,Biblioteca P�blica Municipal D�maso Alonso (Chamart�n)," La biblioteca se abri� al p�blico en mayo de 1999 denomin�ndose Biblioteca Mateo Inurria, por estar situada en dicha calle. En 2008, por acuerdo plenario, pas� a llamarse Biblioteca D�maso Alonso. Y es que este poeta vivi� en el n�mero 25 de la calle Alberto Alcocer, en una casita con huerta y jard�n situada en su momento a las afueras de Madrid, en Chamart�n de la Rosa. En cuanto a los or�genes de la biblioteca, en 1997 la sede del diario  Ya  se convierte en sede del Barclays Bank. A cambio, la entidad cede una parcela al Ayuntamiento para la construcci�n de una biblioteca, que entreg� ya equipada. En 2008 se ampli� el vest�bulo, se instal� un ascensor y se cerr� una de las dos escaleras. En su lugar se coloc� un lucernario para iluminar la sala de lectura. ", De lunes a viernes de 8:30 a 21 horas. Festivos cerrados. ," Accesible a personas con discapacidad f�sica.  Espacios:  Sala de Consulta y Lectura; Zona de publicaciones peri�dicas; Sala infantil y juvenil.  Servicios:  Pr�stamo de libros, multimedia y revistas; Pr�stamo de dispositivos de ayuda a la lectura (lupas para libros y discman para audiolibros); Servicio de telelupa; Servicio de Acceso P�blico a Internet; Zona wifi; Informaci�n bibliogr�fica; Animaci�n a la lectura; Formaci�n de usuarios; Reprograf�a. "," 
  Superficie:  808 metros cuadrados 
  Puestos de lectura:  129 
  Puestos de Internet:  8 
 ",1,http://www.madrid.es/vgn-ext-templating/v/index.jsp?vgnextchannel=9e4c43db40317010VgnVCM100000dc0ca8c0RCRD&vgnextoid=5870007f8441f010VgnVCM1000000b205a0aRCRD,MANUEL FERRERO,CALLE,V,1,,MADRID,MADRID,28036,CASTILLA,CHAMARTIN,442072,4480075,40.467453379213175,-3.6846112774442705,91 350 31 50,,bpdamasoalonso@madrid.es,/contenido/entidadesYorganismos/BibliotecasPublicas
6893633,Biblioteca P�blica Municipal Eugenio Tr�as. Casa de Fieras de El Retiro," La Biblioteca P�blica Eugenio Tr�as-Casa fue inaugurada el 29 de abril de 2013. El edificio que alberga la biblioteca fue originariamente parte de las instalaciones que la Casa de Fieras ten�a en el Parque de El Retiro, construido en tiempos de Fernando  VII . El proyecto para esta nueva biblioteca, promovido  por la entonces Direcci�n General de Patrimonio Hist�rico, fue redactado por los arquitectos Jaime Nadal y Sebasti�n Araujo e incluye la rehabilitaci�n de los dos grandes pabellones de la antigua Casa de Fieras, uno longitudinal de gran dimensi�n y otro transversal de menor tama�o as� como la construcci�n de un pabell�n de nueva planta imprescindible para cumplir con el  programa bibliotecario. "," De lunes a viernes de 8:30 a 21 horas; s�bados de 9 a 18 horas y domingos de 9 a 14 horas. Los festivos y los fines de semana de agosto, la biblioteca permanecer� cerrada. "," Accesible a personas con discapacidad f�sica.  Espacios:  Sala de consulta y lectura; Salas de trabajo en grupo; Sala polivalente; Sala de publicaciones peri�dicas; Sala infantil; Sala de prelectores; Sala juvenil; Sala especializada en medio ambiente.   Servicios:  Pr�stamo de libros, multimedia y revistas; Servicio de Acceso P�blico a Internet; Zona wifi; Informaci�n bibliogr�fica; Animaci�n a la lectura; Formaci�n de usuarios; Reprograf�a. "," 
  Superficie:  3.794 metros cuadrados 
  Puestos de lectura:  185 
  Puestos de Internet:  39 
  Sala polivalente:  90 
  Salas de trabajo en grupo:  3 (6-8 personas en cada una) 
 ",1,http://www.madrid.es/vgn-ext-templating/v/index.jsp?vgnextchannel=9e4c43db40317010VgnVCM100000dc0ca8c0RCRD&vgnextoid=e791bed05ceed310VgnVCM1000000b205a0aRCRD,FERNAN NU�EZ,PASEO,V,24,,MADRID,MADRID,28009,LOS JERONIMOS,RETIRO,442454,4474428,40.4166091081099,-3.6795930368034804,91 480 48 38,,bpeugeniotrias@madrid.es,/contenido/entidadesYorganismos/BibliotecasPublicas
167128,Biblioteca P�blica Municipal Francisco Ayala (Vic�lvaro)," La Biblioteca Francisco Ayala es una biblioteca ubicada en el barrio de Valdebernardo, en el distrito de Vic�lvaro. Se inaugur� en el a�o 2005. El edificio de dos plantas est� situado en el eje que vertebra el barrio, en la planta inferior se situan los servicios de acceso a Internet y pr�stamo de adultos. En la planta superior se encuentra la sala infantil, la sala de lectura y la sala de actividades. ", De lunes a viernes de 8:30 a 21 horas. Festivos cerrados. ," Accesible a personas con discapacidad f�sica.   Espacios : Sala de Consulta y Lectura; Sala infantil y juvenil; Zona de publicaciones peri�dicas; Sala polivalente.  Servicios :  Pr�stamo de libros, multimedia y publicaciones peri�dicas; Pr�stamo de dispositivos de ayuda a la lectura (lupas para libros y discman para audiolibros); Servicio de Acceso P�blico a Internet; Zona wifi; Informaci�n bibliogr�fica; Animaci�n a la lectura; Formaci�n de usuarios; Reprograf�a. "," 
  Superficie:  1.600 metros cuadrados 
  Puestos de lectura:  205 
  Puestos de Internet:  11 
  Sala polivalente:  55 
 ",1,http://www.madrid.es/vgn-ext-templating/v/index.jsp?vgnextchannel=9e4c43db40317010VgnVCM100000dc0ca8c0RCRD&vgnextoid=f05279262ef5d010VgnVCM1000000b205a0aRCRD,INDALECIO PRIETO,BULEVAR,V,21,,MADRID,MADRID,28032,VALDEBERNARDO,VICALVARO,447388,4472529,40.39982891410407,-3.621281890570377,91 301 64 66,,bpfranciscoayala@madrid.es,/contenido/entidadesYorganismos/BibliotecasPublicas
1760,Biblioteca P�blica Municipal Francisco Ib��ez (Chamart�n),"   La Biblioteca P�blica Francisco Ib��ez se encuentra situada en el Centro Cultural Mantuano, en el barrio de Chamart�n. Proviene de la antigua Biblioteca de Chamart�n, que fue inaugurada en 1983. En el a�o 2015, despu�s de una profunda remodelaci�n, cambi� su denominaci�n por la actual de Francisco Ib��ez. La alcaldesa, Ana Mar�a Botella, inaugur� las nuevas instalaciones y se proyect�  un v�deo  del guionista y dibujante de c�mic que le da nombre en agradecimiento. ", De lunes a viernes de 8:30 a 21 horas. Festivos cerrados. , Accesible a personas con discapacidad f�sica.  Espacios:  Sala de Consulta y Lectura;  Zona de publicaciones peri�dicas; Sala infantil y juvenil.   Servicios:  Pr�stamo de libros; multimedia y revistas; Pr�stamo de dispositivos de ayuda a la lectura (lupas para libros y discman para audiolibros); Servicio de Acceso P�blico a Internet; Zona wifi; Informaci�n bibliogr�fica; Animaci�n a la lectura; Formaci�n de usuarios; Reprograf�a. ," 
  Superficie:  543 metros cuadrados 
  Puestos de lectura:  94 
  Puestos de Internet:  24 
 ",1,http://www.madrid.es/vgn-ext-templating/v/index.jsp?vgnextchannel=9e4c43db40317010VgnVCM100000dc0ca8c0RCRD&vgnextoid=0fce3d0b5e71c010VgnVCM1000000b205a0aRCRD,MANTUANO,CALLE,V,51,,MADRID,MADRID,28002,CIUDAD JARDIN,CHAMARTIN,442766,4477922,40.44810636195716,-3.6762309620097398,91 510 37 56,,bpfranciscoibanez@madrid.es,/contenido/entidadesYorganismos/BibliotecasPublicas
1754,Biblioteca P�blica Municipal Gabriel Garc�a M�rquez (Usera),"   La Biblioteca P�blica Municipal Gabriel Garc�a Marquez es heredera de la antigua biblioteca de Orcasur, abierta al p�blico en 1983. Esta biblioteca se situ� en el interior del Centro Cultural de Orcasur. En 2014 fue remodelada profundamente a la vez que se cambi� el nombre por el de Gabriel Garc�a Marquez. ", De lunes a viernes de 8:30 a 21 horas. Festivos cerrados. ," Accesible a personas con discapacidad f�sica.   Espacios:  Sala de consulta y lectura; Sala infantil y juvenil; Zona de publicaciones peri�dicas; Salas de trabajo en grupo; Sala polivalente  Servicios:  Pr�stamo de libros, multimedia y revistas; Servicio de Acceso P�blico a Internet; Zona wifi; Informaci�n bibliogr�fica; Animaci�n a la lectura; Formaci�n de usuarios; Reprograf�a. "," 
  Superficie:  1395 metros cuadrados 
  Puestos de lectura:  142 
  Puestos de Internet:  27 
  Sala polivalente:  55 
  Salas de trabajo en grupo:  2 (6 y 10 plazas) 
 ",1,http://www.madrid.es/vgn-ext-templating/v/index.jsp?vgnextchannel=9e4c43db40317010VgnVCM100000dc0ca8c0RCRD&vgnextoid=e4bf3d0b5e71c010VgnVCM1000000b205a0aRCRD,PUEBLO,PLAZA,NUM,2,CENTRO CULTURAL ORCASUR,MADRID,MADRID,28041,ORCASUR,USERA,440582,4468910,40.366768324753416,-3.701141063083806,"91 318 86 91                                                  
",,bpgarciamarquez@madrid.es,/contenido/entidadesYorganismos/BibliotecasPublicas
1748,Biblioteca P�blica Municipal Gerardo Diego (Villa de Vallecas)," La Biblioteca de Vallecas Villa se abri� en 1987, en el local que hab�a sido hasta entonces la escuela infantil del pueblo de Vallecas. Al transformarse en biblioteca, tom� el nombre del maestro de la antigua escuela -Francisco Fatou-, acudiendo a la inauguraci�n su viuda, quien contribuy� con una importante aportaci�n econ�mica para la ampliaci�n de sus fondos. En 1995 se traslad� desde la calle Manuel V�lez -donde qued� el Centro Cultural Francisco Fatou- a la vecina calle Monte Aya, en la que se inaugur� un nuevo edificio en enero de 1996.   Su nueva sede se construy� sobre el solar del antiguo Cine Madrid. La pr�ctica totalidad del edificio, salvo unas peque�as dependencias destinadas a escuela de adultos, est� dedicado a biblioteca. Es all� donde recibi� su actual denominaci�n como Biblioteca P�blica Municipal Gerardo Diego. ", De lunes a viernes de 8:30 a 21 horas. Festivos cerrados. ,"  Accesible a personas con discapacidad f�sica. Espacios:  Sala de Consulta y Lectura; Zona de publicaciones peri�dicas; Sala infantil y juvenil; Sala polivalente.   Servicios:  Pr�stamo de libros, multimedia y revistas (colecci�n de libros en rumano); Pr�stamo de dispositivos de ayuda a la lectura (lupas para libros y discman para audiolibros); Servicio de Acceso P�blico a Internet; Zona wifi; Informaci�n bibliogr�fica; Animaci�n a la lectura; Formaci�n de usuarios; Reprograf�a. "," 
  Superficie:  1.601 metros cuadrados 
  Puestos de lectura:  196 
  Puestos de Internet:  16 
  Sala polivalente : 59 
  Bibliotecarios:  Javier Quevedo Arcos (director) 
 ",1,http://www.madrid.es/vgn-ext-templating/v/index.jsp?vgnextchannel=9e4c43db40317010VgnVCM100000dc0ca8c0RCRD&vgnextoid=ca903d0b5e71c010VgnVCM1000000b205a0aRCRD,MONTE AYA,CALLE,NUM,12,,MADRID,MADRID,28031,CASCO HISTORICO VALLECAS,VILLA DE VALLECAS,447248,4470096,40.37790196240434,-3.6227296605039516,91 380 66 33,,bpgerardodiego@madrid.es,/contenido/entidadesYorganismos/BibliotecasPublicas
79941,Biblioteca P�blica Municipal Gloria Fuertes (Barajas)," La Biblioteca P�blica Municipal Gloria Fuertes fue inaugurada en octubre del a�o 2001 asistiendo al acto el entonces alcalde, Jos� Mar�a �lvarez del Manzano. El edificio es un proyecto de nueva planta de la arquitecta Carmen Blanco Hern�ndez para albergar un centro cultural y la �nica biblioteca que, en la actualidad, presta servicio a los vecinos del distrito de Barajas.  Desde los grandes ventanales que recorren la primera y segunda planta, donde se ubica la biblioteca, se aprecian los restos del reconstruido castillo de los Zapata, �nico que se conserva en el t�rmino municipal de Madrid, y un extenso olivar que pone l�mite al moderno parque Juan Carlos I. ", De lunes a viernes de 8:30 a 21 horas. Festivos cerrados. ," Accesible a personas con discapacidad f�sica.  Espacios:  Sala de Consulta y Lectura; Zona de publicaciones peri�dicas; Sala infantil y juvenil; Sala polivalente.   Servicios:  Pr�stamo de libros, multimedia y revistas; Pr�stamo de dispositivos de ayuda a la lectura (lupas para libros y discman para audiolibros); Servicio de Acceso P�blico a Internet; Zona wifi; Informaci�n bibliogr�fica; Animaci�n a la lectura; Formaci�n de usuarios; Reprograf�a. "," 
  Superficie:  672 metros cuadrados 
  Puestos de lectura:  119 
  Puestos de Internet:  9 
  Sala polivalente:  30 
 ",1,http://www.madrid.es/vgn-ext-templating/v/index.jsp?vgnextchannel=9e4c43db40317010VgnVCM100000dc0ca8c0RCRD&vgnextoid=1f64c2c6e051c010VgnVCM2000000c205a0aRCRD,LOGRO�O,AVENIDA,V,179,,MADRID,MADRID,28042,CORRALEJOS,BARAJAS,449770,4479254,40.46055947228695,-3.5937461811785347,91 312 02 58,,bpgloriafuertes@madrid.es,/contenido/entidadesYorganismos/BibliotecasPublicas
1750,Biblioteca P�blica Municipal Huerta de la Salud (Hortaleza),"   La Biblioteca P�blica Municipal Huerta de la Salud fue inaugurada en 1995, reform�ndose y ampli�ndose profundamente entre los a�os 2006 y 2007. ", De lunes a viernes de 8:30 a 21 horas. Festivos cerrados. ," Accesible a personas con discapacidad f�sica.  Espacios:  Sala de Consulta y Lectura; Zona de publicaciones peri�dicas; Sala infantil y juvenil.   Servicios:  Pr�stamo de libros, multimedia y revistas; Pr�stamo de dispositivos de ayuda a la lectura (lupas para libros y discman para audiolibros); Servicio de Acceso P�blico a Internet; Zona wifi; Informaci�n bibliogr�fica; Animaci�n a la lectura; Formaci�n de usuarios; Reprograf�a. "," 
  Superficie : 450 metros cuadrados 
  Puestos de lectura : 77 
  Puestos de Internet:  7 
 ",1,http://www.madrid.es/vgn-ext-templating/v/index.jsp?vgnextchannel=9e4c43db40317010VgnVCM100000dc0ca8c0RCRD&vgnextoid=9c5879262ef5d010VgnVCM1000000b205a0aRCRD,MAR DE LAS ANTILLAS,CALLE,V,10,,MADRID,MADRID,28033,PINAR DEL REY,HORTALEZA,445295,4480968,40.47571688103069,-3.64667257750353,91 764 52 43,,bphuertasalud@madrid.es,/contenido/entidadesYorganismos/BibliotecasPublicas
51849,Biblioteca P�blica Municipal Islas Filipinas (Ciudad Lineal)," La Biblioteca P�blica Municipal Islas Filipinas fue inaugurada en el a�o 2000 y su origen se remonta a la Biblioteca P�blica de Quintana, que estaba situada en el Centro Cultural Sambara. En el a�o 2000 se traslad� a su actual ubicaci�n donde contin�a hasta la fecha, reform�ndose para hacerla accesible entre oto�o de 2007 y primavera de 2009, reabriendo sus puertas en marzo de este a�o. 
 La biblioteca se sit�a en lo que era el antiguo Colegio Islas Filipinas, del que recibe su nombre, prestando servicio a los ciudadanos de la zona, cuyo eje principal es la calle Marqu�s de Corbera. ", De lunes a viernes de 8:30 a 21 horas. Festivos cerrados. ," Accesible a personas con discapacidad f�sica.  Espacios:  Sala de Consulta y Lectura; Zona de publicaciones peri�dicas; Sala infantil y juvenil.   Servicios:  Pr�stamo de libros, multimedia y revistas; Pr�stamo de dispositivos de ayuda a la lectura (lupas para libros y discman para audiolibros); Servicio de telelupa; Servicio de Acceso P�blico a Internet; Zona wifi;  Informaci�n bibliogr�fica; Animaci�n a la lectura; Formaci�n de usuarios; Reprograf�a. "," 
  Superficie:  880 metros cuadrados 
  Puestos de lectura:  102 
  Puestos de Internet:  10 
 ",1,http://www.madrid.es/vgn-ext-templating/v/index.jsp?vgnextchannel=9e4c43db40317010VgnVCM100000dc0ca8c0RCRD&vgnextoid=697c598d1351c010VgnVCM1000000b205a0aRCRD,NUESTRA SE�ORA DEL VILLAR,CALLE,NUM,6,,MADRID,MADRID,28017,VENTAS,CIUDAD LINEAL,444814,4475167,40.42342659084215,-3.651841641389484,91 403 63 22,,bpislasfilipinas@madrid.es,/contenido/entidadesYorganismos/BibliotecasPublicas
5975465,Biblioteca P�blica Municipal Iv�n de Vargas (Centro),"  La Biblioteca P�blica Municipal Iv�n de Vargas fue inaugurada el 28 de febrero de 2011 y toma su nombre del antiguo edificio de viviendas que se levantaba en el mismo solar, que podr�a datar de principios del siglo  XVII . El linaje de los Vargas, procedente de la �poca de la Reconquista, es uno de los m�s insignes de la historia de la ciudad.   La Biblioteca Iv�n de Vargas es la primera que incorpora una secci�n especializada de referencia sobre Madrid ,  que permitir� conocer e investigar la historia, las tradiciones, el urbanismo o la gastronom�a de la regi�n. "," De lunes a viernes de 8:30 a 21 horas; s�bados de 9 a 18 horas y domingos de 9 a 14 horas. Los festivos y los fines de semana de agosto ,  la biblioteca permanecer� cerrada. "," Accesible a personas con discapacidad f�sica.  Espacios:  Sala de Consulta y Lectura; Zona de publicaciones peri�dicas; Sala infantil y juvenil; Sala de Internet; Sala Madrid; Sala de polivalente.  Servicios:  Pr�stamo de libros, multimedia y revistas; Pr�stamo de dispositivos de ayuda a la lectura (lupas para libros y discman para audiolibros); Servicio de telelupa; Servicio de Acceso P�blico a Internet; Zona wifi; Informaci�n bibliogr�fica; Animaci�n a la lectura; Formaci�n de usuarios; Reprograf�a. "," 
  Superficie:  2.884 metros cuadrados 
  Puestos de lectura:  164 
  Puestos de Internet:  18 
  Sala polivalente:  45 
 ",1,http://www.madrid.es/vgn-ext-templating/v/index.jsp?vgnextchannel=9e4c43db40317010VgnVCM100000dc0ca8c0RCRD&vgnextoid=0b60e92be3c5e210VgnVCM1000000b205a0aRCRD,SAN JUSTO,CALLE,V,5,,MADRID,MADRID,28005,PALACIO,CENTRO,439884,4474170,40.41410290844665,-3.7098591212735883,917 586 211,,bpivandevargas@madrid.es,/contenido/entidadesYorganismos/BibliotecasPublicas
115056,Biblioteca P�blica Municipal Jos� Hierro (San Blas-Canillejas),"  La Biblioteca P�blica Municipal Jos� Hierro fue inaugurada en 2003, asistiendo a la inauguraci�n la viuda del escritor y el entonces alcalde Jos� Mar�a �lvarez del Manzano. Se trata de un edificio pr�ximo a la Junta de Distrito, con la que comparte un amplio espacio ajardinado. ", De lunes a viernes de 8:30 a 21 horas. Festivos cerrados. ," Accesible a personas con discapacidad f�sica.  Espacios:  Sala de Consulta y Lectura; Zona de publicaciones peri�dicas; Sala infantil y juvenil; Comiteca; Sala polivalente.   Servicios:  Pr�stamo de libros, multimedia y revistas (colecci�n de libros en rumano); Pr�stamo de dispositivos de ayuda a la lectura (lupas para libros y discman para audiolibros); Servicio de telelupa; Servicio de Acceso P�blico a Internet; Zona wifi; Informaci�n bibliogr�fica; Animaci�n a la lectura; Formaci�n de usuarios; Reprograf�a. "," 
  Superficie:  1.866 metros cuadrados 
  Puestos de lectura:  227 
  Puestos de Internet:  13 
  Sala polivalente:  50 
  Bibliotecarios:  Mar�a Jos� Herv�s Fern�ndez (directora) 
 ",1,http://www.madrid.es/vgn-ext-templating/v/index.jsp?vgnextchannel=9e4c43db40317010VgnVCM100000dc0ca8c0RCRD&vgnextoid=338879262ef5d010VgnVCM1000000b205a0aRCRD,MARIA SEVILLA DIAGO,CALLE,V,15,,MADRID,MADRID,28022,ROSAS,SAN BLAS-CANILLEJAS,448323,4476237,40.433291625973624,-3.6105662311927453,91 313 55 28,,bpjosehierro@madrid.es,/contenido/entidadesYorganismos/BibliotecasPublicas
1790,Biblioteca P�blica Municipal Jos� Saramago (Fuencarral-El Pardo)," La Biblioteca Municipal Jos� Saramago se inaugur� en noviembre de 1990, con el nombre de Biblioteca de la Vaguada. El origen es la antigua Biblioteca de Pe�agrande situada en el Centro Cultural Rafael de Le�n. Las instalaciones eran insuficientes para uno de los distritos m�s grandes de Madrid, y gracias al proyecto del Centro C�vico de La Vaguada se subsan�, por un lado la falta de espacio y por otro se mejor� su ubicaci�n al situarse junto al Centro Comercial La Vaguada. El edificio forma parte de un proyecto dise�ado en 1982 por los arquitectos Javier San Jos� Marqu�s y Jordi Parcerisas V�zquez. La organizaci�n del edificio se realiz� por medio de una secuencia de arcos que un�an entre s� los diferentes espacios. En el a�o 2011 cambio su denominaci�n por la actual de Jos� Saramago. ", De lunes a viernes de 8:30 a 21 horas. Festivos cerrados. ," Accesible a personas con discapacidad f�sica (s�lo en la planta baja).   Espacios:  Sala de Consulta y Lectura; Zona de publicaciones peri�dicas; Sala infantil y juvenil; Sala polivalente.   Servicios:  Pr�stamo de libros, multimedia y revistas; Pr�stamo de dispositivos de ayuda a la lectura (lupas para libros y discman para audiolibros); Servicio de Acceso P�blico a Internet; Zona wifi; Informaci�n bibliogr�fica; Animaci�n a la lectura; Formaci�n de usuarios; Reprograf�a. "," 
  Superficie:  1.276 metros cuadrados 
  Puestos de lectura:  204 
  Puestos de Internet:  17 
  Sala polivalente : 30 
 ",1,http://www.madrid.es/vgn-ext-templating/v/index.jsp?vgnextchannel=9e4c43db40317010VgnVCM100000dc0ca8c0RCRD&vgnextoid=70d879262ef5d010VgnVCM1000000b205a0aRCRD,MONFORTE DE LEMOS,AVENIDA,V,38,,MADRID,MADRID,28029,EL PILAR,FUENCARRAL-EL PARDO,439977,4481329,40.47860087334554,-3.7094408342979954,91 588 68 91,,bpjosesaramago@madrid.es,/contenido/entidadesYorganismos/BibliotecasPublicas
1756,Biblioteca P�blica Municipal La Chata (Carabanchel)," La Biblioteca P�blica La Chata abri� sus puertas por primera vez al p�blico el D�a de la Biblioteca, 24 de octubre, de 2005. El 13 de agosto de 2006 el Alcalde Ruiz-Gallard�n, acompa�ado por la Concejala de Las Artes, Alicia Moreno, procedi� a su inauguraci�n oficial en un breve acto.  El nombre de la biblioteca, La Chata, alude a Isabel de Borb�n, hermana de Alfonso  XII , que acud�a regularmente a Carabanchel por ser una gran amante de los toros y a la Finca Vista Alegre que pertenec�a a la familia real. Tambi�n alude al nombre popular de la plaza de toros de Vista Alegre, denominada as� por ser muy baja, achatada. Por lo tanto es un nombre muy &ldquo;carabanchelero&rdquo;. ", De lunes a viernes de 8:30 a 21 horas. Festivos cerrados. ," Accesible a personas con discapacidad f�sica.  Espacios:  Sala de Consulta y Lectura; Zona de publicaciones peri�dicas; Sala infantil y juvenil.   Servicios:  Pr�stamo de libros, multimedia y revistas (colecci�n de libros en rumano); Pr�stamo de dispositivos de ayuda a la lectura (lupas para libros y discman para audiolibros); Servicio de telelupa; Servicio de Acceso P�blico a Internet; Zona wifi; Informaci�n bibliogr�fica; Animaci�n a la lectura; Formaci�n de usuarios; Reprograf�a. "," 
  Superficie:  1.600 metros cuadrados 
  Puestos de lectura:  223 
  Puestos de Internet:  17 
 ",1,http://www.madrid.es/vgn-ext-templating/v/index.jsp?vgnextchannel=9e4c43db40317010VgnVCM100000dc0ca8c0RCRD&vgnextoid=d9a879262ef5d010VgnVCM1000000b205a0aRCRD,GENERAL RICARDOS,CALLE,NUM,252,Antiguo Mercado de Carabanchel,MADRID,MADRID,28025,VISTA ALEGRE,CARABANCHEL,437123,4470774,40.38330593504341,-3.7420633861175796,91 422 05 33,,bplachata@madrid.es,/contenido/entidadesYorganismos/BibliotecasPublicas
185595,Biblioteca P�blica Municipal Manuel V�zquez Montalb�n (Tetu�n),"   La Biblioteca Manuel V�zquez Montalb�n se abri� al p�blico en agosto de 2006. Se trata de un edificio dise�ado por la arquitecta Isabel Huete Chugunowa, en el que comparten instalaciones la biblioteca y una Escuela Municipal de M�sica. ", De lunes a viernes de 8:30 a 21 horas. Festivos cerrados. ," Accesible a personas con discapacidad f�sica.  Espacios:  Sala de Consulta y Lectura; Zona de publicaciones peri�dicas; Sala infantil y juvenil; Sala polivalente.  Servicios:  Pr�stamo de libros, multimedia y revistas; Pr�stamo de dispositivos de ayuda a la lectura (lupas para libros y discman para audiolibros); Servicio de Acceso P�blico a Internet; Zona wifi; Informaci�n bibliogr�fica; Animaci�n a la lectura; Formaci�n de usuarios; Reprograf�a. "," 
  Superficie:  1.372 metros cuadrados 
  Puestos de lectura:  151 
  Puestos de Internet:  11 
  Sala polivalente:  40 
 ",1,http://www.madrid.es/vgn-ext-templating/v/index.jsp?vgnextchannel=9e4c43db40317010VgnVCM100000dc0ca8c0RCRD&vgnextoid=b5ca89e2c9e5d010VgnVCM1000000b205a0aRCRD,FRANCOS RODRIGUEZ,CALLE,V,67,,MADRID,MADRID,28039,BELLAS VISTAS,TETUAN,439865,4478987,40.45749513485957,-3.710539712535917,"91 398 07 23                                                                                                                                     
91 398 07 26",,bpvazquezmontalban@madrid.es,/contenido/entidadesYorganismos/BibliotecasPublicas
7697128,Biblioteca P�blica Municipal Mario Vargas Llosa (Centro)," La Biblioteca Mario Vargas Llosa fue inaugurada por el Premio Nobel de Literatura que le da su nombre. La biblioteca tiene su origen en la remodelaci�n del complejo Barcel� que incluye un mercado, que sustituye al que exist�a antiguamente, un polideportivo, un parking y la biblioteca. Su construcci�n y apertura era una antigua reivindicaci�n de los vecinos que reclamaban una biblioteca en el distrito Centro que diera servicio a los barrios de Justicia, Universidad y parte de Chamber�.  Al estar en un centro neur�lgico de la cultura madrile�a, junto al Museo de Historia de Madrid y el Museo Rom�ntico, numerosas librer�as, varias universidades, etc. la Biblioteca Mario Vargas Llosa se constituye como un centro de encuentro cultural, art�stico y social del barrio. ", De lunes a viernes de 8:30 a 21 horas. Festivos cerrados. ," Accesible a personas con discapacidad f�sica.   Espacios:  Sala de consulta y lectura; Sala de trabajo en grupo; Zona de publicaciones peri�dicas; Sala infantil y juvenil; Sala polivalente.  Servicios:  Pr�stamo de libros, multimedia y revistas; Servicio de Acceso P�blico a Internet; Zona wifi; Informaci�n bibliogr�fica; Animaci�n a la lectura; Formaci�n de usuarios; Reprograf�a. "," 
  Superficie:  1.860,70 metros cuadrados 
  Puestos de lectura:  122 
  Puestos de Internet:  41 
  Sala polivalente:  16 
  Sala de trabajo en grupo : 16 
 ",1,http://www.madrid.es/vgn-ext-templating/v/index.jsp?vgnextchannel=9e4c43db40317010VgnVCM100000dc0ca8c0RCRD&vgnextoid=6c4dbc2658739410VgnVCM2000000c205a0aRCRD,BARCELO,CALLE,V,2,,MADRID,MADRID,28004,JUSTICIA,CENTRO,440755,4475555,40.426642215368176,-3.699722994908341,"914 802 433                                                                                                                                                   
",,bpvargasllosa@madrid.es,/contenido/entidadesYorganismos/BibliotecasPublicas
1759,Biblioteca P�blica Municipal Mar�a Zambrano (Tetu�n)," La Biblioteca P�blica Municipal Mar�a Zambrano se inaugur� el 29 de octubre de 2010 dentro del Centro Cultural Eduardo �rculo (inaugurado a su vez el 15 de octubre de 2009), en el barrio de Ventilla, dentro del distrito de Tetu�n en Madrid. Al acto acudieron el alcalde Alberto Ruiz Gallard�n y la Delegada del �rea de Las Artes Alicia Moreno. Esta biblioteca es consecuencia de la necesidad de ampliar la Biblioteca de Tetu�n, situada en el antiguo edificio de la Junta Municipal del mismo nombre (Bravo Murillo 357).   La Biblioteca de Tetu�n fue inaugurada en 1982 por el alcalde Enrique Tierno Galv�n, dentro del edificio de la Junta Municipal, y fue una de las primeras de la red municipal de Bibliotecas del Ayuntamiento de Madrid. Era heredera de la biblioteca creada en la nueva Casa Consistorial del antiguo pueblo de Chamart�n de la Rosa en 1934. ", De lunes a viernes de 8:30 a 21 horas. Festivos cerrados. ," Accesible a personas con discapacidad f�sica.  Espacios:  Sala de Consulta y Lectura; Zona de publicaciones peri�dicas; Sala infantil y juvenil.   Servicios:  Pr�stamo de libros, E-books, multimedia y revistas; Pr�stamo de dispositivos de ayuda a la lectura (lupas para libros y discman para audiolibros); Servicio de Acceso P�blico a Internet; Zona wifi; Informaci�n bibliogr�fica; Animaci�n a la lectura; Formaci�n de usuarios; Reprograf�a. "," 
  Superficie:  1.551 metros cuadrados 
  Puestos de lectura:  123 
  Puestos de Internet:  21 
 ",1,http://www.madrid.es/vgn-ext-templating/v/index.jsp?vgnextchannel=9e4c43db40317010VgnVCM100000dc0ca8c0RCRD&vgnextoid=74703d0b5e71c010VgnVCM1000000b205a0aRCRD,DONOSO,PLAZA,V,5,En el Centro Cultural Eduardo �rculo,MADRID,MADRID,28029,ALMENARA,TETUAN,440967,4480259,40.46903299144094,-3.6976620067964996,91 733 90 43,,bpmariazambrano@madrid.es,/contenido/entidadesYorganismos/BibliotecasPublicas
1752,Biblioteca P�blica Municipal Miguel Delibes (Moratalaz)," La Biblioteca P�blica Municipal de Moratalaz fue inaugurada en el a�o 1986. Su primera ubicaci�n fue dentro del parque Darwin, en unas edificaciones que la Inmobiliaria Urbis utiliz� como pisos piloto para la venta de las viviendas y don� luego al Ayuntamiento. La primera instalaci�n se concibi� como un quiosco de libros de pr�stamo. Posteriormente se le a�adi� otro m�dulo de los pisos piloto. Con el desarrollo del distrito, se decide la construcci�n de una nueva biblioteca. El proyecto, firmado por la arquitecta municipal Isabel Huete Chugunowa, comprende cuatro plantas con un total de 2.012  m&sup2; . Se inaugur� el 18 de octubre del a�o 2001, en acto presidido por D. Jos� Mar�a �lvarez del Manzano, alcalde del Ayuntamiento de Madrid. En 2010 se le da el nombre del escritor Miguel Delibes. ", De lunes a viernes de 8:30 a 21 horas. Festivos cerrado. ," Accesible a personas con discapacidad f�sica.  Espacios:  Sala de Consulta y Lectura; Zona de publicaciones peri�dicas; Sala infantil y juvenil.   Servicios:  Pr�stamo de libros, multimedia y revistas; Pr�stamo de dispositivos de ayuda a la lectura (lupas para libros); Servicio de telelupa; Servicio de Acceso P�blico a Internet; Zona wifi; Informaci�n bibliogr�fica; Animaci�n a la lectura; Formaci�n de usuarios; Reprograf�a. "," 
  Superficie:  2.012 metros cuadrados 
  Puestos de lectura:  258 
  Puestos de Internet:  14 
 ",1,http://www.madrid.es/vgn-ext-templating/v/index.jsp?vgnextchannel=9e4c43db40317010VgnVCM100000dc0ca8c0RCRD&vgnextoid=9e8f3d0b5e71c010VgnVCM1000000b205a0aRCRD,ARROYO BELINCOSO,CALLE,NUM,11,JUNTO A CENTRO CULTURAL EDUARDO CHILLIDA,MADRID,MADRID,28030,MEDIA LEGUA,MORATALAZ,444706,4473646,40.40971737692924,-3.6529822109115133,91 328 73 00,,bpmigueldelibes@madrid.es,/contenido/entidadesYorganismos/BibliotecasPublicas
186714,Biblioteca P�blica Municipal Pablo Neruda (Ciudad Lineal)," La Biblioteca Pablo Neruda fue inaugurada en septiembre de 2006 por la Concejala del �rea de Las Artes. La entrada a la biblioteca est� presidida por un conjunto escult�rico dedicado a Pablo Neruda, del escultor Julio L�pez Hern�ndez. Concebido en altorrelieve y en bronce, representa al escritor escribiendo en su mesa, junto con otros elementos entresacados de su casa de 'Isla Negra'. La biblioteca es un edificio de nueva planta, exento, de tres alturas, que comparte dependencias con un Centro D�a. La entrada es di�fana y luminosa y en ella se encuentra el mostrador de pr�stamo, la zona multimedia, la hemeroteca, la comiteca y el fondo bibliogr�fico. La segunda planta alberga una secci�n juvenil, la sala infantil, la sala de referencia y el despacho de bibliotecarios. En la tercera est� la sala polivalente. ", De lunes a viernes de 8:30 a 21 horas. Festivos cerrado. ," Accesible a personas con discapacidad f�sica.  Espacios:  Sala de Consulta y Lectura; Zona de publicaciones peri�dicas; Sala infantil y juvenil; Sala polivalente.  Servicios:  Pr�stamo de libros, multimedia y revistas (colecci�n de libros en rumano); Pr�stamo de dispositivos de ayuda a la lectura (lupas para libros y discman para audiolibros); Servicio de Acceso P�blico a Internet; Zona wifi; Informaci�n bibliogr�fica; Animaci�n a la lectura; Formaci�n de usuarios; Reprograf�a. "," 
  Superficie:  1.500 metros cuadrados 
  Puestos de lectura:  192 
  Puestos de Internet:  14 
  Sala polivalente:  30 
 ",1,http://www.madrid.es/vgn-ext-templating/v/index.jsp?vgnextchannel=9e4c43db40317010VgnVCM100000dc0ca8c0RCRD&vgnextoid=d5c548d20675e010VgnVCM1000000b205a0aRCRD,ASCAO,CALLE,V,4,,MADRID,MADRID,28017,PUEBLO NUEVO,CIUDAD LINEAL,445680,4475825,40.42941133441142,-3.6416899839787695,91 406 14 72,,bppabloneruda@madrid.es,/contenido/entidadesYorganismos/BibliotecasPublicas
1753,Biblioteca P�blica Municipal Portazgo (Puente de Vallecas)," La Biblioteca de Portazgo fue inaugurada en 1983 compartiendo espacio con el edificio del Centro Cultural Alberto S�nchez. Fue una de las bibliotecas pioneras en formar parte de la incipiente red de Bibliotecas P�blicas del Ayuntamiento de Madrid, hace m�s de 30 a�os. En 2006 fue remodelada y ampliada incorporando espacios del Centro Cultural. Actualmente cuenta con dos plantas, en la planta baja encontramos la sala infantil, un peque�o espacio para la prensa y el mostrador de pr�stamo, adem�s del servicio de Internet. La planta primera funciona como sala de lectura y en ella se encuentra el fondo de adultos ", De lunes a viernes de 8:30 a 21 horas. Festivos cerrado. ,"  Accesible a personas con discapacidad f�sica.  Espacios:  Sala de Consulta y Lectura; Zona de publicaciones peri�dicas; Sala infantil y juvenil.   Servicios:  Pr�stamo de libros, multimedia y revistas; Pr�stamo de dispositivos de ayuda a la lectura (lupas para libros y discman para audiolibros); Servicio de acceso p�blico a Internet; Zona wifi; Informaci�n bibliogr�fica; Animaci�n a la lectura; Formaci�n de usuarios; Reprograf�a. "," 
  Superficie:  550 metros cuadrados 
  Puestos de lectura:  116 
  Puestos de Internet:   
 ",1,http://www.madrid.es/vgn-ext-templating/v/index.jsp?vgnextchannel=9e4c43db40317010VgnVCM100000dc0ca8c0RCRD&vgnextoid=89a40a47f441f010VgnVCM2000000c205a0aRCRD,CANTALAPIEDRA,CALLE,V,11,,MADRID,MADRID,28038,NUMANCIA,PUENTE DE VALLECAS,444487,4471826,40.39330714657693,-3.6554041181586046,91 757 03 23,,bpportazgo@madrid.es,/contenido/entidadesYorganismos/BibliotecasPublicas
1792,Biblioteca P�blica Municipal Pozo del T�o Raimundo (Puente de Vallecas),   La Biblioteca p�blica Pozo del T�o Raimundo fue inaugurada en el a�o 1991 y comparte edificio con el Centro Cultural Pozo del T�o Raimundo. , De lunes a viernes de 8:30 a 21 horas. Festivos cerrado. ," Accesible a personas con discapacidad f�sica.  Espacios:  Sala de Consulta y Lectura; Zona de publicaciones peri�dicas; Sala infantil y juvenil.   Servicios:  Pr�stamo de libros, multimedia y revistas; Pr�stamo de dispositivos de ayuda a la lectura (lupas para libros y discman para audiolibros); Servicio de Acceso P�blico a Internet; Zona wifi; Informaci�n bibliogr�fica; Animaci�n a la lectura; Formaci�n de usuarios; Reprograf�a. "," 
  Superficie:  269 metros cuadrados 
  Puestos de lectura:  146 
  Puestos de Internet:  7 
 ",1,http://www.madrid.es/vgn-ext-templating/v/index.jsp?vgnextchannel=9e4c43db40317010VgnVCM100000dc0ca8c0RCRD&vgnextoid=d7203d0b5e71c010VgnVCM1000000b205a0aRCRD,GLORIETAS,AVENIDA,NUM,19,EN C. CULTURAL POZO TIO RAIMUNDO,MADRID,MADRID,28053,ENTREVIAS,PUENTE DE VALLECAS,444059,4469640,40.3735856436473,-3.6602546064905397,91 507 07 34,,bppozotr@madrid.es,/contenido/entidadesYorganismos/BibliotecasPublicas
1763,Biblioteca P�blica Municipal P�o Baroja (Arganzuela)," La Biblioteca P�o Baroja fue inaugurada en febrero de 1993. En realidad se trataba de un traslado de la Biblioteca de Arganzuela ubicada entonces en el edificio Casa del Reloj (antiguo pabell�n central de Matadero) donde compart�a espacio con el centro cultural. La construcci�n de un nuevo edificio coincidi� con la ejecuci�n de la operaci�n urban�stica Pasillo Verde Ferroviario. El edificio de la biblioteca est� distribuido en tres plantas, dos de acceso p�blico. En la primera planta, se encuentran la recepci�n, servicio de pr�stamo y sala infantil. La segunda planta es un semis�tano donde se ubican la sala de lectura, las publicaciones peri�dicas y los puestos de consulta de Internet. El elemento mas llamativo del edificio es la claraboya que desde la cubierta crea un patio acristalado y suministra luz a la sala de lectura. ", De lunes a viernes de 8:30 a 21 horas. Festivos cerrado. ," Accesible a personas con discapacidad f�sica.  Espacios:  Sala de Consulta y Lectura; Zona de publicaciones peri�dicas; Sala infantil y juvenil.   Servicios:  Pr�stamo de libros, multimedia y revistas; Pr�stamo de dispositivos de ayuda a la lectura (lupas para libros y discman para audiolibros); Servicio de Acceso P�blico a Internet; Zona wifi; Informaci�n bibliogr�fica; Animaci�n a la lectura; Formaci�n de usuarios; Reprograf�a. "," 
  Superficie:  1.454 metros cuadrados 
  Puestos de lectura:  162 
  Puestos de Internet:  10 
 ",1,http://www.madrid.es/vgn-ext-templating/v/index.jsp?vgnextchannel=9e4c43db40317010VgnVCM100000dc0ca8c0RCRD&vgnextoid=17f879262ef5d010VgnVCM1000000b205a0aRCRD,ARGANDA,CALLE,NUM,12,,MADRID,MADRID,28005,ACACIAS,ARGANZUELA,440076,4472607,40.40003652682007,-3.7074488154950584,91 474 16 03,,bppiobaroja@madrid.es,/contenido/entidadesYorganismos/BibliotecasPublicas
1746,Biblioteca P�blica Municipal San Blas (San Blas-Canillejas)," La Biblioteca P�blica Municipal de San Blas se abri� al p�blico el 10 de mayo de 1987 y al acto de inauguraci�n acudi� el entonces alcalde Juan Barranco. El edificio que ocupa actualmente fue un Seminario de Sacerdotes Migrantes, rehabilitado tras muchos a�os de abandono y un incendio, que lo dej� en condiciones cr�ticas. El Ayuntamiento lo reform� para instalar en �l el Centro Cultural Antonio Machado, dentro del que se encuentra la biblioteca. La Biblioteca se sit�a en la segunda planta. El edificio tiene forma redonda y 3 plantas. Tiene un Centro de Mayores y una Escuela de M�sica. Lo preside un busto de D. Antonio Machado. ", De lunes a viernes de 8:30 a 21 horas. Festivos cerrado. ," Accesible a personas con discapacidad f�sica.   Espacios:  Sala de Consulta y Lectura; Zona de publicaciones peri�dicas; Sala infantil y juvenil.   Servicios:  Pr�stamo de libros, multimedia y revistas; Pr�stamo de dispositivos de ayuda a la lectura (lupas para libros y discman para audiolibros); Servicio de Acceso P�blico a Internet; Zona wifi; Informaci�n bibliogr�fica; Animaci�n a la lectura; Formaci�n de usuarios. "," 
  Superficie:  312 metros cuadrados 
  Puestos de lectura:  125 
  Puestos de Internet:  8 
 ",1,http://www.madrid.es/vgn-ext-templating/v/index.jsp?vgnextchannel=9e4c43db40317010VgnVCM100000dc0ca8c0RCRD&vgnextoid=2e403d0b5e71c010VgnVCM1000000b205a0aRCRD,SAN ROMAN DEL VALLE,CALLE,NUM,8,CENTRO CULTURAL ANTONIO MACHADO,MADRID,MADRID,28037,ARCOS,SAN BLAS-CANILLEJAS,447358,4474793,40.420231627534996,-3.6218113860909074,91 313 52 97,,bpsanblas@madrid.es,/contenido/entidadesYorganismos/BibliotecasPublicas
1761,Biblioteca P�blica Municipal Vallecas (Puente de Vallecas)," El 13 de noviembre de 1933 se inaugur� la Biblioteca del pueblo de Vallecas, presidida por su alcalde, Am�s Acero P�rez. En 1937 fue cerrada debido a la Guerra Civil, abri�ndose de nuevo en febrero de 1940. Pero poco a poco fue cayendo en un estado de abandono hasta que en 1976 se decidi� su cierre para efectuar obras de remodelaci�n. El 24 de abril de 1980, Enrique Tierno Galv�n reinaugur� la biblioteca, abri�ndose al p�blico el 12 de mayo de ese mismo a�o. La Biblioteca de Vallecas siempre ha estado ubicada en un espacio independiente, el mismo desde 1933. Tras la reforma iniciada en 1978, ha habido otra en 1990. En esta �ltima, se abri� una sala de lectura para adultos de 174,81  m&sup2; , debido a la cesi�n de dos habitaciones del antiguo Juzgado de Vallecas. ", De lunes a viernes de 8:30 a 21 horas. Festivos cerrado. ,"  Espacios:  Sala de Consulta y Lectura; Zona de publicaciones peri�dicas; Sala infantil y juvenil.   Servicios:  Pr�stamo de libros, multimedia y revistas; Pr�stamo de dispositivos de ayuda a la lectura (lupas para libros y discman para audiolibros); Servicio de Acceso P�blico a Internet; Zona wifi; Informaci�n bibliogr�fica; Animaci�n a la lectura; Formaci�n de usuarios; Reprograf�a. "," 
  Superficie:  367 metros cuadrados 
  Puestos de lectura:  133 
  Puestos de Internet:  6 
 ",0,http://www.madrid.es/vgn-ext-templating/v/index.jsp?vgnextchannel=9e4c43db40317010VgnVCM100000dc0ca8c0RCRD&vgnextoid=11c03d0b5e71c010VgnVCM1000000b205a0aRCRD,PUERTO DEL MONASTERIO,CALLE,NUM,1,,MADRID,MADRID,28053,SAN DIEGO,PUENTE DE VALLECAS,443626,4472022,40.39501488341387,-3.665565995938502,91 588 60 51,,bpvallecas@madrid.es,/contenido/entidadesYorganismos/BibliotecasPublicas
1747,Biblioteca P�blica Municipal Vic�lvaro,   La Biblioteca P�blica de Vic�lvaro fue inaugurada el 23 de mayo de 1987. , De lunes a viernes de 8:30 a 21 horas. Festivos cerrado. ," Accesible a personas con discapacidad f�sica.  Espacios:  Sala de Consulta y Lectura; Zona de publicaciones peri�dicas; Sala infantil y juvenil.   Servicios:  Pr�stamo de libros, multimedia y revistas; Pr�stamo de dispositivos de ayuda a la lectura (lupas para libros y discman para audiolibros); Servicio de Acceso P�blico a Internet; Zona wifi; Informaci�n bibliogr�fica; Animaci�n a la lectura; Formaci�n de usuarios; Reprograf�a. "," 
  Superficie:  547 metros cuadrados 
  Puestos de lectura:  94 
  Puestos de Internet:  10 
 ",1,http://www.madrid.es/vgn-ext-templating/v/index.jsp?vgnextchannel=9e4c43db40317010VgnVCM100000dc0ca8c0RCRD&vgnextoid=67e03d0b5e71c010VgnVCM1000000b205a0aRCRD,VILLARDONDIEGO,CALLE,NUM,36,CENTRO CULTURAL EL MADRO�O,MADRID,MADRID,28032,CASCO HISTORICO VICALVARO,VICALVARO,448466,4473127,40.405283650744316,-3.6086278232922804,91 775 31 43,,bpvicalvaro@madrid.es,/contenido/entidadesYorganismos/BibliotecasPublicas
5768564,Biblioteca P�blica Municipal �ngel Gonz�lez (Latina)," La Biblioteca P�blica �ngel Gonz�lez se inaugur� el 26 de julio de 2010, contando con la presencia de, entre otros, el entonces Alcalde Alberto Ruiz-Gallard�n, la Delegada del �rea de Las Artes, Alicia Moreno, y la viuda del escritor, Susana Rivera.   El edificio es obra del arquitecto Carlos de Ria�o, donde predomina el hormig�n y el cristal. A pesar de estar junto a la A5, el aislamiento del entorno se consigue gracias a la utilizaci�n de grandes terrazas como elemento constructivo. Tiene su fachada principal orientada hacia la autov�a de Extremadura en previsi�n del soterramiento de la autov�a "," De lunes a viernes de 8:30 a 21 horas; s�bados de 9 a 18 horas y domingos de 9 a 14 horas. Los festivos y los fines de semana de agosto, la biblioteca permanecer� cerrada. "," Accesible a personas con discapacidad f�sica.   Espacios:  Sala de consulta; Sala de lectura; Sala de publicaciones peri�dicas; Sala infantil; Sala polivalente; Sala de actividades; Sala de trabajo en grupo.   Servicios:  Pr�stamo de libros, multimedia y revistas; Pr�stamo de dispositivos de ayuda a la lectura (lupas para libros y discman para audiolibros); Servicio de telelupa; Servicio de Acceso P�blico a Internet; Zona wifi; Informaci�n bibliogr�fica; Animaci�n a la lectura; Formaci�n de usuarios; Reprograf�a. "," 
  Superficie:  2.811 metros cuadrados 
  Puestos de lectura:  309 
  Puestos de Internet:  34 
  Puestos de la sala polivalente:  60 
  Puestos de la sala de actividades:  18 
  Puestos de la sala de trabajo en grupo:  24 
 ",1,http://www.madrid.es/vgn-ext-templating/v/index.jsp?vgnextchannel=9e4c43db40317010VgnVCM100000dc0ca8c0RCRD&vgnextoid=ec750a2153ef9210VgnVCM2000000c205a0aRCRD,GRANJA DE TORREHERMOSA,CALLE,V,1,,MADRID,MADRID,28024,ALUCHE,LATINA,435063,4472320,40.397074625115906,-3.7664885474841556,91 512 35 42,,bpangelgonzalez@madrid.es,/contenido/entidadesYorganismos/BibliotecasPublicas
1777,Biblioteca P�blica Ruiz Egea,,"  Secci�n de adultos:  de lunes a viernes de 9 a 21 horas. 
  Secci�n infantil/juvenil:  de lunes a viernes de 9 a 21 horas. "," 
  Hemeroteca : capacidad 8 
  Internet : capacidad 6 
 ","  Pr�stamo domiciliario:  carn� gratuito presentando el  D.N.I  u otro documento que acredite legalmente la identidad personal y, para los menores de 14 a�os, con autorizaci�n del padre, la madre o tutor legal ",1,http://www.madrid.es/vgn-ext-templating/v/index.jsp?vgnextchannel=9e4c43db40317010VgnVCM100000dc0ca8c0RCRD&vgnextoid=b2413d0b5e71c010VgnVCM1000000b205a0aRCRD,RAIMUNDO FERNANDEZ VILLAVERDE,CALLE,V,6,,MADRID,MADRID,28003,RIOS ROSAS,CHAMBERI,440504,4477772,40.446595985821794,-3.7028897237155656,915 349 029,915 337 809,bib.ruizegea@madrid.org,/contenido/entidadesYorganismos/BibliotecasPublicas
1765,Biblioteca P�blica Salamanca - Manuel Alvar,," 
  Secci�n de adultos:  de lunes a viernes de 9 a 21 horas (Servicios bibliotecarios hasta las 20:45 horas). 
  Secci�n infantil/juvenil:  de lunes a viernes de 15 a 21 horas (Servicios bibliotecarios hasta las 20:45 horas). 
  Fines de semana y festivos:  de 11 a 19 horas  (Servicios bibliotecarios hasta las 18:45) 
 De 14:30 a 15:30 horas no se asignar�n pr�stamos de libros ni acceso a internet pero s� continuar� abierta la sala de lectura. Los d�as 24 y 31 de diciembre horario de 9 a 14 horas 
  Cerrada:  fines de semana y festivos de agosto; 1 enero; 1 mayo y 25 diciembre 
 "," 
  Sala adultos o principal : Capacidad: 136. Puestos de atenci�n: 2. 
  Audiovisuales y materiales especiales : capacidad: 6. 
  Hemeroteca : capacidad: 50. Puestos de atenci�n: 3. 
  Sala infantil : capacidad: 32. Puestos de atenci�n: 3. 
  Sala juvenil : capacidad: 58. 
  Internet : capacidad: 34. Puestos de atenci�n: 1. 
  Ordenadores multimedia : capacidad: 6. 
  Sal�n de actos : capacidad: 78. 
 ","  Pr�stamo domiciliario:  carn� gratuito presentando el  D.N.I  u otro documento que acredite legalmente la identidad personal y, para los menores de 14 a�os, con autorizaci�n del padre, la madre o tutor legal ",1,http://www.madrid.es/vgn-ext-templating/v/index.jsp?vgnextchannel=9e4c43db40317010VgnVCM100000dc0ca8c0RCRD&vgnextoid=d51979262ef5d010VgnVCM1000000b205a0aRCRD,AZCONA,CALLE,V,42,,MADRID,MADRID,28028,GUINDALERA,SALAMANCA,443369,4476395,40.43440083847048,-3.66897244650415,917 263 701 ,913 555 425,bib.salamanca@madrid.org,/contenido/entidadesYorganismos/BibliotecasPublicas
123303,Biblioteca P�blica Usera - Jos� Hierro,,"  Secci�n de adultos:  de lunes a viernes de 9 a 21 horas. 
  Secci�n infantil/juvenil:  de lunes a viernes de 15 a 21 horas. 
  Servicio de pr�stamo y acceso a Internet:  de 15 a 20:45 horas. 
  Secci�n de adultos y secci�n infantil/juvenil:  fines de semana y festivos, 11 a 19 horas. Servicio de pr�stamo y acceso a Internet de 11 a 14:30 y de 15:30 a 18:45 horas. 
  Horario especial 24 y 31 de diciembre : abierta de 9 a 14 horas 
  Cerrada los d�as:  1 de enero, 1 de mayo, 25 de diciembre y fines de semana y festivos de agosto. "," 
  Sala adultos o principal : capacidad: 188 
  Hemeroteca : capacidad: 26 
  Internet : capacidad: 47 
  Ordenadores multimedia : capacidad: 4 
  Sala infantil/juvenil : capacidad: 52. Puestos de atenci�n: 3. 
  Sala polivalente : capacidad: 30. 
  Sala-taller : capacidad: 10. Otra informaci�n: Hay 3 salas. 
  Audiovisuales y materiales especiales : capacidad: 3. 
 ","  Pr�stamo domiciliario:  carn� gratuito presentando el  D.N.I  u otro documento que acredite legalmente la identidad personal y, para los menores de 14 a�os, con autorizaci�n del padre, la madre o tutor legal ",1,http://www.madrid.es/vgn-ext-templating/v/index.jsp?vgnextchannel=9e4c43db40317010VgnVCM100000dc0ca8c0RCRD&vgnextoid=943979262ef5d010VgnVCM1000000b205a0aRCRD,RAFAELA YBARRA,AVENIDA,V,43,,MADRID,MADRID,28026,PRADOLONGO,USERA,439790,4470593,40.38188182427109,-3.7106164073640233,914 229 501,914 691 901,bib.usera@madrid.org,/contenido/entidadesYorganismos/BibliotecasPublicas
1800,Biblioteca P�blica Vallecas,,"  Secci�n general, secci�n infantil y juvenil, hemeroteca  
 
 De lunes a viernes de 9 a 21 horas. 
 S�bados de 9 a 14 horas 
 ",,"  Pr�stamo domiciliario:  Carn� gratuito presentando el  D.N.I  u otro documento que acredite legalmente la identidad personal y, para los menores de 14 a�os, con autorizaci�n del padre, la madre o tutor legal 
  D�as de cierre de la Biblioteca 2016:   
 
 S�bados: 26 marzo; 2, 9, 16, 23 y 30 julio; 6, 13, 20 y 27 agosto; 3 y 10 septiembre; 24 y 31 diciembre 
 Domingos: todos 
 Festivos: 1 y 6 enero; 24 y 25 marzo; 2 y 16 mayo; 25 julio; 15 agosto; 12 octubre; 1 y 9 noviembre; 6, 8 y 26 diciembre.  
 ",1,http://www.madrid.es/vgn-ext-templating/v/index.jsp?vgnextchannel=9e4c43db40317010VgnVCM100000dc0ca8c0RCRD&vgnextoid=535979262ef5d010VgnVCM1000000b205a0aRCRD,RAFAEL ALBERTI,AVENIDA,V,36,,MADRID,MADRID,28018,PALOMERAS SURESTE,PUENTE DE VALLECAS,445539,4470840,40.38449423079662,-3.6429247082087737,"913 033 195                                       
",913 804 153,bib.vallecas@madrid.org,/contenido/entidadesYorganismos/BibliotecasPublicas
181101,Biblioteca P�blica Villa de Vallecas - Luis Mart�n Santos,,"  De lunes a viernes:  de 9 a 21 horas. No se asignar�n pr�stamos ni acceso a Internet desde las 20:45 horas 
  Fines de semana y festivos:  de  11 a 19 horas. No se asignar�n pr�stamos ni acceso a Internet desde las 14:30 a las 15:30 horas y desde las 18:45 hasta la hora de cierre 
  Navidad:  D�as 24 y 31 de diciembre, de 9 a 14 horas 
  Cerrado:  1 de enero, 1 de mayo, fines de semana y festivos de agosto y 25 de diciembre "," 
  Sala adultos o principal : capacidad: 85. Condiciones de acceso: libre. Puestos de atenci�n: 3 
  Sala infantil/juvenil : capacidad: 54. Condiciones de acceso: libre. Puestos de atenci�n: 
  Internet : capacidad: 28. Puestos de atenci�n: 3. Otra informaci�n: Puestos repartidos en las diferentes salas de la biblioteca 
  Hemeroteca : capacidad: 20. Condiciones de acceso: libre 
  Dep�sitos  
  Zona de trabajos o servicios internos : Capacidad: 4 
  Sala polivalente : capacidad: 30. Otra informaci�n: Sala de audiovisuales y aula de formaci�n 
  Sala-taller : capacidad: 15 
  Otras instalaciones : puestos de atenci�n: 3. Otra informaci�n: vest�bulo 
 ","  Pr�stamo domiciliario:  carn� gratuito presentando el  D.N.I   u otro documento que acredite legalmente la identidad personal y, para los menores de 14 a�os, con autorizaci�n del padre, la madre o tutor legal ",1,http://www.madrid.es/vgn-ext-templating/v/index.jsp?vgnextchannel=9e4c43db40317010VgnVCM100000dc0ca8c0RCRD&vgnextoid=09ac38d60b41c010VgnVCM2000000c205a0aRCRD,ANTONIO MARIA SEGOVIA,PLAZA,V,2,,MADRID,MADRID,28031,SANTA EUGENIA,VILLA DE VALLECAS,448018,4470425,40.38091437280583,-3.613674447421734,912 760 231,913 316 455,bib.villavallecas@madrid.org,/contenido/entidadesYorganismos/BibliotecasPublicas
86719,Biblioteca P�blica Villaverde - Mar�a Moliner,," 
 Secci�n de adultos, infantil y juvenil, secci�n de peri�dicos y revistas: de lunes a viernes de 9 a 21 horas. S�bados de 9 a 14 horas. 
 Horario de servicio de pr�stamo y acceso a Internet: de lunes a viernes de 9 a 20:45 horas. S�bados de 9 a 13:45 horas. 
 "," 
  Sala adultos o principal : capacidad: 167. Adaptados para discapacitados:  
  Hemeroteca : capacidad: 24. Adaptados para discapacitados: 4 puestos de lectura. 
  Internet : capacidad: 41. 
  Sala infantil/juvenil : capacidad: 121. Adapt.discapacitados: 4 puestos de lectura. 
  Ordenadores multimedia : capacidad: 6. 
  Sal�n de actos : capacidad: 85. 
  Sala polivalente : capacidad: 20. 
 ","  Pr�stamo domiciliario:  carn� gratuito presentando el  D.N.I  y otro documento que acredite legalmente la identidad personal y, para los menores de 14 a�os, con autorizaci�n del padre, la madre o tutor legal 
  D�as de cierre de la Biblioteca en 2016:   
 
  S�bados:  2 de enero; 26 de marzo; s�bados de julio y agosto; 3 y 10 de septiembre; 24 y 31 de diciembre 
  Domingos:  todos 
  Festivos:  1 y 6 de enero; 24 y 25 de marzo; 2 y 16 de mayo; 25 de julio; 15 de agosto; 12 de octubre; 1 y 9 de noviembre; 6, 8 y 26 de diciembre 
 
     ",1,http://www.madrid.es/vgn-ext-templating/v/index.jsp?vgnextchannel=9e4c43db40317010VgnVCM100000dc0ca8c0RCRD&vgnextoid=127979262ef5d010VgnVCM1000000b205a0aRCRD,VILLALONSO,CALLE,V,16,,MADRID,MADRID,28021,SAN ANDRES,VILLAVERDE,439804,4467001,40.34952409541233,-3.710123586489839,917 230 194  ,917 979 458,bib.villaverde@madrid.org,/contenido/entidadesYorganismos/BibliotecasPublicas
108154,Biblioteca Regional de Madrid Joaqu�n Leguina,," De lunes a viernes de 9 a 21 horas 
     "," 
  Sala adultos o principal : capacidad: 107. Puestos de atenci�n: 4. 
  Audiovisuales y materiales especiales : capacidad: 58. Puestos de atenci�n: 2. 
  Hemeroteca : capacidad: 62. Puestos de atenci�n: 2. 
  Internet : capacidad: 60. Puestos de atenci�n: 4. 
  Fondo antiguo : capacidad: 20. Puestos de atenci�n: 2. 
  Ordenadores multimedia : capacidad: 4. 
  Zona de trabajos o servicios internos  
  Sal�n de actos : capacidad: 145. Adapt.discapacitados: 5. 
  Sala polivalente  
  Dep�sitos  
  Otras instalaciones : puestos de atenci�n: 2. 
 ", Unicamente pr�stamo en sala ,1,http://www.madrid.es/vgn-ext-templating/v/index.jsp?vgnextchannel=9e4c43db40317010VgnVCM100000dc0ca8c0RCRD&vgnextoid=d09979262ef5d010VgnVCM1000000b205a0aRCRD,RAMIREZ DE PRADO,CALLE,V,3,,MADRID,MADRID,28045,DELICIAS,ARGANZUELA,441552,4472580,40.39990747999322,-3.690042467266191,917 208 850 / 917 208 860 ,917 208 890,biblio.regional@madrid.org,/contenido/entidadesYorganismos/BibliotecasPublicas
1788,Casa San Cristobal,,  De lunes a viernes de 9 a 21 horas  S�bados de 10 a 14 horas   ,"  Bibiblioteca con sala infantil, ludoteca y bebeteca  Sala inform�tica adultos e infantil  Aulas de formaci�n equipadas con recursos digitales  Espacio para mayores  Apoyo escolar ni�os primaria  Espa�ol para inmigrantes  Talleres de teatro en ingl�s para ni�os  Taller de empleo   ",  Requisitos de acceso    Carn� del centro. Es gratuito y se obtiene de manera instant�nea presentado  DNI  o equivalente  Los menores de 8 a�os acompa�ados deben ir acompa�ados.  Los menores de m�s de 8 a�os requieren autorizaci�n del padre / madre o tutor para obtener el carn� del centro    Puestos de lectura    160 para adultos  40 infantiles  ,0,http://www.madrid.es/vgn-ext-templating/v/index.jsp?vgnextchannel=9e4c43db40317010VgnVCM100000dc0ca8c0RCRD&vgnextoid=dcdb3d0b5e71c010VgnVCM1000000b205a0aRCRD,ROCAFORT,CALLE,V,101,,MADRID,MADRID,28021,SAN CRISTOBAL,VILLAVERDE,441778,4466201,40.34244856729781,-3.686807481597248,917 966 048,,bsancristobal@montemadrid.es,/contenido/entidadesYorganismos/BibliotecasPublicas
103331,Centro Social y Cultural la Casa Encendida," Edificio de car�cter monumental. De estilo neomud�jar, fue dise�ado por el arquitecto Fernando Arb�s e inaugurado en el a�o 1913. Cuenta con m�s de 6.000 metros cuadrados de instalaciones divididas en 4 plantas y una azotea. ","  De martes a domingo de 10 a 22 horas (todos los d�as del a�o, excepto festividades nacionales y de la Comunidad de Madrid)  Exposiciones: de 10 a 21:45 horas  ","   Biblioteca  (consulta cat�logo  http://koha.montemadrid.es/  )    Sala de consulta y Hemeroteca: de martes a domingos, de 10 a 21:15 horas  Mediateca y Sala de trabajo Ofim�tica: de martes a domingos, de 10 a 21:15 horas  Biblioteca joven: de martes a viernes, de 10 a 20:30, s�bados y domingos de 10 a 13:30  Bebeteca: s�bados y domingos de 10 a 13:30 horas     Estudio multimedia : cuenta con equipos profesionales para la edici�n de video con Final Cut Studio, Premiere, etc. Su uso tendr� un precio de cinco a ocho euros por turno de cinco horas dependiendo del tipo de asistencia t�cnica.   Laboratorio de radio:  dispone de un equipo completo de grabaci�n y equipamiento profesional. Su uso tendr� un precio de diez euros por turnos de cinco horas.   Laboratorio fotogr�fico    Tienda solidaria:  consultar horario   Cafeter�a:  de martes a domingo de 10 a 21 horas  ",,1,http://www.madrid.es/vgn-ext-templating/v/index.jsp?vgnextchannel=9e4c43db40317010VgnVCM100000dc0ca8c0RCRD&vgnextoid=c27f8899fc81c010VgnVCM1000000b205a0aRCRD,VALENCIA,RONDA,V,2,,MADRID,MADRID,28012,EMBAJADORES,CENTRO,440732,4473259,40.40595710517701,-3.699779793558763,"902 430 322                                                                 
",,lacasaencendida@montemadrid.es,/contenido/entidadesYorganismos/MonumentosEdificiosArtisticos
2047,Hemeroteca Municipal," Fundada en 1916, por iniciativa de los periodistas Ricardo Fuente y Antonio Asenjo, custodia prensa proveniente de todo el mundo hasta mediados del siglo  XX . A partir de 1966 recoge, casi exclusivamente, la prensa editada en Madrid. 
 Sus fondos abarcan una complet�sima colecci�n de m�s de cuatro siglos de publicaciones peri�dicas. Destacan por su importancia las colecciones de los siglos  XVII  y  XVIII , correspondientes a los primeros momentos de la historia de la prensa espa�ola. Abundantes y completas  son las del siglo  XIX   y de la Guerra Civil,1936-1939. Son muy valiosos tambi�n, los fondos  de prensa antigua hispano- americana, francesa y alemana. "," Lunes a Viernes, de 9 a 21 horas (peticiones hasta 20:30 horas) Del 2 al 31 de julio y del 1 al 15 de septiembre: de 9 a 20:30 horas (peticiones hasta las 20 horas) Agosto: Lunes a Viernes, de 9 a 14 horas (peticiones hasta las 13:30 horas) Recogida de reprograf�a: Lunes a Viernes de 9 a 14 horas. Cerrado festivos y los d�as 24 y 31 diciembre. ","  Los  servicios que se prestan  son los siguientes: 
 
 Informaci�n general y especializada.  
 Consulta de fondos: colecciones en papel, microfilmadas y digitalizadas  
 Pr�stamo para exposiciones 
 Reproducci�n de documentos 
 Actividades culturales: visitas guiadas; exposiciones propias o en colaboraci�n. 
 Publicaciones 
 Servicios en l�nea 
 Acceso a hemerotecas digitales 
 Espacio Wifi 
 
 Para consulta de los fondos es necesario la tarjeta de lector (se expide a mayores de 18 a�os, presentando  D.N.I.  o Pasaporte).  Atenci�n a personas con discapacidad auditiva. Tel�fono: 91 480 06 52 Pupitres adaptados para usuarios con movilidad reducida. ","  Directorio:   
 
  Direcci�n  Inmaculada Zaragoza Garc�a Tel�fono: 91 588 57 74 Correo:  zaragozagi@madrid.es  
  Secretar�a  Tel�fono: 91 588 57 77 o 91 588 57 74 Correo:  hemeroteca@madrid.es  
  Gesti�n econ�mica y administrativa  Tel�fono: 91 588 57 76 Correo:  gonzalezbj@madrid.es  
  Secci�n Contempor�nea (Publicaciones en curso)  Tel�fono: 91 588 57 67, 91 513 33 65 y 91 588 5756 Correo:  contemporanea@madrid.es     
  Secci�n Hist�rica  Tel�fono: 91 480 06 52 y 91 480 06 05 Correo:  antonbmc@madrid.es  
  Secci�n Informaci�n  Tel�fono: 91 588 57 72, 91 588 57 75 y  91 513 31 64 Correo:  infohemeroteca@madrid.es  
  Difusi�n  Tel�fono: 91 480 05 79 Correo:  concejoml@madrid.es  
  Negociado de Microfilm  Tel�fono: 91 588 57 73 Correo: nmicrofilm@madrid.es  
 
  Recepci�n  Tel�fono: 91 588 57 71 y 91 588 57 64 
 
 ",1,http://www.madrid.es/vgn-ext-templating/v/index.jsp?vgnextchannel=9e4c43db40317010VgnVCM100000dc0ca8c0RCRD&vgnextoid=11951e79ee71c010VgnVCM1000000b205a0aRCRD,CONDE DUQUE,CALLE,V,11,,MADRID,MADRID,28015,UNIVERSIDAD,CENTRO,439864,4475706,40.427938443518215,-3.710240346719518,"91 588 57 71, 91 513 31 64 (Informaci�n general)                                                                  
91 588 57 73 (Reprograf�a)",,hemeroteca@madrid.es,/contenido/entidadesYorganismos/BibliotecasPublicas
