PK,NOMBRE,TRANSPORTE,DESCRIPCION,ACCESIBILIDAD,CONTENT-URL,NOMBRE-VIA,CLASE-VIAL,TIPO-NUM,NUM,LOCALIDAD,PROVINCIA,CODIGO-POSTAL,BARRIO,DISTRITO,COORDENADA-X,COORDENADA-Y,LATITUD,LONGITUD,TELEFONO,EMAIL,TIPO
6714,Centro Autorizado Elemental de M�sica Tajamar,,  Ense�anza art�stica grado elemental:    Clarinete  Flauta travesera  Percusi�n  Piano  Guitarra  Viola  Viol�n    Modalidad:  presencial ,0,http://www.madrid.es/vgn-ext-templating/v/index.jsp?vgnextchannel=9e4c43db40317010VgnVCM100000dc0ca8c0RCRD&vgnextoid=d82ca4ea6871c010VgnVCM1000000b205a0aRCRD,PIO FELIPE,CALLE,V,12,MADRID,MADRID,28038,NUMANCIA,PUENTE DE VALLECAS,444896,4472241,40.39707299712262,-3.6506093806813373,,,/contenido/entidadesYorganismos/CentrosEnse�anzasArtisticas/ConservatoriosEscuelasMusicaDanza
108359,Centro de Danza Carmen Roche," Metro: Avenida America (l�nea s4, 6, 7, 9), Cartagena (l�nea 7)  Bus: 1, 12, 72, 73, 114, 115, 122, 200  ",  Ense�anza art�stica grado medio:  danza cl�sica - Danza Contempor�nea - Danza Espa�ola   Modalidad:  presencial ,0,http://www.madrid.es/vgn-ext-templating/v/index.jsp?vgnextchannel=9e4c43db40317010VgnVCM100000dc0ca8c0RCRD&vgnextoid=47eb15a11a81c010VgnVCM1000000b205a0aRCRD,COSLADA,CALLE,V,7,MADRID,MADRID,28028,GUINDALERA,SALAMANCA,442839,4476738,40.43745442601165,-3.6752517217446106,913 610 247 / 913 610 259 ,info@scaena.net,/contenido/entidadesYorganismos/CentrosEnse�anzasArtisticas/ConservatoriosEscuelasMusicaDanza
6108767,Centro de Dise�o IED Madrid," Metro: Santo Domingo (l�nea 2)  Bus: 1, 2, 44, 46, 74, 75, 133, 147, 148 ",  Ense�anza artistica:    Dise�o de moda   Dise�o de interiores  Dise�o gr�fico    Dise�o de producto   ,0,http://www.madrid.es/vgn-ext-templating/v/index.jsp?vgnextchannel=9e4c43db40317010VgnVCM100000dc0ca8c0RCRD&vgnextoid=d235d79d28890310VgnVCM2000000c205a0aRCRD,FLOR ALTA,CALLE,V,8,MADRID,MADRID,28004,UNIVERSIDAD,CENTRO,440123,4475004,40.42164223519264,-3.707121080409964,,info@madrid.ied.es,/contenido/entidadesYorganismos/CentrosEnse�anzasArtisticas/ConservatoriosEscuelasMusicaDanza
124469,Centro de Ense�anza R�plika Teatro. Academia del Actor," Metro: Guzm�n el Bueno  (l�neas 6, 7) 
 Bus: 44, 45, 127, C1, C2, F ",,0,http://www.madrid.es/vgn-ext-templating/v/index.jsp?vgnextchannel=9e4c43db40317010VgnVCM100000dc0ca8c0RCRD&vgnextoid=4d86051c8d91f010VgnVCM1000000b205a0aRCRD,PEDRO JUSTO DORADO DELLMANS,CALLE,V,8,MADRID,MADRID,28040,CIUDAD UNIVERSITARIA,MONCLOA-ARAVACA,439716,4478011,40.448692123387005,-3.7122040788250885,915 350 570,teatro@replikateatro.com,/contenido/entidadesYorganismos/Teatros
26472,Centro de Ense�anza Formatik Center,"Bus: 11, 70, 122","  Titulaciones    Estudios tur�sticos y aeron�uticos   Turismo Operativo, Pol�ticas de Marketing + Master en Direcci�n Comercial,  Community Manager   ",0,http://www.madrid.es/vgn-ext-templating/v/index.jsp?vgnextchannel=9e4c43db40317010VgnVCM100000dc0ca8c0RCRD&vgnextoid=0074b3e42751c010VgnVCM2000000c205a0aRCRD,ASURA,CALLE,V,40,MADRID,MADRID,28043,PIOVERA,HORTALEZA,444908,4478510,40.45354836809767,-3.6510240514433443,"913 881 345    
",formatik@formatik.com,/contenido/entidadesYorganismos/CentrosEnse�anzaEspecializada
175206,Centro de Ense�anza Superior de Dise�o de Interiores," Metro: Cartagena (l�nea 7) , Avenida de Am�rica (l�neas 4, 6, 7, 9)  Bus: 1, 72, 114, 115, 122, 200  ",  Ense�anza art�stica:  dise�o de interiores   Modalidad:  diurno  ,0,http://www.madrid.es/vgn-ext-templating/v/index.jsp?vgnextchannel=9e4c43db40317010VgnVCM100000dc0ca8c0RCRD&vgnextoid=38ad14c4d661c010VgnVCM1000000b205a0aRCRD,AMERICA,AVENIDA,V,24,MADRID,MADRID,28028,GUINDALERA,SALAMANCA,442951,4476885,40.43877730295762,-3.6739561769387223,913 561 209 / 913 551 072,artesdec@telefonica.net,/contenido/entidadesYorganismos/CentrosEnse�anzasArtisticas/ConservatoriosEscuelasMusicaDanza
6840,Centro de Estudios Econ�micos y Comerciales (CECO),,"  Titulaciones:    M�steres,  MBA   Cursos   Formaci�n a medida para empresas   Formaci�n para empleados p�blicos espa�oles y extrajeros.   ",0,http://www.madrid.es/vgn-ext-templating/v/index.jsp?vgnextchannel=9e4c43db40317010VgnVCM100000dc0ca8c0RCRD&vgnextoid=1fdab0c40971c010VgnVCM1000000b205a0aRCRD,CARDENAL HERRERA ORIA,AVENIDA,V,378,MADRID,MADRID,28035,FUENTELARREINA,FUENCARRAL-EL PARDO,437016,4481070,40.47604810646378,-3.7443340063938693,915 631 815,bgceco@icex.es,/contenido/entidadesYorganismos/CentrosEnse�anzaEspecializada
143961,Centro de Estudios Judeo - Cristianos," Metro: Islas Filipinas (l�nea 7), Moncloa (l�nea 3, 6) 
 Bus: 1, 2, 202, 12, 16, 61, 44, C ",,0,http://www.madrid.es/vgn-ext-templating/v/index.jsp?vgnextchannel=9e4c43db40317010VgnVCM100000dc0ca8c0RCRD&vgnextoid=2540ba61e681c010VgnVCM1000000b205a0aRCRD,HILARION ESLAVA,CALLE,V,50,MADRID,MADRID,28015,GAZTAMBIDE,CHAMBERI,439348,4476738,40.43719760597786,-3.7164216832148695,915 431 251 ,secretaria@cejc-madrid.org,/contenido/entidadesYorganismos/CentrosEnse�anzaEspecializada
29395,Centro de Estudios Sociales C�ritas de Madrid," Metro: Pac�fico (l�neas 1 y 6)  Bus: 8, 10, 24, 37, 54, 56, 57, 136, 141, 156, 310 ",,0,http://www.madrid.es/vgn-ext-templating/v/index.jsp?vgnextchannel=9e4c43db40317010VgnVCM100000dc0ca8c0RCRD&vgnextoid=505f059cb751c010VgnVCM2000000c205a0aRCRD,CERRO DE LA PLATA,CALLE,V,8,MADRID,MADRID,28007,ADELFAS,RETIRO,442770,4472533,40.39955976120107,-3.6756978307797716,914 163 353,escuela@caritasmadrid.org,/contenido/entidadesYorganismos/CentrosEnse�anzaEspecializada
6651,Centro de Idiomas Alliance Fran�aise de Madrid (Alianza Francesa de Madrid)," Metro: Santo Domingo (l�nea 2), Opera (l�neas R, 2, 5), Callao (l�neas 3, 5), Plaza de Espa�a (l�nea 3)  Bus: 1, 2, 3, 25, 39, 44, 46, 74, 75, 133, 147, 148, 202 ",,0,http://www.madrid.es/vgn-ext-templating/v/index.jsp?vgnextchannel=9e4c43db40317010VgnVCM100000dc0ca8c0RCRD&vgnextoid=e0ae3b54d771c010VgnVCM1000000b205a0aRCRD,SANTO DOMINGO,CUESTA,V,13,MADRID,MADRID,28013,PALACIO,CENTRO,439974,4474840,40.420145084887835,-3.70886174856488,"917 007 736        
       
              
",secaf@alliancefrancaise.es,/contenido/entidadesYorganismos/CentrosEnse�anzaIdiomas
41816,Centro de Idiomas British Council para adultos. Paseo General Mart�nez Campos," Metro: Iglesia (l�nea 1), Gregorio Mara��n (l�neas 7, 10), Rub�n Dar�o (l�neas 7, 10)  Bus: 5, 12, 14, 16, 27, 40, 45, 61, 147, 150 ",,0,http://www.madrid.es/vgn-ext-templating/v/index.jsp?vgnextchannel=9e4c43db40317010VgnVCM100000dc0ca8c0RCRD&vgnextoid=8cc1598d1351c010VgnVCM1000000b205a0aRCRD,GENERAL MARTINEZ CAMPOS,PASEO,V,31,MADRID,MADRID,28010,ALMAGRO,CHAMBERI,441254,4476503,40.43521769533403,-3.6939285841013456,"913 373 501                
                
                
",madrid.adultos@britishcouncil.es,/contenido/entidadesYorganismos/CentrosEnse�anzaIdiomas
6669,Centro de Idiomas British Council. Paseo General Mart�nez Campos," Metro: Iglesia (l�nea 1), Gregorio Mara��n (l�neas 7, 10), Rub�n Dar�o (l�neas 7, 10)  Bus: 5, 12, 14, 16, 27, 40, 45, 61, 147, 150 ",,0,http://www.madrid.es/vgn-ext-templating/v/index.jsp?vgnextchannel=9e4c43db40317010VgnVCM100000dc0ca8c0RCRD&vgnextoid=b6203b54d771c010VgnVCM1000000b205a0aRCRD,GENERAL MARTINEZ CAMPOS,PASEO,V,31,MADRID,MADRID,28010,ALMAGRO,CHAMBERI,441254,4476503,40.43522670379538,-3.6939286767152675,913 373 593,madrid.younglearners@britishcouncil.es,/contenido/entidadesYorganismos/CentrosEnse�anzaIdiomas
7709805,Centro de Lengua y Cultura China XinDongFang,,,0,http://www.madrid.es/vgn-ext-templating/v/index.jsp?vgnextchannel=9e4c43db40317010VgnVCM100000dc0ca8c0RCRD&vgnextoid=c3315b3f56569410VgnVCM1000000b205a0aRCRD,CARLOS MARIN,CALLE,V,2,MADRID,MADRID,28026,PRADOLONGO,USERA,440145,4470870,40.384393726675626,-3.7064722201430342,915 001 545 / 639 169 927,info@estudiosdechino.com,/contenido/entidadesYorganismos/CentrosEducacion
6704,Centro de Tecnolog�a del Espect�culo," Metro: Pio XII (l�nea 9)  Bus: 7, 11, 40, 52 ",,0,http://www.madrid.es/vgn-ext-templating/v/index.jsp?vgnextchannel=9e4c43db40317010VgnVCM100000dc0ca8c0RCRD&vgnextoid=69c03b54d771c010VgnVCM1000000b205a0aRCRD,TORREGALINDO,CALLE,V,10,MADRID,MADRID,28016,NUEVA ESPA�A,CHAMARTIN,443423,4479435,40.46178125027035,-3.66861886638918,913 531 481 / 913 531 482,cte@inaem.mcu.es,/contenido/entidadesYorganismos/CentrosEnse�anzasArtisticas/ConservatoriosEscuelasMusicaDanza
26409,Centro Especializado en Superdotados (CES)," Metro: Velazquez (l�nea 4), Serrano (l�nea 4) 
 Bus: 1, 9, 19, 21, 51, 53, 74 ",,0,http://www.madrid.es/vgn-ext-templating/v/index.jsp?vgnextchannel=9e4c43db40317010VgnVCM100000dc0ca8c0RCRD&vgnextoid=28a6b3e42751c010VgnVCM2000000c205a0aRCRD,GOYA,CALLE,V,20,MADRID,MADRID,28001,RECOLETOS,SALAMANCA,442131,4475362,40.42500061056517,-3.6834851425051807,913 781 400 / 609 589 246,info@centrosuperdotados.es,/contenido/entidadesYorganismos/CentrosEnse�anzaEspecializada
110718,Centro Estudios Musicales Pinz�n," Metro: Vista Alegre (l�nea 5)  Bus: 17, 55 ",  Ense�anza art�stica:    Canto  Guitarra  Piano  Saxof�n  Viola  Violoncello  Viol�n    Modalidad:  presencial ,0,http://www.madrid.es/vgn-ext-templating/v/index.jsp?vgnextchannel=9e4c43db40317010VgnVCM100000dc0ca8c0RCRD&vgnextoid=3cfb15a11a81c010VgnVCM1000000b205a0aRCRD,PINZON,CALLE,V,23,MADRID,MADRID,28025,VISTA ALEGRE,CARABANCHEL,437305,4471472,40.38961665345149,-3.7399765052834204,914 655 619,academia@musicadanzapinzon.es,/contenido/entidadesYorganismos/CentrosEnse�anzasArtisticas/ConservatoriosEscuelasMusicaDanza
187050,Centro Integrado de Ense�anzas Art�sticas de M�sica y Educaci�n Secundaria Federico Moreno Torroba,"METRO: Oporto BUS: 34, 35, 108, 118, 119"," ENSE�ANZAS DE R�GIMEN GENERAL:   - Educaci�n Secundaria Obligatoria, primer y segundo ciclo.   - Bachillerato en M�sica.   ENSE�ANZAS ART�STICAS DE M�SICA:   - Grado Elemental de M�sica.   - Grado Medio de M�sica. ",0,http://www.madrid.es/vgn-ext-templating/v/index.jsp?vgnextchannel=9e4c43db40317010VgnVCM100000dc0ca8c0RCRD&vgnextoid=957748d20675e010VgnVCM1000000b205a0aRCRD,GENERAL RICARDOS,CALLE,NUM,177,MADRID,MADRID,28025,PUERTA BONITA,CARABANCHEL,437597,4470980,40.385197375260255,-3.7364997414123096,914 698 614 - 17,,/contenido/entidadesYorganismos/CentrosEnse�anzaEspecializada
6712,Centro Privado de Formaci�n Profesional Espec�fica CENP - FP," Metro: Islas Filipinas (l�nea 7)  Bus: 1, 2, 12, 44, 82, 132, 202 ",  Ense�anzas impartidas:    Formaci�n profesional grado superior:       Animaci�n sociocultural     Otro correo electr�nico :  tutoria@cenp.com  ,0,http://www.madrid.es/vgn-ext-templating/v/index.jsp?vgnextchannel=9e4c43db40317010VgnVCM100000dc0ca8c0RCRD&vgnextoid=60613b54d771c010VgnVCM1000000b205a0aRCRD,DE JOAQU�N MAR�A L�PEZ,CALLE,V,60 BIS,MADRID,MADRID,28015,GAZTAMBIDE,CHAMBERI,439386,4476811,40.43785799585747,-3.7159806490191793,"914 484 841           
914 487 988",cenp@cenp.com,/contenido/entidadesYorganismos/CentrosEducacion/CentrosFormacionProfesionalPrivadosConcertados
6681,Centro Profesional de Danza Fortea,"Bus: 41, 45, 46, 75",  Art�sticas ( LOGSE )    Art�sticas ( LOE )    M�sica y danza  Danza ( LOE )  Ense�anzas profesionales  Danza cl�sica  Danza espa�ola  Ense�anzas elementales   ,0,http://www.madrid.es/vgn-ext-templating/v/index.jsp?vgnextchannel=9e4c43db40317010VgnVCM100000dc0ca8c0RCRD&vgnextoid=fb61a4ea6871c010VgnVCM1000000b205a0aRCRD,COMANDANTE FORTEA,PASEO,V,42,MADRID,MADRID,28008,CASA DE CAMPO,MONCLOA-ARAVACA,437982,4475676,40.427538776051804,-3.732422725110936,915 412 360,cpd.comandantefortea.madrid@educa.madrid.org,/contenido/entidadesYorganismos/CentrosEnse�anzasArtisticas/ConservatoriosEscuelasMusicaDanza
6444591,Centro Profesional de M�sica GSD,Bus: 145,"  Ense�anza art�stica profesional:     Arpa  Bajo el�ctrico  Cante flamenco  Canto  Clarinete  Clave,  Contrabajo  Dulzaina  Fagot  Guitarra  Guitarra el�ctrica  Guitarra flamenca  Instrumento de cuerda pulsada del Renacimiento y del Barroco  Instrumentos de p�a  Oboe  �rgano  Saxof�n  Piano  Percusi�n  Tromb�n  Trompa  Tuba  Viola  Viola de gamba  Viol�n  Violoncello  Trompeta    Modalidad:  presencial ",0,http://www.madrid.es/vgn-ext-templating/v/index.jsp?vgnextchannel=9e4c43db40317010VgnVCM100000dc0ca8c0RCRD&vgnextoid=92e01069b6e77310VgnVCM2000000c205a0aRCRD,RAFAEL DE LEON,CALLE,V,10,MADRID,MADRID,28051,CASCO H.VALLECAS,VILLA DE VALLECAS,449131,4468770,40.36608277888518,-3.6004308193504646,,,/contenido/entidadesYorganismos/CentrosEnse�anzasArtisticas/ConservatoriosEscuelasMusicaDanza
7565010,Centro Ruso de Ciencia y Cultura," Metro: Ant�n Mart�n, Tirso de Molina (l�nea 1).  Bus: 6, 26, 32, M1.  Renfe: Atocha. ",,0,http://www.madrid.es/vgn-ext-templating/v/index.jsp?vgnextchannel=9e4c43db40317010VgnVCM100000dc0ca8c0RCRD&vgnextoid=2d444652c5bf6410VgnVCM1000000b205a0aRCRD,ATOCHA,CALLE,V,34,MADRID,MADRID,28012,EMBAJADORES,CENTRO,440632,4474059,40.413156757273484,-3.7010330048016824,913 601 772 / 913 601 718 ,centroruso@centroruso.info,/contenido/entidadesYorganismos/CentrosEnse�anzaIdiomas
7639565,Centro Superior de Arte Dram�tico Scaena," Metro: Avenida America (l�neas 4, 6, 7, 9), Cartagena (l�nea 7)  Bus: 1, 12, 72, 73, 114, 115, 122, 200  ","  Ense�anza art�stica:  Interpretaci�n, Teatro musical   Modalidad:  presencial ",0,http://www.madrid.es/vgn-ext-templating/v/index.jsp?vgnextchannel=9e4c43db40317010VgnVCM100000dc0ca8c0RCRD&vgnextoid=c03a4a47e8388410VgnVCM1000000b205a0aRCRD,COSLADA,CALLE,V,7,MADRID,MADRID,28028,GUINDALERA,SALAMANCA,442839,4476738,40.43745442601165,-3.6752517217446106,,scaena@scaena.net,/contenido/entidadesYorganismos/CentrosEnse�anzasArtisticas/ConservatoriosEscuelasMusicaDanza
6696,Centro Superior de Dise�o de Moda de Madrid (Centro Adscrito a la UPM), Metro: Sierra de Guadalupe (l�nea 1)   Bus: E (Intercambiador Plaza del Conde de Casal)  Renfe: C2 y C7. Estaci�n de Vallecas   ,  Estudios de grado    Dise�o de moda   Otros cursos  ,0,http://www.madrid.es/vgn-ext-templating/v/index.jsp?vgnextchannel=9e4c43db40317010VgnVCM100000dc0ca8c0RCRD&vgnextoid=16c17b503a71c010VgnVCM1000000b205a0aRCRD,VALENCIA,CARRETERA,V,KM. 7,MADRID,MADRID,28031,,PUENTE DE VALLECAS,440694,4473432,40.4075128634897,-3.7002437498687986,913 310 126,secgen@csdmm@upm.es,/contenido/entidadesYorganismos/Universidades/OtrosCentrosUniversitarios
12364,Centro Superior de Estudios de la Defensa Nacional (CESEDEN)," Metro: Gregorio Mara��n (l�neas 7, 10)  Bus: 7, 12, 14, 27, 40, 45, 147, 150 ",,0,http://www.madrid.es/vgn-ext-templating/v/index.jsp?vgnextchannel=9e4c43db40317010VgnVCM100000dc0ca8c0RCRD&vgnextoid=a56cefeac361c010VgnVCM1000000b205a0aRCRD,CASTELLANA,PASEO,V,61,MADRID,MADRID,28046,RIOS ROSAS,CHAMBERI,441424,4477023,40.43986913673551,-3.691960149423328,913 482 500,cesden@ceseden.es,/contenido/entidadesYorganismos/CentrosEnse�anzaEspecializada
26400,CESMA Business School," Metro: Duque de Pastrana (l�nea 9)  Bus: 7, 29, 107 ", Titulaciones    Doble titulaci�n en Administraci�n y Direcci�n de Empresas + MBA o Master de especializaci�n.  Doble titulaci�n en Direcci�n Comercial y Marketing + Master en Direcci�n Comercial.  Doble titulaci�n en Direcci�n de Publicidad y Relaciones P�blicas + Master en Direcci�n de Comunicaci�n.  Masters y cursos de postgrado  ,0,http://www.madrid.es/vgn-ext-templating/v/index.jsp?vgnextchannel=9e4c43db40317010VgnVCM100000dc0ca8c0RCRD&vgnextoid=4594b3e42751c010VgnVCM2000000c205a0aRCRD,BAUSA,CALLE,V,23,MADRID,MADRID,28033,COSTILLARES,CIUDAD LINEAL,443377,4480270,40.46930024335396,-3.66922425897196,914 583 333,infoweb@cesma.es,/contenido/entidadesYorganismos/CentrosEnse�anzaEspecializada
101755,Conservatorio Profesional de Danza Carmen Amaya," Metro: Ciudad de los �ngeles (l�nea 3)  Bus: 22 , 23 , 59 , 79 , 85 , 123 , 130  ",  Art�sticas (LOGSE)    Art�sticas (LOE)    M�sica y danza  Danza (LOE)  Ense�anzas Profesionales  Danza cl�sica  Danza espa�ola  Ense�anzas Elementales  ,0,http://www.madrid.es/vgn-ext-templating/v/index.jsp?vgnextchannel=9e4c43db40317010VgnVCM100000dc0ca8c0RCRD&vgnextoid=5dc18899fc81c010VgnVCM1000000b205a0aRCRD,FELICIDAD,AVENIDA,V,27,MADRID,MADRID,28041,LOS ROSALES,VILLAVERDE,441602,4468117,40.35969672661692,-3.689055240537216,913 170 013,cpd.carmenamaya.madrid@educa.madrid.org,/contenido/entidadesYorganismos/CentrosEnse�anzasArtisticas/ConservatoriosEscuelasMusicaDanza
6697,Conservatorio Profesional de M�sica Adolfo Salazar," Metro: Arg&uuml;elles (l�neas 3, 4, 6), Ventura Rodr�guez (l�nea 3)  Bus: 1, 2, 21, 44, 74, 133, C1, C2 ",  Art�sticas ( LOGSE )    Art�stica ( LOE )    Clarinete  Contrabajo  Fagot  Flauta travesera  Guitarra  Instrumentos de cuerda pulsada  M�sica y danza  M�sica (L OE )  Oboe  Piano  Tromb�n  Trompa  Trompeta  Viola  Viol�n  Violonchello  ,0,http://www.madrid.es/vgn-ext-templating/v/index.jsp?vgnextchannel=9e4c43db40317010VgnVCM100000dc0ca8c0RCRD&vgnextoid=b869a4ea6871c010VgnVCM1000000b205a0aRCRD,FERRAZ,CALLE,V,62,MADRID,MADRID,28008,ARGUELLES,MONCLOA-ARAVACA,439118,4475728,40.428091350402354,-3.7190247094425115,915 414 925 / 915 428 996,cpm.adolfosalazar.madrid@educa.madrid.org,/contenido/entidadesYorganismos/CentrosEnse�anzasArtisticas/ConservatoriosEscuelasMusicaDanza
6672,Conservatorio Profesional de M�sica de Madrid. Calle Amaniel," Metro: Noviciado (l�nea 2), Plaza de Espa�a (l�neas 3, 10)   Bus: 1 , 2 , 3 , 44 , 46 , 74 , 75 , 133 , 138 , 147 , 148 , 202, C1 , C2 , L2 , L3 , L10 ",  Art�sticas ( LOGSE )    Art�sticas ( LOE )    M�sica y Danza  M�sica ( LOE )  Acorde�n  Clarinete  Contrabajo  Fagot  Flauta travesera  Guitarra  Oboe  Piano  Saxof�n  Tromb�n  Trompa  Tuba  Viola  Viol�n  Violoncello  Trompeta  Percusi�n  Instrumentos de cuerda pulsada  ,0,http://www.madrid.es/vgn-ext-templating/v/index.jsp?vgnextchannel=9e4c43db40317010VgnVCM100000dc0ca8c0RCRD&vgnextoid=7cb9a4ea6871c010VgnVCM1000000b205a0aRCRD,AMANIEL,CALLE,V,2,MADRID,MADRID,28015,UNIVERSIDAD,CENTRO,439955,4475383,40.42503537318892,-3.709125276586863,915 312 843 / 915 321 464,cpm.amaniel.madrid@educa.madrid.org,/contenido/entidadesYorganismos/CentrosEnse�anzasArtisticas/ConservatoriosEscuelasMusicaDanza
6693,Conservatorio Profesional de M�sica Joaqu�n Turina," Metro: Tetu�n (l�nea 1)   Bus: 66, 124 ",  Art�sticas (L OGSE )    Art�sticas ( LOE )    M�sica y danza  M�sica ( LOE )  Acorde�n  Clarinete  Contrabajo  Fagot  Flauta travesera  Guitarra  Oboe  Piano  Trompa  Viola  Viol�n  Violoncello  Trompeta  Instrumentos de cuerda pulsada      ,0,http://www.madrid.es/vgn-ext-templating/v/index.jsp?vgnextchannel=9e4c43db40317010VgnVCM100000dc0ca8c0RCRD&vgnextoid=9299a4ea6871c010VgnVCM1000000b205a0aRCRD,CEUTA,CALLE,V,8,MADRID,MADRID,28039,VALDEACEDERAS,TETUAN,440843,4479449,40.46173642594769,-3.6990372749622855,915 717 640,cpm.joaquinturina.madrid@educa.madrid.org,/contenido/entidadesYorganismos/CentrosEnse�anzasArtisticas/ConservatoriosEscuelasMusicaDanza
6694,Conservatorio Profesional de M�sica Teresa Berganza," Metro: Lucero (l�nea 6)  Bus: 31, 119, 138  ",  Art�sticas ( LOGSE )    Art�sticas ( LOE )    M�sica y danza  M�sica ( LOE )  Ense�anzas profesionales  Acorde�n  Canto  Clarinete  Contrabajo  Fagot  Flauta travesera  Guitarra  Oboe  Percusi�n  Piano  Saxof�n  Tromb�n  Trompa  Tuba  Viola  Viol�n  Violoncello  Trompeta  Instrumentos de cuerda pulsada  ,0,http://www.madrid.es/vgn-ext-templating/v/index.jsp?vgnextchannel=9e4c43db40317010VgnVCM100000dc0ca8c0RCRD&vgnextoid=87a9a4ea6871c010VgnVCM1000000b205a0aRCRD,PALMIPEDO,CALLE,V,3,MADRID,MADRID,28047,LUCERO,LATINA,436894,4473021,40.40353953330329,-3.7449842188332623,915 265 072,cpm.teresaberganza.madrid@educa.madrid.org,/contenido/entidadesYorganismos/CentrosEnse�anzasArtisticas/ConservatoriosEscuelasMusicaDanza
101754,Conservatorio Profesional de M�sica Victoria de los �ngeles," Metro: Ciudad de los �ngeles (l�nea 3)  Bus: 22, 23, 59, 79, 85, 123, 130  ",  Art�sticas ( LOGSE )    Art�sticas ( LOE )    M�sica y danza  M�sica ( LOE )  Canto  Clarinete  Contrabajo  Fagot  Flauta travesera  Guitarra  Oboe  Percusi�n  Piano  Saxof�n  Tromb�n  Trompa  Tuba  Viola  Viol�n  Violoncello  Trompeta  Instrumentos de cuerda pulsada  ,0,http://www.madrid.es/vgn-ext-templating/v/index.jsp?vgnextchannel=9e4c43db40317010VgnVCM100000dc0ca8c0RCRD&vgnextoid=42e18899fc81c010VgnVCM1000000b205a0aRCRD,FELICIDAD,AVENIDA,V,27,MADRID,MADRID,28041,LOS ROSALES,VILLAVERDE,441602,4468117,40.35969672661692,-3.689055240537216,913 180 342,cpm.victoriadelosangeles.madrid@educa.madrid.org,/contenido/entidadesYorganismos/CentrosEnse�anzasArtisticas/ConservatoriosEscuelasMusicaDanza
6689,Conservatorio Profesional de M�sica. Calle Arturo Soria,"Bus: 11, 70, 114, 122 ",  Art�sticas ( LOGSE )    Art�sticas ( LOE )    M�sica y danza  M�sica ( LOE )  Acorde�n  Arpa  Canto  Clarinete  Clave  Contrabajo  Fagot  Flauta travesera  Flauta de pico  Guitarra  Guitarra flamenca  Instrumentos de cuerda pulsada del Renacimiento y Barroco  Instrumentos de p�a  Oboe  �rgano  Percusi�n  Piano  Saxof�n  Tromb�n  Trompa  Trompeta  Tuba  Viola  Viola de gamba  Viol�n  Viloncello  Trompeta  ,0,http://www.madrid.es/vgn-ext-templating/v/index.jsp?vgnextchannel=9e4c43db40317010VgnVCM100000dc0ca8c0RCRD&vgnextoid=61d9a4ea6871c010VgnVCM1000000b205a0aRCRD,ARTURO SORIA,CALLE,V,140,MADRID,MADRID,28043,SAN JUAN BAUTISTA,CIUDAD LINEAL,444786,4478285,40.4515223497512,-3.6524432508495486,914 135 090,cpm.ciudadlineal.madrid@educa.madrid.org,/contenido/entidadesYorganismos/CentrosEnse�anzasArtisticas/ConservatoriosEscuelasMusicaDanza
4631819,Conservatorio Superior de Danza Mar�a de �vila,"Bus: 34, 35, 247",  Art�sticas ( LOE )    M�sica y danza  Danza ( LOE )  Ense�anzas Art�sticas Superiores  Coreograf�a e Interpretaci�n  Coreograf�a  Interpretaci�n  Pedagog�a de la Danza  Danza Profesional  ,0,http://www.madrid.es/vgn-ext-templating/v/index.jsp?vgnextchannel=9e4c43db40317010VgnVCM100000dc0ca8c0RCRD&vgnextoid=70ac4048341b4110VgnVCM1000000b205a0aRCRD,GENERAL RICARDOS,CALLE,V,177,MADRID,MADRID,28025,PUERTA BONITA,CARABANCHEL,437597,4470980,40.38520638371602,-3.7364998395341953,914 220 979 ,csd.mariadeavila.madrid@educa.madrid.org,/contenido/entidadesYorganismos/CentrosEnse�anzasArtisticas/ConservatoriosEscuelasMusicaDanza
101581,EFTI Escuela de Fotograf�a. Centro de Imagen," Metro: Men�ndez Pelayo (l�nea 1)  Bus: 10, 14, 24, 26, 32, 37, 54, 57, 102, 141, 152 ",,0,http://www.madrid.es/vgn-ext-templating/v/index.jsp?vgnextchannel=9e4c43db40317010VgnVCM100000dc0ca8c0RCRD&vgnextoid=172ae8ae8d81c010VgnVCM1000000b205a0aRCRD,FUENTERRABIA,CALLE,V,4,MADRID,MADRID,28014,PACIFICO,RETIRO,442280,4473280,40.40626433013061,-3.6815278061427885,915 529 999,efti@efti.es,/contenido/entidadesYorganismos/CentrosEnse�anzaEspecializada
20831,Escuela  Musical Silvela," Metro: Manuel Becerra (l�neas 2, 6)  Bus: 2, 12, 21, 38, 43, 48, 53, 56, 71, 106, 110, 146, 210  ",  Ense�anza art�stica grado elemental    Piano  Viol�n  Violonchelo  Clarinete  Guitarra  Contrabajo  Fagot  Flauta Travesera  0boe  Saxof�n  Trompa  Viola    Modalidad:  presencial  ,0,http://www.madrid.es/vgn-ext-templating/v/index.jsp?vgnextchannel=9e4c43db40317010VgnVCM100000dc0ca8c0RCRD&vgnextoid=4e1e7d448b51c010VgnVCM2000000c205a0aRCRD,FRANCISCO SILVELA,CALLE,V,7,MADRID,MADRID,28028,LISTA,SALAMANCA,443290,4475793,40.42896324416705,-3.6698616916060587,914 020 708,,/contenido/entidadesYorganismos/CentrosEnse�anzasArtisticas/ConservatoriosEscuelasMusicaDanza
4079,Escuela de Animaci�n y Educaci�n Infantil y Juvenil en el Tiempo Libre de la Comunidad de Madrid," Metro: Santiago Bernab�u (l�nea 10) 
 Bus: 27, 40, 43, 120, 126, 150 ",,0,http://www.madrid.es/vgn-ext-templating/v/index.jsp?vgnextchannel=9e4c43db40317010VgnVCM100000dc0ca8c0RCRD&vgnextoid=8e71a4ea6871c010VgnVCM1000000b205a0aRCRD,CASTELLANA,PASEO,V,101,MADRID,MADRID,28046,CUATRO CAMINOS,TETUAN,441508,4478525,40.45345072275751,-3.6911206030551034,915 980 097,escueladeanimacion@madrid.org,/contenido/entidadesYorganismos/CentrosEscuelasTiempoLibre
5901006,Escuela de Animaci�n y Tiempo Libre Francisco Giner de los R�os," Metro: Iglesia (l�nea 1) 
 Bus: 3, 5, 16, 61 ",,0,http://www.madrid.es/vgn-ext-templating/v/index.jsp?vgnextchannel=9e4c43db40317010VgnVCM100000dc0ca8c0RCRD&vgnextoid=ddb8cce8aa30d210VgnVCM2000000c205a0aRCRD,GENERAL MARTINEZ CAMPOS,PASEO,V,14,MADRID,MADRID,28010,ALMAGRO,CHAMBERI,441008,4476466,40.43486693718328,-3.6968253483495004,914 460 197,escuelatiempolibre@fundacionginer.org,/contenido/entidadesYorganismos/CentrosEscuelasTiempoLibre
27188,Escuela de Arte Francisco Alc�ntara,"Bus: 41, 46, 75",  Ense�anzas autorizadas  (art�sticas)   Alfarer�a  Cer�mica art�stica  Decoraci�n cer�mica  Modelismo  Modelismo y Matricer�a cer�mica   ,0,http://www.madrid.es/vgn-ext-templating/v/index.jsp?vgnextchannel=9e4c43db40317010VgnVCM100000dc0ca8c0RCRD&vgnextoid=e6ae059cb751c010VgnVCM2000000c205a0aRCRD,FRANCISCO Y JACINTO ALCANTARA,CALLE,V,2,MADRID,MADRID,28008,CASA DE CAMPO,MONCLOA-ARAVACA,438672,4475579,40.42671627797425,-3.7242678207147524,915 423 241,ea.franciscoalcantara.madrid@educa.madrid.org,/contenido/entidadesYorganismos/CentrosEnse�anzasArtisticas/ConservatoriosEscuelasMusicaDanza
6674,Escuela de Arte La Palma,"METRO: Noviciado , Tribunal BUS: 3 , 21 , 40 , 147 , 149 "," ENSE�ANZAS:  BACHILLERATO:Artes - Artes pl�sticas, dise�o e imagen.  ART�STICAS: Artes aplicadas al muro - Artes aplicadas de la escultura - Artes aplicadas de la madera - Artes aplicadas del metal. ",0,http://www.madrid.es/vgn-ext-templating/v/index.jsp?vgnextchannel=9e4c43db40317010VgnVCM100000dc0ca8c0RCRD&vgnextoid=db3ba4ea6871c010VgnVCM1000000b205a0aRCRD,PALMA,CALLE,NUM,46,MADRID,MADRID,28004,UNIVERSIDAD,CENTRO,440225,4475551,40.42656819920333,-3.7059702232791585,915 216 232 / 915 222 788,ea.lapalma.madrid@educa.madrid.org ,/contenido/entidadesYorganismos/CentrosEducacion/CentrosFormacionProfesionalPublicos
6719,Escuela de Arte y Antig�edades," Metro: Retiro (l�nea 2), Vel�zquez (l�nea 4)  Bus: 1, 9, 19, 51, 74   Renfe: Recoletos ",  Titulaciones    M�ster Tasaci�n de Antig&uuml;edades  Anticuariado  Especialista en Arte Contempor�neo  Tasaci�n y Peritaje de Obras de Arte  Restauraci�n de Muebles: t�cnicas  Restauraci�n de Muebles: pr�cticas  Restauraci�n de Pintura: t�cnicas  Restauraci�n de Pintura: pr�cticas  Restauraci�n de Papel y T�cnica de Encuadernaci�n  Restauraci�n de Cer�mica y de Porcelana  Cursos a distancia ( e-Learning)   M�ster Tasaci�n de Antig&uuml;edades  on line   ,0,http://www.madrid.es/vgn-ext-templating/v/index.jsp?vgnextchannel=9e4c43db40317010VgnVCM100000dc0ca8c0RCRD&vgnextoid=6e4ba4ea6871c010VgnVCM1000000b205a0aRCRD,NU�EZ DE BALBOA,CALLE,V,13,MADRID,MADRID,28001,RECOLETOS,SALAMANCA,442163,4475127,40.42288584260388,-3.6830865200617007,915 231 214,info@eaart.com,/contenido/entidadesYorganismos/CentrosEnse�anzaEspecializada
6690,Escuela de cer�mica de la Moncloa,"Metro: Pr�ncipe P�o  Bus: 74 , 21 , 41 , 46 , 75", ENSE�ANZAS. ACCESO: Con ESO - BUP o FP2 (Se obtiene un Diploma de Ceramista expedido por el Ayuntamiento) -   CURSOS MONOGR�FICOS. ACCESO: Prueba de nivel cuando la demanda es superior a las plazas   TALLERES: ACCESO: Prueba de nivel   M�s informaci�n en:    Escuela de Cer�mica de la Moncloa  ,0,http://www.madrid.es/vgn-ext-templating/v/index.jsp?vgnextchannel=9e4c43db40317010VgnVCM100000dc0ca8c0RCRD&vgnextoid=009fa4ea6871c010VgnVCM1000000b205a0aRCRD,FRANCISCO Y JACINTO ALCANTARA,CALLE,V,2,MADRID,MADRID,28008,CASA DE CAMPO,MONCLOA-ARAVACA,438672,4475579,40.42670719570918,-3.7242795119747836,915 478 589 ,escuelaceramica@madrid.es,/contenido/entidadesYorganismos/CentrosEnse�anzasArtisticas/ConservatoriosEscuelasMusicaDanza
7407746,Escuela de Cine y Televisi�n de Madrid S�ptima Ars," Metro: Concha Espina (l�nea 9)  Bus: 7, 14, 51 ", Ense�anza: cinematograf�a ,0,http://www.madrid.es/vgn-ext-templating/v/index.jsp?vgnextchannel=9e4c43db40317010VgnVCM100000dc0ca8c0RCRD&vgnextoid=8b0269ad47ef4410VgnVCM2000000c205a0aRCRD,FUENTE DEL SAZ,CALLE,V,5,MADRID,MADRID,28016,HISPANOAMERICA,CHAMARTIN,442429,4478544,40.45368631081791,-3.680261280613375,"914 577 973  
",informacion@septima-ars.com,/contenido/entidadesYorganismos/CentrosEnse�anzaEspecializada
26410,Escuela de Circo Carampa,,,0,http://www.madrid.es/vgn-ext-templating/v/index.jsp?vgnextchannel=9e4c43db40317010VgnVCM100000dc0ca8c0RCRD&vgnextoid=0cce059cb751c010VgnVCM2000000c205a0aRCRD,ROBLEDAL,CAMINO,V,2,MADRID,MADRID,28011,CASA DE CAMPO,MONCLOA-ARAVACA,436815,4474247,40.414568820431136,-3.7460369869790267,914 792 602,carampa@nodo50.org,/contenido/entidadesYorganismos/CentrosEnse�anzaEspecializada
6847,Escuela de Econom�a," Metro: �pera (l�neas 2, 5, Ramal), Callao (l�neas 3, 5), Sol (l�neas 1, 3)  Bus: 1, 2, 3, 5 , 15, 20, 25, 39, 46, 51, 52, 53, 74, 133, 146, 147, 150  Renfe: Sol ",,0,http://www.madrid.es/vgn-ext-templating/v/index.jsp?vgnextchannel=9e4c43db40317010VgnVCM100000dc0ca8c0RCRD&vgnextoid=d9dba4ea6871c010VgnVCM1000000b205a0aRCRD,FLORA,CALLE,V,1,MADRID,MADRID,28013,SOL,CENTRO,440085,4474621,40.4181802465183,-3.707532746173566,915 594 602,escueco@cemad.es,/contenido/entidadesYorganismos/CentrosEnse�anzaEspecializada
20835,Escuela de Ense�anza Musical Katarina Gurska," Metro: Cuatro Caminos (l�neas 1, 2, 6)  Bus: 3, 37, 45, 149 ",  Ense�anza art�stica:    Musicolog�a  Composici�n  Direcci�n  Pedagog�a  Interpretaci�n  Producci�n y Gesti�n  Sonolog�a  Master ense�anzas art�sticas  Composici�n instrumental contempor�nea  Composici�n electroac�stica  Composici�n para medios audiovisuales  Interpretaci�n solista    Modalidad:  presencial ,0,http://www.madrid.es/vgn-ext-templating/v/index.jsp?vgnextchannel=9e4c43db40317010VgnVCM100000dc0ca8c0RCRD&vgnextoid=333e7d448b51c010VgnVCM2000000c205a0aRCRD,SANTA ENGRACIA,CALLE,V,179,MADRID,MADRID,28003,RIOS ROSAS,CHAMBERI,440433,4477693,40.44587922661486,-3.7037194919725462,,,/contenido/entidadesYorganismos/CentrosEnse�anzasArtisticas/ConservatoriosEscuelasMusicaDanza
6845,Escuela de Finanzas Aplicadas," Metro: Rub�n Dar�o (l�nea 5)  Bus: 3, 7, 40, 147 ",,0,http://www.madrid.es/vgn-ext-templating/v/index.jsp?vgnextchannel=9e4c43db40317010VgnVCM100000dc0ca8c0RCRD&vgnextoid=6ceba4ea6871c010VgnVCM1000000b205a0aRCRD,EL ESPA&Ntilde;OLETO,CALLE,V,19,MADRID,MADRID,28010,ALMAGRO,CHAMBERI,441187,4476069,40.43130327827446,-3.6946782414181114,"915 200 150 / 915 200 180  
",info@afi.es,/contenido/entidadesYorganismos/CentrosEnse�anzaEspecializada
190708,Escuela de Guerra del Ej�rcito," Metro: San Bernardo (l�neas 2, 4), Arg&uuml;elles (l�neas 2, 3, 4)  Bus: 21 ",,0,http://www.madrid.es/vgn-ext-templating/v/index.jsp?vgnextchannel=9e4c43db40317010VgnVCM100000dc0ca8c0RCRD&vgnextoid=4c13e2ea83a30110VgnVCM2000000c205a0aRCRD,SANTA CRUZ DE MARCENADO,CALLE,V,25,MADRID,MADRID,28015,UNIVERSIDAD,CENTRO,439697,4475863,40.42934065701354,-3.7122238864380384,915 242 000 (Centralita),,/contenido/entidadesYorganismos/CentrosEnse�anzaEspecializada
20812,Escuela de M�sica Allegro," Metro: Barrio del Pilar (l�nea 9)  Bus: 42, 147 ",  Ense�anzas art�sticas elementales y profesionales    Piano  Saxof�n  Trompa  Viola  Flauta travesera  Oboe  Fagot  Viol�n  Violoncello  Guitarra    Modalidad:  presencial  Adscrito al Conservatorio Profesional de M�sica Joaquin Turina  ,0,http://www.madrid.es/vgn-ext-templating/v/index.jsp?vgnextchannel=9e4c43db40317010VgnVCM100000dc0ca8c0RCRD&vgnextoid=8acd7d448b51c010VgnVCM2000000c205a0aRCRD,VILLA DE MARIN,CALLE,V,7,MADRID,MADRID,28029,LA PAZ,FUENCARRAL-EL PARDO,440698,4480961,40.475337685735425,-3.700900707649782,913 140 074,,/contenido/entidadesYorganismos/CentrosEnse�anzasArtisticas/ConservatoriosEscuelasMusicaDanza
6702,Escuela de M�sica Andana," Metro: Pinar de Chamart�n (l�neas 1, 4)  Bus: 29, 125, 129, 150 ",  Ense�anza art�stica grado elemental    Acorde�n  Arpa  Clarinete  Flauta travesera  Guitarra  Guitarra flamenca  Piano  Viola  Viol�n  Violoncello    Modalidad:  presencial   Adscrito al  Conservatorio Profesional de M�sica de la calle Arturo Soria  ,0,http://www.madrid.es/vgn-ext-templating/v/index.jsp?vgnextchannel=9e4c43db40317010VgnVCM100000dc0ca8c0RCRD&vgnextoid=e31ca4ea6871c010VgnVCM1000000b205a0aRCRD,JAZMIN,CALLE,V,29,MADRID,MADRID,28033,COSTILLARES,CIUDAD LINEAL,443814,4481622,40.48151841216352,-3.6641897283645526,917 670 936,andana@andana.es,/contenido/entidadesYorganismos/CentrosEnse�anzasArtisticas/ConservatoriosEscuelasMusicaDanza
20815,Escuela de M�sica Ayensa," Metro: Conde de Casal (l�nea 6)  Bus: 14, 32, 56, 63, 143 ",  Ense�anza art�stica grado elemental    Flauta travesera  Guitarra  Oboe  Piano  Viola  Viol�n  Violoncello    Modalidad : presencial ,0,http://www.madrid.es/vgn-ext-templating/v/index.jsp?vgnextchannel=9e4c43db40317010VgnVCM100000dc0ca8c0RCRD&vgnextoid=7fdd7d448b51c010VgnVCM2000000c205a0aRCRD,ABTAO,CALLE,V,46,MADRID,MADRID,28007,PACIFICO,RETIRO,442902,4473294,40.40642434579682,-3.6742108327814242,915 019 532,ayensamusica@hotmail.com,/contenido/entidadesYorganismos/CentrosEnse�anzasArtisticas/ConservatoriosEscuelasMusicaDanza
8187758,Escuela de M�sica Calasanz,,  Ense�anza art�stica grado elemental:    Contrabajo  Clarinete  Fagot  Flauta travesera  oboe  Percusi�n  Piano  Saxof�n  Tromb�n  Trompa   Trompeta  Guitarra  Tuba  Viola  Viol�n  Violoncello    Modalidad:  presencial ,0,http://www.madrid.es/vgn-ext-templating/v/index.jsp?vgnextchannel=9e4c43db40317010VgnVCM100000dc0ca8c0RCRD&vgnextoid=ec74fa43ab29f410VgnVCM1000000b205a0aRCRD,CONDE DE PE�ALVER,CALLE,V,51,MADRID,MADRID,28006,LISTA,SALAMANCA,442821,4476029,40.43105715287066,-3.6753999387763914,,,/contenido/entidadesYorganismos/CentrosEnse�anzasArtisticas/ConservatoriosEscuelasMusicaDanza
19442,Escuela de M�sica Creativa - Estudios Profesionales," Metro: Tribunal (l�neas 1, 10), Noviciado (l�nea 2)  BUS: 3, 40, 147, 149 ",  Ense�anza art�stica    Bajo el�ctrico   Clarinete  Contrabajo  Fagot  Flauta travesera  Trompeta  Guitarra  Guitarra el�ctrica  Oboe  Piano  Saxof�n  Trompa  Viola  Tromb�n  Viol�n  Violoncello    Modalidad:  presencial   Adscrito al  Conservatorio Profesional de la calle Ferraz ,0,http://www.madrid.es/vgn-ext-templating/v/index.jsp?vgnextchannel=9e4c43db40317010VgnVCM100000dc0ca8c0RCRD&vgnextoid=a4e1059cb751c010VgnVCM2000000c205a0aRCRD,PALMA,CALLE,V,35,MADRID,MADRID,28004,UNIVERSIDAD,CENTRO,440353,4475523,40.42633424675786,-3.704447043974718,915 211 156,gerencia@musicacreativa.com,/contenido/entidadesYorganismos/CentrosEnse�anzasArtisticas/ConservatoriosEscuelasMusicaDanza
6700,Escuela de M�sica Intermezzo," Metro: Atocha Renfe (l�nea 1)  Bus: 6, 19, 27, 34, 41, 45, 47, 55, 59, 85, 86, 102, 119, 247  Renfe: Atocha ",  Ense�anza art�stica grado elemental:     Piano   Viola   Viol�n   Violoncello    Modalidad:  Presencial   Adscrito al  Conservatorio Profesional �ngel Arias Mace�n ,0,http://www.madrid.es/vgn-ext-templating/v/index.jsp?vgnextchannel=9e4c43db40317010VgnVCM100000dc0ca8c0RCRD&vgnextoid=cd3ca4ea6871c010VgnVCM1000000b205a0aRCRD,MENDEZ ALVARO,CALLE,V,2,MADRID,MADRID,28045,PALOS DE MOGUER,ARGANZUELA,441315,4473368,40.40698040929918,-3.6929195885172104,915 278 467,info@intermezzo-escuela.com,/contenido/entidadesYorganismos/CentrosEnse�anzasArtisticas/ConservatoriosEscuelasMusicaDanza
6713,Escuela de M�sica Katarina Gurska," Metro: Concha Espina (l�nea 9)  Bus: 7, 16, 19, 29, 51, 52 ",  Ense�anza art�stica grado elemental y profesional:     Arpa  Canto   Clarinete   Contrabajo  Flauta travesera  Flauta de pico  Fagot  Guitarra  Oboe   �rgano  Violoncello   Saxof�n   Trompa   Viola   Viol�n  Piano     Modalidad:  presencial   Adscrito al  Conservatorio Profesional de M�sica de la calle Ferraz       ,0,http://www.madrid.es/vgn-ext-templating/v/index.jsp?vgnextchannel=9e4c43db40317010VgnVCM100000dc0ca8c0RCRD&vgnextoid=b25ca4ea6871c010VgnVCM1000000b205a0aRCRD,GENIL,CALLE,V,13,MADRID,MADRID,28002,EL VISO,CHAMARTIN,442374,4478044,40.449178261663036,-3.6808644173382956,915 635 555,em@katarinagurska.com,/contenido/entidadesYorganismos/CentrosEnse�anzasArtisticas/ConservatoriosEscuelasMusicaDanza
20821,Escuela de M�sica Mater Salvatoris,"Bus: 83, 133",  Ense�anza art�stica profesional    Canto  Clarinete  Contrabajo  Fagot  Flauta travesera  Guitarra  Oboe  Piano  Trompa  Viola  Viol�n  Violoncello  Trompeta    Modalidad:  presencial ,0,http://www.madrid.es/vgn-ext-templating/v/index.jsp?vgnextchannel=9e4c43db40317010VgnVCM100000dc0ca8c0RCRD&vgnextoid=590e7d448b51c010VgnVCM2000000c205a0aRCRD,CORU�A,CARRETERA,,9,MADRID,MADRID,28040,ARAVACA,MONCLOA-ARAVACA,434779,4479510,40.46182211349167,-3.770585534356343,913 071 243,secretaria@matersalvatoris.org,/contenido/entidadesYorganismos/CentrosEnse�anzasArtisticas/ConservatoriosEscuelasMusicaDanza
6701,Escuela de M�sica Progreso Musical," Metro: Arg&uuml;elles (l�neas 3, 4, 6)  Bus: 1, 21, 44, 133,  C  ","  Ense�anza art�stica profesional:  acorde�n, Canto, Bajo el�ctrico, Clarinete, Fagot, Flauta Travesera, Flauta de Pico, Guitarra, Guitarra el�ctrica, Oboe, Percusi�n, Piano, Saxof�n, Tromb�n, Trompa, Tuba, Trompeta, Viol�n, Violoncello, Viola    Ense�anza art�stica superior:  Musicolog�a, Composici�n, Direcci�n, Pedagog�a, Interpretaci�n Arpa, Clarinete, Oboe, Fagot, Contrabajo, Percusi�n, Saxof�n, Trompa, Violonchello, Tromb�n, Tuba, Viola, Viol�n, Trompeta, Canto, Piano, Guitarra, Acorde�n   Modalidad:  presencial   Adscrito al  Conservatorio Profesional de M�sica de la calle Ferraz ",0,http://www.madrid.es/vgn-ext-templating/v/index.jsp?vgnextchannel=9e4c43db40317010VgnVCM100000dc0ca8c0RCRD&vgnextoid=a76ca4ea6871c010VgnVCM1000000b205a0aRCRD,TUTOR,CALLE,V,52,MADRID,MADRID,28008,ARGUELLES,MONCLOA-ARAVACA,439216,4476053,40.43102619413128,-3.717912391655704,915 495 036,progresomusical@telefonica.net,/contenido/entidadesYorganismos/CentrosEnse�anzasArtisticas/ConservatoriosEscuelasMusicaDanza
24410,Escuela de M�sica Santa Cecilia," Metro: Guzm�n el Bueno (l�neas 6, 7)  Bus: 44, 45, 127  ",  Ense�anza art�stica grado profesional    Acorde�n  Arpa  Canto  Clarinete  Fagot  Flauta travesera  Contrabajo  Flauta de Pico  Guitarra  Oboe  Piano  Saxof�n  Tromb�n  Trompa  Tuba  Trompeta  Viol�n  Violoncello  Viola    Modalidad:  presencial   Adscrito al  Conservatorio de M�sica Joaqu�n Turina ,0,http://www.madrid.es/vgn-ext-templating/v/index.jsp?vgnextchannel=9e4c43db40317010VgnVCM100000dc0ca8c0RCRD&vgnextoid=284e7d448b51c010VgnVCM2000000c205a0aRCRD,VIVERO,CALLE,V,4,MADRID,MADRID,28040,CIUDAD UNIVERSITARIA,MONCLOA-ARAVACA,439864,4477983,40.44845069966017,-3.710444449153395,915 353 795,admon@santacecilia.info,/contenido/entidadesYorganismos/CentrosEnse�anzasArtisticas/ConservatoriosEscuelasMusicaDanza
20837,Escuela de M�sica Serra,"Bus: 25, 121",  Ense�anza art�stica grado elemental    Flauta travesera  Piano  Viol�n  Acorde�n  Clarinete  Saxof�n  Trompa  Viola  Violoncello  Percusi�n  Oboe    Modalidad:  presencial ,0,http://www.madrid.es/vgn-ext-templating/v/index.jsp?vgnextchannel=9e4c43db40317010VgnVCM100000dc0ca8c0RCRD&vgnextoid=1d5e7d448b51c010VgnVCM2000000c205a0aRCRD,ESCALONA,CALLE,V,61,MADRID,MADRID,28024,ALUCHE,LATINA,435463,4472233,40.39633105057808,-3.7617667677408266,915 186 414 / 670 663 116,musicalserra@hotmail.com,/contenido/entidadesYorganismos/CentrosEnse�anzasArtisticas/ConservatoriosEscuelasMusicaDanza
20841,Escuela de M�sica Sigfredo," Metro: O' Donnell (l�nea 6)  Bus: 2, 12, 30, 56, 71, 143  ",  Ense�anza art�stica grado elemental    Flauta travesera  Guitarra  Piano  Viola  Viol�n  Violoncello  Saxof�n    Modalidad:  presencial ,0,http://www.madrid.es/vgn-ext-templating/v/index.jsp?vgnextchannel=9e4c43db40317010VgnVCM100000dc0ca8c0RCRD&vgnextoid=027e7d448b51c010VgnVCM2000000c205a0aRCRD,PORVENIR,CALLE,V,9,MADRID,MADRID,28028,FUENTE DEL BERRO,SALAMANCA,443618,4475284,40.42440931975084,-3.665938159675621,917 254 334,sigfredo@academiasigfredo.com,/contenido/entidadesYorganismos/CentrosEnse�anzasArtisticas/ConservatoriosEscuelasMusicaDanza
6715,Escuela de M�sica Soto Mesa," Metro: San Bernardo (l�neas 2, 4)  Bus: 21, 147 ",  Ense�anza art�stica profesionales:  acorde�n - arpa - canto - clarinete - fagot - flauta travesera - contrabajo - flauta de pico - guitarra - oboe - piano - saxof�n - trompa - trompeta  - viol�n  - violoncello - viola - percusi�n - Instrumentos de cuerda pulsada del renacimiento y el Barroco    Modalidad:  presencial ,0,http://www.madrid.es/vgn-ext-templating/v/index.jsp?vgnextchannel=9e4c43db40317010VgnVCM100000dc0ca8c0RCRD&vgnextoid=9c7ca4ea6871c010VgnVCM1000000b205a0aRCRD,SANTA CRUZ DE MARCENADO,CALLE,V,1,MADRID,MADRID,28015,UNIVERSIDAD,CENTRO,440159,4475804,40.42884258313141,-3.7067720839277323,915 934 855,secretaria@sotomesa.com,/contenido/entidadesYorganismos/CentrosEnse�anzasArtisticas/ConservatoriosEscuelasMusicaDanza
4939265,Escuela de M�sica Tempo Musical, Bus: 12 ,  Ense�anza art�stica profesional    Canto  Clarinete  Fagot  Flauta travesera  Guitarra  Oboe  Piano  Viol�n  Violoncello  Viola  Trompa  Saxof�n    Modalidad:  presencial  ,0,http://www.madrid.es/vgn-ext-templating/v/index.jsp?vgnextchannel=9e4c43db40317010VgnVCM100000dc0ca8c0RCRD&vgnextoid=8b4e4ceab5c7a110VgnVCM2000000c205a0aRCRD,RAMON DE AGUINAGA,CALLE,V,15,MADRID,MADRID,28028,FUENTE DEL BERRO,SALAMANCA,443930,4475555,40.42687175870287,-3.662284359840255,913 555 390,jpromeo@ya.com,/contenido/entidadesYorganismos/CentrosEnse�anzasArtisticas/ConservatoriosEscuelasMusicaDanza
88550,Escuela de M�sica �baco,,  Ense�anza art�stica grado elemental:    Flauta travesera  Percusi�n  Piano  Trompeta  Guitarra  Viol�n  Violoncello  ,0,http://www.madrid.es/vgn-ext-templating/v/index.jsp?vgnextchannel=9e4c43db40317010VgnVCM100000dc0ca8c0RCRD&vgnextoid=5924def5ab41c010VgnVCM2000000c205a0aRCRD,PESETA,AVENIDA,V,8,MADRID,MADRID,28054,CUATRO VIENTOS,LATINA,435132,4469085,40.367946845898686,-3.7653457535111357,,,/contenido/entidadesYorganismos/CentrosEnse�anzasArtisticas/ConservatoriosEscuelasMusicaDanza
6823,Escuela de Organizaci�n Industrial (EOI)," Metro: Metropolitano (l�nea 6)  Bus: 132, C1, C2, F ",,0,http://www.madrid.es/vgn-ext-templating/v/index.jsp?vgnextchannel=9e4c43db40317010VgnVCM100000dc0ca8c0RCRD&vgnextoid=fdcca4ea6871c010VgnVCM1000000b205a0aRCRD,GREGORIO DEL AMO,AVENIDA,V,6,MADRID,MADRID,28040,CIUDAD UNIVERSITARIA,MONCLOA-ARAVACA,439041,4477721,40.44603037617417,-3.7201356258316993,913 495 600 (Centralita),contratacion@eoi.es,/contenido/entidadesYorganismos/CentrosEnse�anzaEspecializada
190276,Escuela de Tiempo Libre Abancay," Metro: Avenida de la Ilustraci�n (l�nea 7) 
 Bus: 64, 67, 83, 127, 133 ",,0,http://www.madrid.es/vgn-ext-templating/v/index.jsp?vgnextchannel=9e4c43db40317010VgnVCM100000dc0ca8c0RCRD&vgnextoid=1891f5177659f010VgnVCM2000000c205a0aRCRD,ISLAS CIES,CALLE,V,22,MADRID,MADRID,28035,PE�A GRANDE,FUENCARRAL-EL PARDO,439048,4481499,40.48006449963001,-3.7204166026378216,912 446 999,escuela@abancay.es,/contenido/entidadesYorganismos/CentrosEscuelasTiempoLibre
190389,Escuela de Tiempo Libre Abbant," Metro: Ventura Rodr�guez (l�nea 3) 
 Bus: 74 ",,0,http://www.madrid.es/vgn-ext-templating/v/index.jsp?vgnextchannel=9e4c43db40317010VgnVCM100000dc0ca8c0RCRD&vgnextoid=68a5033aee3cf010VgnVCM2000000c205a0aRCRD,QUINTANA,CALLE,V,29,MADRID,MADRID,28008,ARGUELLES,MONCLOA-ARAVACA,439107,4475607,40.426991442752815,-3.719154460691207,911 828 631,escuela-tl@abbant.org,/contenido/entidadesYorganismos/CentrosEscuelasTiempoLibre
39592,Escuela de Tiempo Libre Acaya," Metro: Prosperidad (l�nea 4) 
 Bus: 9, 72, 73 ",,0,http://www.madrid.es/vgn-ext-templating/v/index.jsp?vgnextchannel=9e4c43db40317010VgnVCM100000dc0ca8c0RCRD&vgnextoid=5b0c7589f451c010VgnVCM1000000b205a0aRCRD,CONSTANCIA,CALLE,V,39,MADRID,MADRID,28002,PROSPERIDAD,CHAMARTIN,443116,4477331,40.44280641626786,-3.672050815494901,914 115 553,informacion@acaya.es,/contenido/entidadesYorganismos/CentrosEscuelasTiempoLibre
18595,Escuela de Tiempo Libre Arci - Nature," Metro: Puente de Vallecas (l�nea 1) 
 Bus: 8, 10, 24, 37, 54, 56, 57, 136, 141, 310 ",,0,http://www.madrid.es/vgn-ext-templating/v/index.jsp?vgnextchannel=9e4c43db40317010VgnVCM100000dc0ca8c0RCRD&vgnextoid=a81f059cb751c010VgnVCM2000000c205a0aRCRD,LOS MESEJO,CALLE,V,15,MADRID,MADRID,28007,ADELFAS,RETIRO,443273,4472583,40.400044673419536,-3.669775299729909,914 343 388,"amplia@arcinature.com, formacion@arcinature.com",/contenido/entidadesYorganismos/CentrosEscuelasTiempoLibre
4078,Escuela de Tiempo Libre Asde - Insignia de Madera," Metro: Gran V�a (l�neas 1 y 5) 
 Bus: 3 ",,0,http://www.madrid.es/vgn-ext-templating/v/index.jsp?vgnextchannel=9e4c43db40317010VgnVCM100000dc0ca8c0RCRD&vgnextoid=6a0da4ea6871c010VgnVCM1000000b205a0aRCRD,HORTALEZA,CALLE,V,19,MADRID,MADRID,28004,JUSTICIA,CENTRO,440706,4474995,40.421603056562894,-3.7002365929902217,915 219 158,escuela@exploradoresdemadrid.org,/contenido/entidadesYorganismos/CentrosEscuelasTiempoLibre
7727974,Escuela de Tiempo Libre Auxilia Madrid," Metro: Vista Alegre (l�nea 5) 
 Bus: 55 ",,0,http://www.madrid.es/vgn-ext-templating/v/index.jsp?vgnextchannel=9e4c43db40317010VgnVCM100000dc0ca8c0RCRD&vgnextoid=3e52e85fc39a9410VgnVCM2000000c205a0aRCRD,AVECILLA,CALLE,V,5,MADRID,MADRID,28025,VISTA ALEGRE,CARABANCHEL,437628,4471341,40.38845175256894,-3.736169949409396,914 622 234,auxiliamadrid@gmail.com,/contenido/entidadesYorganismos/CentrosEscuelasTiempoLibre
5900898,Escuela de Tiempo Libre Campa," Metro: Usera (l�nea 6) 
 Bus: 47, 247 ",,0,http://www.madrid.es/vgn-ext-templating/v/index.jsp?vgnextchannel=9e4c43db40317010VgnVCM100000dc0ca8c0RCRD&vgnextoid=fcdcc25ab930d210VgnVCM2000000c205a0aRCRD,AMPARO USERA,CALLE,V,9,MADRID,MADRID,28026,MOSCARDO,USERA,440609,4471273,40.38806650803617,-3.7010319876673448,915 000 850,,/contenido/entidadesYorganismos/CentrosEscuelasTiempoLibre
190219,Escuela de Tiempo Libre Ceam," Metro: Sierra de Guadalupe (l�nea 1) 
 Bus: 54, 58, 103, 130, 142, 143 ",,0,http://www.madrid.es/vgn-ext-templating/v/index.jsp?vgnextchannel=9e4c43db40317010VgnVCM100000dc0ca8c0RCRD&vgnextoid=bdb3c7202677f010VgnVCM2000000c205a0aRCRD,ARBOLEDA,CALLE,V,14,MADRID,MADRID,28031,PALOMERAS SURESTE,PUENTE DE VALLECAS,446929,4471018,40.38618765699434,-3.6265643121573676,913 324 009 / 667 368 293,ceam@grupocyae.com,/contenido/entidadesYorganismos/CentrosEscuelasTiempoLibre
18568,Escuela de Tiempo Libre Censa," Metro: Atocha (l�nea 1), Embajadores (l�nea 3) 
 Bus: 27, 34, 36, 41, 119 ",,0,http://www.madrid.es/vgn-ext-templating/v/index.jsp?vgnextchannel=9e4c43db40317010VgnVCM100000dc0ca8c0RCRD&vgnextoid=757f059cb751c010VgnVCM2000000c205a0aRCRD,MARQUES DE LA VALDAVIA,CALLE,V,2,MADRID,MADRID,28012,PALOS DE MOGUER,ARGANZUELA,441046,4473297,40.406321835178936,-3.6960712522158685,915 306 284,censa@escuela-censa.com,/contenido/entidadesYorganismos/CentrosEscuelasTiempoLibre
190387,Escuela de Tiempo Libre Ceyfe - La Salle, Bus: 161 ,,0,http://www.madrid.es/vgn-ext-templating/v/index.jsp?vgnextchannel=9e4c43db40317010VgnVCM100000dc0ca8c0RCRD&vgnextoid=6a7cb8c8a659f010VgnVCM1000000b205a0aRCRD,LA SALLE,CALLE,V,8,MADRID,MADRID,28023,VALDEMARIN,MONCLOA-ARAVACA,433908,4479996,40.466140344839694,-3.7808852245278297,917 401 980,ceyfe@lasallecampus.es,/contenido/entidadesYorganismos/CentrosEscuelasTiempoLibre
7727834,Escuela de Tiempo Libre Cruz Roja de la Juventud," Bus: 108, 118 ",,0,http://www.madrid.es/vgn-ext-templating/v/index.jsp?vgnextchannel=9e4c43db40317010VgnVCM100000dc0ca8c0RCRD&vgnextoid=bbf4532cd19a9410VgnVCM2000000c205a0aRCRD,MUGUET,CALLE,V,7,MADRID,MADRID,28044,BUENAVISTA,CARABANCHEL,436728,4469275,40.369772316245516,-3.746567528118317,913 308 817,escuela28@cruzroja.es,/contenido/entidadesYorganismos/CentrosEscuelasTiempoLibre
7727776,Escuela de Tiempo Libre Dinama," Metro: Plaza de Espa�a (L�neas 10 y 3) 
 Bus: 1, 2, 3, 44, 46, 75, 133, 148 ",,0,http://www.madrid.es/vgn-ext-templating/v/index.jsp?vgnextchannel=9e4c43db40317010VgnVCM100000dc0ca8c0RCRD&vgnextoid=1fba532cd19a9410VgnVCM2000000c205a0aRCRD,GRAN VIA,CALLE,V,73,MADRID,MADRID,28013,PALACIO,CENTRO,439814,4475170,40.42310629505825,-3.710778923102202,915 914 954,areatecnica@dinama.org,/contenido/entidadesYorganismos/CentrosEscuelasTiempoLibre
29398,Escuela de Tiempo Libre Don Bosco," Metro: Francos Rodr�guez (l�nea 7) 
 Bus: 44, 64, 126, 127, 132 ",,0,http://www.madrid.es/vgn-ext-templating/v/index.jsp?vgnextchannel=9e4c43db40317010VgnVCM100000dc0ca8c0RCRD&vgnextoid=9a9f059cb751c010VgnVCM2000000c205a0aRCRD,MARIA AUXILIADORA,CALLE,V,9,MADRID,MADRID,28040,CIUDAD UNIVERSITARIA,MONCLOA-ARAVACA,439451,4479023,40.457789320837215,-3.715425578651158,914 500 472,tiempolibre@cesdonbosco.com,/contenido/entidadesYorganismos/CentrosEscuelasTiempoLibre
18583,Escuela de Tiempo Libre Ealyr," Metro: Moncloa 
 Bus: 1 , 16 , 44 , 46 , 61 , 162 ",,0,http://www.madrid.es/vgn-ext-templating/v/index.jsp?vgnextchannel=9e4c43db40317010VgnVCM100000dc0ca8c0RCRD&vgnextoid=2daf059cb751c010VgnVCM2000000c205a0aRCRD,CAMINO DE LOS VINATEROS,CALLE,V,108,MADRID,MADRID,28030,MARROQUINA,MORATALAZ,445216,4473475,40.408210696498614,-3.646957050384044,619 405 953,escuelaealyr@gmail.com,/contenido/entidadesYorganismos/CentrosEscuelasTiempoLibre
190236,Escuela de Tiempo Libre Educadores de Vallecas, Bus: 310  ,,0,http://www.madrid.es/vgn-ext-templating/v/index.jsp?vgnextchannel=9e4c43db40317010VgnVCM100000dc0ca8c0RCRD&vgnextoid=8302f5177659f010VgnVCM2000000c205a0aRCRD,JAVIER DE MIGUEL,CALLE,V,92,MADRID,MADRID,28018,PALOMERAS BAJAS,PUENTE DE VALLECAS,444377,4470964,40.38553437820643,-3.6566247401373877,917 788 653,educadores.vallecas@asociaciones.org,/contenido/entidadesYorganismos/CentrosEscuelasTiempoLibre
18584,Escuela de Tiempo Libre Eduma," Metro: Lista (l�nea 4) 
 Bus: 1, 26, 61, 74 ",,0,http://www.madrid.es/vgn-ext-templating/v/index.jsp?vgnextchannel=9e4c43db40317010VgnVCM100000dc0ca8c0RCRD&vgnextoid=bfbf059cb751c010VgnVCM2000000c205a0aRCRD,ALCANTARA,CALLE,V,34,MADRID,MADRID,28006,LISTA,SALAMANCA,442968,4475808,40.42907631530194,-3.673658910456142,"914 012 502       
914 023 053",info@eduma.com,/contenido/entidadesYorganismos/CentrosEscuelasTiempoLibre
7727952,Escuela de Tiempo Libre El Desv�n," Bus: 136, 144, 310 ",,0,http://www.madrid.es/vgn-ext-templating/v/index.jsp?vgnextchannel=9e4c43db40317010VgnVCM100000dc0ca8c0RCRD&vgnextoid=be7de85fc39a9410VgnVCM2000000c205a0aRCRD,LA DILIGENCIA,CALLE,V,19,MADRID,MADRID,28018,PALOMERAS BAJAS,PUENTE DE VALLECAS,444630,4470711,40.383272084826984,-3.653622144690099,917 789 320,escuela@desvan.org,/contenido/entidadesYorganismos/CentrosEscuelasTiempoLibre
7727969,Escuela de Tiempo Libre Enfocamp," Metro: San Bernardo (l�neas 2 y 4) y Arg&uuml;elles (l�neas 3, 4 y 6) 
 Bus: 21 ",,0,http://www.madrid.es/vgn-ext-templating/v/index.jsp?vgnextchannel=9e4c43db40317010VgnVCM100000dc0ca8c0RCRD&vgnextoid=9420e85fc39a9410VgnVCM2000000c205a0aRCRD,ALBERTO AGUILERA,CALLE,V,26,MADRID,MADRID,28015,ARAPILES,CHAMBERI,439884,4475951,40.430146959472346,-3.710027795170064,915 943 776 / 655 446 185 (desde las 18 horas),etl@enfocamp.com,/contenido/entidadesYorganismos/CentrosEscuelasTiempoLibre
29408,Escuela de Tiempo Libre Escuni," Bus: 34, 35 ",,0,http://www.madrid.es/vgn-ext-templating/v/index.jsp?vgnextchannel=9e4c43db40317010VgnVCM100000dc0ca8c0RCRD&vgnextoid=d4ef059cb751c010VgnVCM2000000c205a0aRCRD,NUESTRA SE�ORA DE FATIMA,AVENIDA,V,102,MADRID,MADRID,28047,VISTA ALEGRE,CARABANCHEL,436539,4470225,40.378324958335284,-3.748888392258296,"914 651 700         
914 651 921",tiempolibre@escuni.com,/contenido/entidadesYorganismos/CentrosEscuelasTiempoLibre
190323,Escuela de Tiempo Libre Ideotur," Metro: Goya (l�neas 2 y 4) 
 Bus: 21, 43, 53, 146 ",,0,http://www.madrid.es/vgn-ext-templating/v/index.jsp?vgnextchannel=9e4c43db40317010VgnVCM100000dc0ca8c0RCRD&vgnextoid=210cb8c8a659f010VgnVCM1000000b205a0aRCRD,ALCALA,CALLE,V,104,MADRID,MADRID,28009,GOYA,SALAMANCA,442905,4475377,40.42518931716415,-3.6743628005576516,914 311 635,escuelaideotur@ideotur.com,/contenido/entidadesYorganismos/CentrosEscuelasTiempoLibre
4094,Escuela de Tiempo Libre Intercamp," Metro: Cuatro Caminos (l�neas 1, 2 y 6) 
 Bus: 3, 64, 66, 124, 128 ",,0,http://www.madrid.es/vgn-ext-templating/v/index.jsp?vgnextchannel=9e4c43db40317010VgnVCM100000dc0ca8c0RCRD&vgnextoid=c97da4ea6871c010VgnVCM1000000b205a0aRCRD,CUATRO CAMINOS,GLORIETA,V,6,MADRID,MADRID,28020,CUATRO CAMINOS,TETUAN,440444,4477857,40.44736647802746,-3.703593496611053,915 540 945,escuela@intercamp.org,/contenido/entidadesYorganismos/CentrosEscuelasTiempoLibre
7727944,Escuela de Tiempo Libre Isadia," Bus: 172, 176 ",,0,http://www.madrid.es/vgn-ext-templating/v/index.jsp?vgnextchannel=9e4c43db40317010VgnVCM100000dc0ca8c0RCRD&vgnextoid=1efbe85fc39a9410VgnVCM2000000c205a0aRCRD,SIERRA DE ATAPUERCA,CALLE,V,6,MADRID,MADRID,28050,VALVERDE,FUENCARRAL-EL PARDO,443109,4483742,40.500559075674154,-3.672709438638501,912 438 833,info@isadia-aventura.com,/contenido/entidadesYorganismos/CentrosEscuelasTiempoLibre
5901083,Escuela de Tiempo Libre Je�maros," Metro:  Alvarado (l�nea 1), Cuatro Caminos (l�neas 1, 2 y 6) 
 Bus:  3, 64, 66, 124, 128 ",,0,http://www.madrid.es/vgn-ext-templating/v/index.jsp?vgnextchannel=9e4c43db40317010VgnVCM100000dc0ca8c0RCRD&vgnextoid=70afcce8aa30d210VgnVCM2000000c205a0aRCRD,ALMANSA,CALLE,V,15,MADRID,MADRID,28039,BELLAS VISTAS,TETUAN,440326,4478004,40.448673158064935,-3.7050104350535573,,,/contenido/entidadesYorganismos/CentrosEscuelasTiempoLibre
18578,Escuela de Tiempo Libre Jumavi," Metro: Alonos Cano (l�nea 7) 
 Bus: 5, 12  ",,0,http://www.madrid.es/vgn-ext-templating/v/index.jsp?vgnextchannel=9e4c43db40317010VgnVCM100000dc0ca8c0RCRD&vgnextoid=f900059cb751c010VgnVCM2000000c205a0aRCRD,JOSE ABASCAL,CALLE,V,30,MADRID,MADRID,28003,ALMAGRO,CHAMBERI,440989,4476825,40.43809962152969,-3.697082746930604,914 453 522,jumavimadrid@hotmail.com,/contenido/entidadesYorganismos/CentrosEscuelasTiempoLibre
5901363,Escuela de Tiempo Libre Magni," Metro: Alto del Arenal (l�nea 1) 
 Bus:  58, 103, 136, 143 ",,0,http://www.madrid.es/vgn-ext-templating/v/index.jsp?vgnextchannel=9e4c43db40317010VgnVCM100000dc0ca8c0RCRD&vgnextoid=9cbc49cbec30d210VgnVCM2000000c205a0aRCRD,RAMIREZ TOME,CALLE,V,2,MADRID,MADRID,28038,PORTAZGO,PUENTE DE VALLECAS,444927,4471444,40.38989512548262,-3.6501868309509,910 171 434 - 620 296 413,hola@magni.es,/contenido/entidadesYorganismos/CentrosEscuelasTiempoLibre
7592895,Escuela de Tiempo Libre Maravillas La Salle," Metro: Nuevos Ministerios (l�neas 6, 8 y 10) 
 Bus: 7, 14, 51 ",,0,http://www.madrid.es/vgn-ext-templating/v/index.jsp?vgnextchannel=9e4c43db40317010VgnVCM100000dc0ca8c0RCRD&vgnextoid=5bdaa4e828c67410VgnVCM1000000b205a0aRCRD,GUADALQUIVIR,CALLE,V,9,MADRID,MADRID,28002,EL VISO,CHAMARTIN,441830,4477781,40.446771076569846,-3.6872550860633133,917 823 500 - 915 617 261,tiempolibre@lasallemaravillas.com,/contenido/entidadesYorganismos/CentrosEscuelasTiempoLibre
190292,Escuela de Tiempo Libre M�stil," Metro: Almendrales (l�nea 3) 
 Bus: 78 ",,0,http://www.madrid.es/vgn-ext-templating/v/index.jsp?vgnextchannel=9e4c43db40317010VgnVCM100000dc0ca8c0RCRD&vgnextoid=129cb8c8a659f010VgnVCM1000000b205a0aRCRD,CRISTO DE LEPANTO,CALLE,V,9,MADRID,MADRID,28026,ALMENDRALES,USERA,440596,4470460,40.38073256709505,-3.70112088802071,658 983 852,info@escuelamastil.com,/contenido/entidadesYorganismos/CentrosEscuelasTiempoLibre
6337113,Escuela de Tiempo Libre Mirabilia," Metro: Callao (l�neas 3 y 5) 
 Bus: 1, 2, 46, 74, 146, 202 ",,0,http://www.madrid.es/vgn-ext-templating/v/index.jsp?vgnextchannel=9e4c43db40317010VgnVCM100000dc0ca8c0RCRD&vgnextoid=9660bca7f4ec5310VgnVCM2000000c205a0aRCRD,GRAN VIA,CALLE,V,46,MADRID,MADRID,28013,UNIVERSIDAD,CENTRO,440226,4474875,40.42047855457809,-3.7058947722301565,915 224 902,escuelamirabilia@gmail.com,/contenido/entidadesYorganismos/CentrosEscuelasTiempoLibre
23510,Escuela de Tiempo Libre Nuestra Se�ora del Recuerdo," Metro: Duque de Pastrana (l�nea 9) 
 Bus: 14 , 70 , 107 , 129 , 174 ",,0,http://www.madrid.es/vgn-ext-templating/v/index.jsp?vgnextchannel=9e4c43db40317010VgnVCM100000dc0ca8c0RCRD&vgnextoid=1cae7d448b51c010VgnVCM2000000c205a0aRCRD,DUQUE DE PASTRANA,PLAZA,V,5,MADRID,MADRID,28036,CASTILLA,CHAMARTIN,442663,4480194,40.46856646277293,-3.677651132076904,913 022 640,recuerdo@recuerdo.net,/contenido/entidadesYorganismos/CentrosEscuelasTiempoLibre
190305,Escuela de Tiempo Libre Padre Carlos," Metro: Barrio de la Concepci�n (l�nea 7), El Carmen (l�nea 5) 
 Bus: 21, 48, 146 ",,0,http://www.madrid.es/vgn-ext-templating/v/index.jsp?vgnextchannel=9e4c43db40317010VgnVCM100000dc0ca8c0RCRD&vgnextoid=39acb8c8a659f010VgnVCM1000000b205a0aRCRD,VIRGEN DEL VAL,CALLE,V,1,MADRID,MADRID,28027,CONCEPCION,CIUDAD LINEAL,444537,4476561,40.43591185786877,-3.6552517011044183,914 041 786,etl@casavirgen.org,/contenido/entidadesYorganismos/CentrosEscuelasTiempoLibre
6336969,Escuela de Tiempo Libre Pandora," Metro:  Lavapi�s (linea 3) 
 Bus: 27, 41, 60, 148 ",,0,http://www.madrid.es/vgn-ext-templating/v/index.jsp?vgnextchannel=9e4c43db40317010VgnVCM100000dc0ca8c0RCRD&vgnextoid=300e65c5b1ec5310VgnVCM2000000c205a0aRCRD,EMBAJADORES,CALLE,V,37,MADRID,MADRID,28012,EMBAJADORES,CENTRO,440347,4473507,40.40816366151612,-3.704340049051228,669 541 334,info@kreactiva.net,/contenido/entidadesYorganismos/CentrosEscuelasTiempoLibre
190388,Escuela de Tiempo Libre Pe�as Blancas," Metro: Puerta del Angel (l�nea 6) 
 Bus: 31, 33, 36, 39, 65 ",,0,http://www.madrid.es/vgn-ext-templating/v/index.jsp?vgnextchannel=9e4c43db40317010VgnVCM100000dc0ca8c0RCRD&vgnextoid=dfbcb8c8a659f010VgnVCM1000000b205a0aRCRD,PORTUGAL,AVENIDA,V,99,MADRID,MADRID,28011,PUERTA DEL ANGEL,LATINA,437971,4474086,40.41320557587259,-3.732396941631139,917 010 131,escuela@penasblancas.net,/contenido/entidadesYorganismos/CentrosEscuelasTiempoLibre
190358,Escuela de Tiempo Libre Rastros," Metro: Guzm�n el Bueno (l�neas 6 y 7) 
 Bus: 2, 45, 202 ",,0,http://www.madrid.es/vgn-ext-templating/v/index.jsp?vgnextchannel=9e4c43db40317010VgnVCM100000dc0ca8c0RCRD&vgnextoid=47dcb8c8a659f010VgnVCM1000000b205a0aRCRD,CONDE DE LA CIMERA,CALLE,V,6,MADRID,MADRID,28040,CIUDAD UNIVERSITARIA,MONCLOA-ARAVACA,439452,4477815,40.44690725504787,-3.7152983835182987,915 349 985 ,info@escuelarastros.com,/contenido/entidadesYorganismos/CentrosEscuelasTiempoLibre
18572,Escuela de Tiempo Libre Scouts de Madrid M.S.C.," Metro: Atocha (l�nea 1) 
 Bus: 6, 26, 32 ",,0,http://www.madrid.es/vgn-ext-templating/v/index.jsp?vgnextchannel=9e4c43db40317010VgnVCM100000dc0ca8c0RCRD&vgnextoid=5970059cb751c010VgnVCM2000000c205a0aRCRD,ATOCHA,CALLE,V,115,MADRID,MADRID,28012,CORTES,CENTRO,441179,4473736,40.41029500119783,-3.694544671847443,"914 294 321        
",formacion@scoutsdemadrid.org,/contenido/entidadesYorganismos/CentrosEscuelasTiempoLibre
5900366,Escuela de Tiempo Libre Shema," Metro: Marqu�s de Vadillo (l�nea 5) 
 Bus: 34, 35, 118, 119 ",,0,http://www.madrid.es/vgn-ext-templating/v/index.jsp?vgnextchannel=9e4c43db40317010VgnVCM100000dc0ca8c0RCRD&vgnextoid=41a57b86c030d210VgnVCM2000000c205a0aRCRD,GENERAL RICARDOS,CALLE,V,21,MADRID,MADRID,28019,OPA�EL,CARABANCHEL,439182,4472208,40.39637721346998,-3.717944871579785,666 150 395,escuelashema@yahoo.es,/contenido/entidadesYorganismos/CentrosEscuelasTiempoLibre
5901381,Escuela de Tiempo Libre Ymca, Bus:  108 ,,0,http://www.madrid.es/vgn-ext-templating/v/index.jsp?vgnextchannel=9e4c43db40317010VgnVCM100000dc0ca8c0RCRD&vgnextoid=776049cbec30d210VgnVCM2000000c205a0aRCRD,ALBA DE TORMES,CALLE,V,10,MADRID,MADRID,28025,PUERTA BONITA,CARABANCHEL,436966,4470168,40.37783493210303,-3.743852841171442,915 251 676,eatl@ymca.es,/contenido/entidadesYorganismos/CentrosEscuelasTiempoLibre
4933091,Escuela de Tiempo Libre Zape," Metro: Vista Alegre (l�nea 5) 
 Bus: 55 ",,0,http://www.madrid.es/vgn-ext-templating/v/index.jsp?vgnextchannel=9e4c43db40317010VgnVCM100000dc0ca8c0RCRD&vgnextoid=6eacb1da53d5a110VgnVCM1000000b205a0aRCRD,OCA,CALLE,V,25,MADRID,MADRID,28025,VISTA ALEGRE,CARABANCHEL,437699,4471475,40.38966420741883,-3.735346614198339,667 368 588 / 675 248 459,escuelazape@gmail.com,/contenido/entidadesYorganismos/CentrosEscuelasTiempoLibre
6825,Escuela Diplom�tica," Metro: Metropolitano (l�nea 6)  Bus: F, C, 44 ",,0,http://www.madrid.es/vgn-ext-templating/v/index.jsp?vgnextchannel=9e4c43db40317010VgnVCM100000dc0ca8c0RCRD&vgnextoid=ee9da4ea6871c010VgnVCM1000000b205a0aRCRD,JUAN XXIII,PASEO,V,5,MADRID,MADRID,28040,CIUDAD UNIVERSITARIA,MONCLOA-ARAVACA,439138,4477729,40.44610956296358,-3.718992639461322,913 796 935,escuela.diplomatica@maec.es,/contenido/entidadesYorganismos/CentrosEnse�anzaEspecializada
52926,Escuela Internacional de Negocios Aliter," Metro: Nuevos Ministerios (l�neas 6, 8, 10), Rep�blica Argentina (l�nea 6)  Bus: 7, 14, 16, 19, 27, 40, 51, 126, 147, 150, C 1, C 2, L 6, L 8 ",  Titulaciones     MBA en Direcci�n de Empresas Vitivin�colas   Master en Biotecnolog�a   Master en Direcci�n de Empresas de Biotecnolog�a   Master en Innovaci�n Disruptiva   Master en Nanotecnolog�a   Master en Relaciones Internacionales y Comercio Exterior   Master en Biotecnolog�a. Modalidad Online   Master en Redes Sociales  Master en Relaciones Internacionales y Comercio Exterior. Modalidad Online   ,0,http://www.madrid.es/vgn-ext-templating/v/index.jsp?vgnextchannel=9e4c43db40317010VgnVCM100000dc0ca8c0RCRD&vgnextoid=f26e7589f451c010VgnVCM1000000b205a0aRCRD,MAESTRO RIPOLL,CALLE,V,18,MADRID,MADRID,28006,EL VISO,CHAMARTIN,441701,4477460,40.443870379248374,-3.688734879039249,"915 614 880   
",aliter@aliter.org,/contenido/entidadesYorganismos/CentrosEnse�anzaEspecializada
122341,Escuela Internacional de Negocios Cerem," Metro: Sevilla (l�nea 2)  Bus: 10, 14, 27, 34, 37, 45 ",,0,http://www.madrid.es/vgn-ext-templating/v/index.jsp?vgnextchannel=9e4c43db40317010VgnVCM100000dc0ca8c0RCRD&vgnextoid=49168899fc81c010VgnVCM1000000b205a0aRCRD,CEDACEROS,CALLE,V,11,MADRID,MADRID,28014,CORTES,CENTRO,440867,4474469,40.41687607562783,-3.69828987990395,"914 292 212 / 615 409 419  
",info@cerem.es,/contenido/entidadesYorganismos/CentrosEnse�anzaEspecializada
81780,Escuela municipal de arte dram�tico," Metro: Bilbao , Alonso Mart�nez , Tribunal Bus: 3 , 21 , 37 , 40 , 147 , 149 ","  ENSE�ANZA  
 
 Nivel Superior (3 cursos): Interpretaci�n - Voz - Expresi�n corporal - An�lisis de texto teatral - Teatro cl�sico espa�ol - Ortofon�a y dicci�n - Voz y Canto - Expresi�n corporal II - An�lisis de texto teatral II. 
 Formaci�n teatral b�sica (junior, senior y adulto): Interpretaci�n - Voz - Expresi�n corporal. 
 Grupos para ni�os (alev�n e infantil): Iniciaci�n al teatro - Juego esc�nico. 
 
  REQUISITOS DE EDAD  
 
 Nivel Superior y Senior: de 15 a�os en adelante. 
 Junior: de 12 a 14 a�os. 
 Infantil: de 9 a 11 a�os. 
 Alev�n: de 6 a 8 a�os. 
 
 M�s informaci�n en: 
  Escuela municipal de arte dram�tico  ",0,http://www.madrid.es/vgn-ext-templating/v/index.jsp?vgnextchannel=9e4c43db40317010VgnVCM100000dc0ca8c0RCRD&vgnextoid=5b184291ae91f010VgnVCM2000000c205a0aRCRD,MEJIA LEQUERICA,CALLE,V,21,MADRID,MADRID,28004,JUSTICIA,CENTRO,440775,4475710,40.4280399538175,-3.699501702258276,91 594 49 98,artedramatico@madrid.es,/contenido/entidadesYorganismos/CentrosEnse�anzasArtisticas/ConservatoriosEscuelasMusicaDanza
4569173,Escuela municipal de m�sica Almudena Cano (Arganzuela),"METRO: Atocha BUS: 19, 27, 34, 45, 47, 55, 247 ","   Caracter�sticas de la escuela   La capacidad m�xima es de 440 plazas.  Cuenta con 10 aulas, de las que 3 se dedican a asignaturas te�ricas y 7 a instrumentales.  Tiene, asimismo, un Sal�n de Actos con capacidad para, aproximadamente, 150  personas.    Asignaturas  Ver en documentaci�n asociada las asignaturas que se imparten.  ",0,http://www.madrid.es/vgn-ext-templating/v/index.jsp?vgnextchannel=9e4c43db40317010VgnVCM100000dc0ca8c0RCRD&vgnextoid=0e943e9343652110VgnVCM1000000b205a0aRCRD,TORTOSA,PASAJE,V,4,MADRID,MADRID,28045,PALOS DE MOGUER,ARGANZUELA,441348,4473231,40.40574857350412,-3.6925180494110386,"915 062 722                   
(de 17 a 20 horas)",emarganzuela@madrid.es,/contenido/entidadesYorganismos/CentrosEnse�anzasArtisticas/ConservatoriosEscuelasMusicaDanza
6698,Escuela municipal de m�sica Antonio Machado (San Blas-Canillejas)," Bus: 4 , 106, 140   Metro: Alsacia ",,0,http://www.madrid.es/vgn-ext-templating/v/index.jsp?vgnextchannel=9e4c43db40317010VgnVCM100000dc0ca8c0RCRD&vgnextoid=3fefa4ea6871c010VgnVCM1000000b205a0aRCRD,SAN ROMAN DEL VALLE,CALLE,V,8,MADRID,MADRID,28037,ARCOS,SAN BLAS-CANILLEJAS,447365,4474799,40.42027705095574,-3.621741078700336,"917 757 472                     
(de 17 a 20 horas)",emamachado@madrid.es,/contenido/entidadesYorganismos/CentrosEnse�anzasArtisticas/ConservatoriosEscuelasMusicaDanza
4953904,Escuela municipal de m�sica Isaac Alb�niz (Carabanchel)," Metro: La Peseta Bus: 35, 47 ",,0,http://www.madrid.es/vgn-ext-templating/v/index.jsp?vgnextchannel=9e4c43db40317010VgnVCM100000dc0ca8c0RCRD&vgnextoid=c048bfcfa63ea110VgnVCM2000000c205a0aRCRD,LONJA DE LA SEDA,CALLE,V,4,MADRID,MADRID,28054,BUENAVISTA,CARABANCHEL,435979,4468864,40.366012559408354,-3.7553478337291613,"915 117 273              
(de 17 a 20 horas)",emisaacalbeniz@madrid.es,/contenido/entidadesYorganismos/CentrosEnse�anzasArtisticas/ConservatoriosEscuelasMusicaDanza
141421,Escuela municipal de m�sica Manuel V�zquez Montalb�n (Tetu�n),"Metro: Francos Rodr�guez Bus: 44 , 64 , 126, 127 , 128 , 132",,0,http://www.madrid.es/vgn-ext-templating/v/index.jsp?vgnextchannel=9e4c43db40317010VgnVCM100000dc0ca8c0RCRD&vgnextoid=ff34ba61e681c010VgnVCM1000000b205a0aRCRD,FRANCOS RODRIGUEZ,CALLE,V,67,MADRID,MADRID,28039,BELLAS VISTAS,TETUAN,439865,4478987,40.45749513485957,-3.710539712535917,"913 118 748                  
(de 17 a 20 horas)",emmvmontalban@madrid.es,/contenido/entidadesYorganismos/CentrosEnse�anzasArtisticas/ConservatoriosEscuelasMusicaDanza
4953973,Escuela municipal de m�sica y danza Pl�cido Domingo (Retiro)," Metro: Pac�fico Bus: 24, 37, 54, 57, 141 ",,0,http://www.madrid.es/vgn-ext-templating/v/index.jsp?vgnextchannel=9e4c43db40317010VgnVCM100000dc0ca8c0RCRD&vgnextoid=c833bfcfa63ea110VgnVCM2000000c205a0aRCRD,TELLEZ,CALLE,V,31,MADRID,MADRID,28007,PACIFICO,RETIRO,442527,4472728,40.401299659267984,-3.678578804960757,"914 338 558              
(de 17 a 20 horas)",emplacidodomingo@madrid.es,/contenido/entidadesYorganismos/CentrosEnse�anzasArtisticas/ConservatoriosEscuelasMusicaDanza
6031698,Escuela municipal de m�sica  El Capricho (Barajas)," BUS: 101 , 105, 151  METRO: El Capricho ",,0,http://www.madrid.es/vgn-ext-templating/v/index.jsp?vgnextchannel=9e4c43db40317010VgnVCM100000dc0ca8c0RCRD&vgnextoid=3e524bc86474f210VgnVCM1000000b205a0aRCRD,JOAQUIN IBARRA,CALLE,NUM,28,MADRID,MADRID,28042,ALAMEDA DE OSUNA,BARAJAS,449724,4478889,40.4572685449013,-3.594259736681548,"917 420 634        
(de 17 a 20 horas)",emcapricho@madrid.es,/contenido/entidadesYorganismos/CentrosEnse�anzasArtisticas/ConservatoriosEscuelasMusicaDanza
125019,Escuela municipal de m�sica Carmelo Alonso Bernaola (Fuencarral-El Pardo)," Metro: Bego�a  Bus: 66 , 124 ,137  ",,0,http://www.madrid.es/vgn-ext-templating/v/index.jsp?vgnextchannel=9e4c43db40317010VgnVCM100000dc0ca8c0RCRD&vgnextoid=9f368899fc81c010VgnVCM1000000b205a0aRCRD,SOTO PALACIOS,AVENIDA,V,7,MADRID,MADRID,28034,VALVERDE,FUENCARRAL-EL PARDO,442097,4482432,40.48876867947374,-3.6845918447368597,"913 340 931                 
(de 17 a 20 horas)",embernaola@madrid.es,/contenido/entidadesYorganismos/CentrosEnse�anzasArtisticas/ConservatoriosEscuelasMusicaDanza
190712,Escuela municipal de m�sica de Vic�lvaro,"Metro: Valdebernardo Bus: 8 , 71 , 130",,0,http://www.madrid.es/vgn-ext-templating/v/index.jsp?vgnextchannel=9e4c43db40317010VgnVCM100000dc0ca8c0RCRD&vgnextoid=fa838300a3a30110VgnVCM1000000b205a0aRCRD,INDALECIO PRIETO,BULEVAR,V,16,MADRID,MADRID,28032,CASCO H.VICALVARO,VICALVARO,447406,4472778,40.40207320657617,-3.621090403479105,"913 713 317                 
(de 17 a 20 horas)",emvicalvaro@madrid.es,/contenido/entidadesYorganismos/CentrosEnse�anzasArtisticas/ConservatoriosEscuelasMusicaDanza
6687,Escuela municipal de m�sica Federico Chueca (Hortaleza)," Metro: Pinar del Rey Bus: 73, 87 ",,0,http://www.madrid.es/vgn-ext-templating/v/index.jsp?vgnextchannel=9e4c43db40317010VgnVCM100000dc0ca8c0RCRD&vgnextoid=db30a4ea6871c010VgnVCM1000000b205a0aRCRD,BENITA AVILA,CALLE,V,23,MADRID,MADRID,28043,CANILLAS,HORTALEZA,444954,4479837,40.46550570624769,-3.650596897631368,"917 593 235                
(de 17 a 20 horas)",emfchueca@madrid.es,/contenido/entidadesYorganismos/CentrosEnse�anzasArtisticas/ConservatoriosEscuelasMusicaDanza
6683,Escuela municipal de m�sica Maestro Barbieri (Usera),"Bus: 6 , 60 , 78 , 81 , 116 , 121 , 131",,0,http://www.madrid.es/vgn-ext-templating/v/index.jsp?vgnextchannel=9e4c43db40317010VgnVCM100000dc0ca8c0RCRD&vgnextoid=2260a4ea6871c010VgnVCM1000000b205a0aRCRD,CESTONA,CALLE,V,3,MADRID,MADRID,28041,ORCASITAS,USERA,439532,4469578,40.372710384742504,-3.7135708871039514,"913 417 833                 
(de 17 a 20 horas)",emmbarbieri@madrid.es,/contenido/entidadesYorganismos/CentrosEnse�anzasArtisticas/ConservatoriosEscuelasMusicaDanza
6699,Escuela municipal de m�sica Nicol�s Salmer�n (Chamart�n),"Metro: Prosperidad Bus: 9 , 73",,0,http://www.madrid.es/vgn-ext-templating/v/index.jsp?vgnextchannel=9e4c43db40317010VgnVCM100000dc0ca8c0RCRD&vgnextoid=7880a4ea6871c010VgnVCM1000000b205a0aRCRD,MANTUANO,CALLE,V,51,MADRID,MADRID,28002,CIUDAD JARDIN,CHAMARTIN,442766,4477922,40.44810636195716,-3.6762309620097398,"915 152 351                  
(de 17 a 20 horas)",emnsalmeron@madrid.es,/contenido/entidadesYorganismos/CentrosEnse�anzasArtisticas/ConservatoriosEscuelasMusicaDanza
80435,Escuela municipal de m�sica Villa de Vallecas,"Metro: Villa de Vallecas Bus: 54 , 58 , 63, 103 , 142",,0,http://www.madrid.es/vgn-ext-templating/v/index.jsp?vgnextchannel=9e4c43db40317010VgnVCM100000dc0ca8c0RCRD&vgnextoid=00ee8ed67151c010VgnVCM2000000c205a0aRCRD,AGUSTIN GARCIA MALLA,CALLE,V,4,MADRID,MADRID,28031,SANTA EUGENIA,VILLA DE VALLECAS,447792,4470545,40.38198119326615,-3.616358398702118,"913 328 731                    
(de 17 a 20 horas)",emvivallecas@madrid.es,/contenido/entidadesYorganismos/CentrosEnse�anzasArtisticas/ConservatoriosEscuelasMusicaDanza
6685,Escuela municipal de m�sica �gata (Villaverde),"Bus: 86 , 22 , 79 , 130 , 131",,0,http://www.madrid.es/vgn-ext-templating/v/index.jsp?vgnextchannel=9e4c43db40317010VgnVCM100000dc0ca8c0RCRD&vgnextoid=e8cfa4ea6871c010VgnVCM1000000b205a0aRCRD,DOCTOR MARTIN AREVALO,CALLE,V,2,MADRID,MADRID,28021,SAN ANDRES,VILLAVERDE,439937,4466650,40.34636268334182,-3.708524395897377,"917 981 051                   
(de 17 a 20 horas)",emagata@madrid.es,/contenido/entidadesYorganismos/CentrosEnse�anzasArtisticas/ConservatoriosEscuelasMusicaDanza
24408,Escuela Musical Marisa," Metro: Manuel Becerra (l�neas 2, 6)  Bus: 2, 12, 21, 43, 53, 56, 71, 106, 143, 146 ",  Ense�anza art�stica grado elemental:     Piano  Viol�n  Viola  Violoncello  Flauta travesera   Saxof�n  Guitarra    Modalidad:  presencial   Adscrito al  Conservatorio Profesional �ngel Arias Mace�n ,0,http://www.madrid.es/vgn-ext-templating/v/index.jsp?vgnextchannel=9e4c43db40317010VgnVCM100000dc0ca8c0RCRD&vgnextoid=64fd7d448b51c010VgnVCM2000000c205a0aRCRD,ALCALA,CALLE,V,126,MADRID,MADRID,28009,GOYA,SALAMANCA,443138,4475522,40.42651154039366,-3.671629245735095,914 017 281 / 630 875 511,,/contenido/entidadesYorganismos/CentrosEnse�anzasArtisticas/ConservatoriosEscuelasMusicaDanza
6616,Escuela Oficial de Idiomas de Madrid - Carabanchel," Metro: Opa�el (l�nea 6), Oporto (l�neas 5, 6)  Bus: 118 ","  Ense�anzas autorizadas:  ciclos b�sico, intermedio y avanzado de alem�n, franc�s, ingl�s, italiano, espa�ol para extranjeros ( turnos de ma�ana y tarde ) y  That's English a distancia.  ",0,http://www.madrid.es/vgn-ext-templating/v/index.jsp?vgnextchannel=9e4c43db40317010VgnVCM100000dc0ca8c0RCRD&vgnextoid=82c0a4ea6871c010VgnVCM1000000b205a0aRCRD,PORTALEGRE,CALLE,V,52,MADRID,MADRID,28019,OPA�EL,CARABANCHEL,438607,4471319,40.38832642007782,-3.7246340187667677,914 695 812,eoi.carabanchel.madrid@educa.madrid.org,/contenido/entidadesYorganismos/CentrosEnse�anzaIdiomas
6118469,Escuela Oficial de Idiomas de Madrid - Ciudad Lineal," Metro: Barrio de la Concepci�n (l�nea 7)  Bus: 11, 21, 48, 53, 122, 146, L7 ","  Ense�anzas autorizadas:  ciclos b�sico, intermedio y avanzado (tardes) de alem�n, franc�s, ingl�s y  That&acute;s English a distancia.    ",0,http://www.madrid.es/vgn-ext-templating/v/index.jsp?vgnextchannel=9e4c43db40317010VgnVCM100000dc0ca8c0RCRD&vgnextoid=738247f979fd0310VgnVCM2000000c205a0aRCRD,GENERAL KIRKPATRICK,CALLE,V,15,MADRID,MADRID,28027,SAN PASCUAL,CIUDAD LINEAL,444970,4477357,40.443165658309525,-3.650192791928499,913 264 800 / 913 263 943,eoi.ciudadlineal.madrid@educa.madrid.org,/contenido/entidadesYorganismos/CentrosEnse�anzaIdiomas
6662,Escuela Oficial de Idiomas de Madrid - Embajadores," Metro: Embajadores (l�nea 3)  Bus: 27, 34, 36, 41, 119  Renfe: Embajadores ","  Ense�anzas autorizadas:  ciclo b�sico, intermedio y avanzado de alem�n, franc�s, ingl�s, espa�ol para extranjeros (tardes). ",0,http://www.madrid.es/vgn-ext-templating/v/index.jsp?vgnextchannel=9e4c43db40317010VgnVCM100000dc0ca8c0RCRD&vgnextoid=a7e0a4ea6871c010VgnVCM1000000b205a0aRCRD,EMBAJADORES,CALLE,V,68,MADRID,MADRID,28012,EMBAJADORES,CENTRO,440399,4473293,40.406239576909144,-3.703707165043153,914 681 000,eoi.embajadores.madrid@educa.madrid.org,/contenido/entidadesYorganismos/CentrosEnse�anzaIdiomas
6663,Escuela Oficial de Idiomas de Madrid - Goya," Metro: Tribunal (l�neas 1, 10)  Bus: 3, 40, 149 ","  Ense�anzas autorizadas:  ciclo b�sico, alem�n, franc�s, ingl�s, italiano y espa�ol para extranjeros (tarde), nivel intermedio y avanzado de alem�n, franc�s, ingl�s e italiano, espa�ol para extranjeros (ma�ana y tarde), That&acute;s english a distancia. ",0,http://www.madrid.es/vgn-ext-templating/v/index.jsp?vgnextchannel=9e4c43db40317010VgnVCM100000dc0ca8c0RCRD&vgnextoid=3af0a4ea6871c010VgnVCM1000000b205a0aRCRD,SANTA BRIGIDA,CALLE,V,10,MADRID,MADRID,28004,JUSTICIA,CENTRO,440738,4475312,40.42445194531467,-3.699900698501113,915 213 286,eoi.goya.madrid@educa.madrid.org,/contenido/entidadesYorganismos/CentrosEnse�anzaIdiomas
6661,Escuela Oficial de Idiomas de Madrid - Moratalaz," Metro: Pavones (l�nea 9)  Bus: 8, 20, 30, 32, 71  ","  Ense�anzas autorizadas : ciclo b�sico, intermedioy avanzado (tarde) de alem�n, franc�s, ingl�s e italiano. ",0,http://www.madrid.es/vgn-ext-templating/v/index.jsp?vgnextchannel=9e4c43db40317010VgnVCM100000dc0ca8c0RCRD&vgnextoid=5f11a4ea6871c010VgnVCM1000000b205a0aRCRD,VALDEBERNARDO,CALLE,V,3,MADRID,MADRID,28030,PAVONES,MORATALAZ,446384,4472381,40.39843146459067,-3.63309996975464,913 711 749 ,eoi.moratalaz.madrid@educa.madrid.org,/contenido/entidadesYorganismos/CentrosEnse�anzaIdiomas
6617,Escuela Oficial de Idiomas de Madrid - San Blas," Metro: Simancas (l�nea 7), San Blas (l�nea 7).  Bus: 38 , 48 ","  Ense�anzas autorizadas:  ciclos b�sico, intermedio y avanzado (ma�ana y tardes) de alem�n, franc�s  e ingl�s. Programa That's English a distancia.     ",0,http://www.madrid.es/vgn-ext-templating/v/index.jsp?vgnextchannel=9e4c43db40317010VgnVCM100000dc0ca8c0RCRD&vgnextoid=e131a4ea6871c010VgnVCM1000000b205a0aRCRD,ARTIFICES,CALLE,V,0,MADRID,MADRID,28037,ARCOS,SAN BLAS-CANILLEJAS,447639,4475308,40.424879760074234,-3.6185534339595433,913 066 979 ,eoi.sanblas.madrid@educa.madrid.org,/contenido/entidadesYorganismos/CentrosEnse�anzaIdiomas
6618,Escuela Oficial de Idiomas de Madrid - Valdezarza," Bus: 137, 42, 127, 132 ","  Ense�anzas autorizadas:  nivel b�sico, intermedio y avanzado (tardes), alem�n, franc�s, ingl�s e italiano. Programa  That&acute;s English a distancia.  ",0,http://www.madrid.es/vgn-ext-templating/v/index.jsp?vgnextchannel=9e4c43db40317010VgnVCM100000dc0ca8c0RCRD&vgnextoid=7441a4ea6871c010VgnVCM1000000b205a0aRCRD,ISLA MALAITA,CALLE,V,2,MADRID,MADRID,28035,PE�A GRANDE,FUENCARRAL-EL PARDO,438906,4480729,40.473117622127866,-3.72201749768645,913 734 324,eoi.valdezarza.madrid@educa.madrid.org,/contenido/entidadesYorganismos/CentrosEnse�anzaIdiomas
6650,Escuela Oficial de Idiomas de Madrid - Villaverde," Bus: 78, 116  ","  Ense�anzas autorizadas:  ciclos b�sico, intermedio y avanzado (tarde) de alem�n, franc�s e ingl�s. Programa  That's English a distancia.      ",0,http://www.madrid.es/vgn-ext-templating/v/index.jsp?vgnextchannel=9e4c43db40317010VgnVCM100000dc0ca8c0RCRD&vgnextoid=0751a4ea6871c010VgnVCM1000000b205a0aRCRD,FERNANDO ORTIZ,CALLE,V,2,MADRID,MADRID,28041,ORCASUR,USERA,440442,4468965,40.367253786749025,-3.7027950597553976,913 175 000 (secretar�a),eoi.villaverde.madrid@educa.madrid.org,/contenido/entidadesYorganismos/CentrosEnse�anzaIdiomas
6114038,Escuela Oficial de Idiomas de Madrid. Jes�s Maestro," Metro: Islas Filipinas (l�nea 7), Guzm�n El Bueno (l�nea 6 y 7)  Bus: 12, 45  ","  Ense�anzas autorizadas:  ciclo b�sico, intermedio y avanzado de alem�n, �rabe, catal�n, chino, dan�s, euskera, fin�s, franc�s, gallego, griego, ingl�s, italiano, japon�s, neerland�s, portugu�s, rumano, ruso, sueco, irland�s, espa�ol para extranjeros, (ma�ana y tarde). Programa  That's English a distancia.  ",0,http://www.madrid.es/vgn-ext-templating/v/index.jsp?vgnextchannel=9e4c43db40317010VgnVCM100000dc0ca8c0RCRD&vgnextoid=38724d106f6b0310VgnVCM1000000b205a0aRCRD,JESUS MAESTRO,CALLE,V,5,MADRID,MADRID,28003,VALLEHERMOSO,CHAMBERI,439775,4477107,40.44055280261112,-3.711422497399746,915 335 802 / 915 335 803,eoi.jesusmaestro.madrid@educa.madrid.org,/contenido/entidadesYorganismos/CentrosEnse�anzaIdiomas
6843,Escuela Superior de Administraci�n  y Direcci�n de Empresas (ESADE)," Metro: Duque de Pastrana  (L�nea 9)  Bus: 14, 70, 107, 129, 174  ",,0,http://www.madrid.es/vgn-ext-templating/v/index.jsp?vgnextchannel=9e4c43db40317010VgnVCM100000dc0ca8c0RCRD&vgnextoid=1191a4ea6871c010VgnVCM1000000b205a0aRCRD,MATEO INURRIA,CALLE,V,27,MADRID,MADRID,28036,CASTILLA,CHAMARTIN,442275,4480084,40.467548612590704,-3.6822176885924094,913 597 714,esade.madrid@esade.edu,/contenido/entidadesYorganismos/CentrosEnse�anzaEspecializada
6673,Escuela Superior de Canto de Madrid," Metro: Noviciado (l�nea 2) , Plaza de Espa�a (l�neas 3, 10)   Bus: 1, 2, 3, 44, 46, 74, 75, 133, 138, 147, 148 ",  Art�sticas ( LOE )    M�sica y danza  M�sica ( LOE )  Ense�anzas Art�sticas Superiores ( LOE )  Interpretaci�n  Itinerario D  Canto   ,0,http://www.madrid.es/vgn-ext-templating/v/index.jsp?vgnextchannel=9e4c43db40317010VgnVCM100000dc0ca8c0RCRD&vgnextoid=06a1a4ea6871c010VgnVCM1000000b205a0aRCRD,SAN BERNARDO,CALLE,V,44,MADRID,MADRID,28015,UNIVERSIDAD,CENTRO,440110,4475320,40.424487969528016,-3.7073041287541724,915 328 533,es.canto.madrid@educa.madrid.org,/contenido/entidadesYorganismos/CentrosEnse�anzasArtisticas/ConservatoriosEscuelasMusicaDanza
6695,Escuela Superior de Conservaci�n y Restauraci�n de Bienes Culturales," Metro: Santo Domingo (l�nea 2)  Bus: 25, 39  ",  Ense�anzas autorizadas   (art�sticas)   Conservaci�n y restauraci�n de bienes culturales  Bienes arqueol�gicos  Escultura  Pintura  Documento gr�fico  ,0,http://www.madrid.es/vgn-ext-templating/v/index.jsp?vgnextchannel=9e4c43db40317010VgnVCM100000dc0ca8c0RCRD&vgnextoid=98b1a4ea6871c010VgnVCM1000000b205a0aRCRD,GUILLERMO ROLLAND,CALLE,V,2,MADRID,MADRID,28013,PALACIO,CENTRO,439833,4474846,40.42018900622769,-3.710512467151287,915 482 737,es.conservaciionyrestauracion.madrid@educa.madrid.org,/contenido/entidadesYorganismos/CentrosEnse�anzaEspecializada
22248,Escuela Superior de Direcci�n Empresarial ESEM,"Bus: 112, 122, 153","  Titulaciones:     Master en Gesti�n de Entidades Deportivas y Master en Coaching Deportivo  MBA en Direcci�n, Administraci�n y Gesti�n de Empresas (DAGE)  Master en Marketing y Gesti�n Comercial (MM)   Master en Coaching con certificaci�n Internacional por ICU y ICPC   Especializaci�n Superior en Marketing y Gesti�n Comercial  MBA Executive en Direcci�n de Empresas (EXE)  MBA en Direcci�n para la Industria Farmac�utica(FARMA)     Bachelor Management y Gesti�n de las Empresas OPEN  Bachelor Marketing Comercio y Negociaci�n   ",0,http://www.madrid.es/vgn-ext-templating/v/index.jsp?vgnextchannel=9e4c43db40317010VgnVCM100000dc0ca8c0RCRD&vgnextoid=71bf7d448b51c010VgnVCM2000000c205a0aRCRD,MADRO&Ntilde;OS,AVENIDA,V,55,MADRID,MADRID,28043,PIOVERA,HORTALEZA,446296,4478845,40.456666330247636,-3.6346723447678437,915 152 100,esem@esem.es,/contenido/entidadesYorganismos/CentrosEnse�anzaEspecializada
6677,Escuela Superior de Dise�o," Metro: Vinateros (l�nea 9)  Bus: 30 , 32 , 71  ",  Art�sticas ( LOGSE )    Artes Pl�sticas y Dise�o  Gr�fico  De Interiores  De Moda    Art�sticas ( LOE )    Dise�o  Superiores de Dise�o  Gr�fico  Producto  Interiores   Moda  ,0,http://www.madrid.es/vgn-ext-templating/v/index.jsp?vgnextchannel=9e4c43db40317010VgnVCM100000dc0ca8c0RCRD&vgnextoid=492ba4ea6871c010VgnVCM1000000b205a0aRCRD,CAMINO DE LOS VINATEROS,CALLE,V,106,MADRID,MADRID,28030,MARROQUINA,MORATALAZ,445069,4473568,40.40903878863365,-3.6486974680378665,,esd.madrid@educa.madrid.org,/contenido/entidadesYorganismos/Universidades/OtrosCentrosUniversitarios
39386,Escuela Universitaria de Artes y Espect�culos TAI," Metro: Col�n (l�nea 4), Serrano (l�nea 4)  Bus: 5, 14, 27, 45, 53, 150 ", Titulaciones:    Grados universitarios    Cinematograf�a y  TV   Fotograf�a  Artes Esc�nicas  Bellas Artes y Dise�o  Escenograf�a  M�sica    Estudios de postgrado  ,0,http://www.madrid.es/vgn-ext-templating/v/index.jsp?vgnextchannel=9e4c43db40317010VgnVCM100000dc0ca8c0RCRD&vgnextoid=857e7589f451c010VgnVCM1000000b205a0aRCRD,RECOLETOS,CALLE,V,22,MADRID,MADRID,28001,RECOLETOS,SALAMANCA,441655,4474959,40.42134596023188,-3.6890473408334046,914 472 055,informacion@escuela-tai.com,/contenido/entidadesYorganismos/CentrosEnse�anzasArtisticas
29971,ESERP Madrid," Metro: Colombia (l�neas 8, 9)  Bus: 7, 11, 16, 29, 51, 87, 150 "," Titulaciones    Grados:    Grado en Administraci�n y Direcci�n de empresas   Grado en marketing   Grado en Turismo   Grado en Criminolog�a     Titulaciones Superiores:    Direcci�n de Empresa   Direcci�n de Marketing   Empresa, marketing y RRPP  Turismo Internacional      Grado Universitario Bachelor:     Bachelor in Business Administration     Posgrado:  Masters, MBAs, Cursos Superiores Universitarios  ",0,http://www.madrid.es/vgn-ext-templating/v/index.jsp?vgnextchannel=9e4c43db40317010VgnVCM100000dc0ca8c0RCRD&vgnextoid=e902059cb751c010VgnVCM2000000c205a0aRCRD,COSTA RICA,CALLE,V,9,MADRID,MADRID,28016,NUEVA ESPA�A,CHAMARTIN,442883,4479100,40.45872640065032,-3.674957503179889,900 101 483 / 913 501 212 ,info@eserp.com,/contenido/entidadesYorganismos/CentrosEducacion/CentrosFormacionProfesionalPrivadosConcertados
4620440,Extensi�n Escuela Oficial de Idiomas de Madrid - Ciudad Lineal en Barajas,"Bus: 101, 105","  Ense�anzas autorizadas:  ciclo b�sico, intermedio y avanzado (tardes), de franc�s e ingl�s.   ",0,http://www.madrid.es/vgn-ext-templating/v/index.jsp?vgnextchannel=9e4c43db40317010VgnVCM100000dc0ca8c0RCRD&vgnextoid=f594cb42d3704110VgnVCM1000000b205a0aRCRD,ANTONIO SANCHA,CALLE,V,11,MADRID,MADRID,28042,ALAMEDA DE OSUNA,BARAJAS,450186,4479219,40.460269269312455,-3.5888370717050853,917 476 019,eoi.extciudadlineal-barajas.madrid@educa.madrid.org,/contenido/entidadesYorganismos/CentrosEnse�anzaIdiomas
4620845,Extensi�n Escuela Oficial de Idiomas de Madrid - Moratalaz en Puente de Vallecas,"Bus: 102, 103","  Ense�anzas autorizadas:  ciclos b�sico, intermedio y avanzado (tardes) de franc�s e ingl�s.   ",0,http://www.madrid.es/vgn-ext-templating/v/index.jsp?vgnextchannel=9e4c43db40317010VgnVCM100000dc0ca8c0RCRD&vgnextoid=cba45af5f1614110VgnVCM1000000b205a0aRCRD,SUR,RONDA,V,229,MADRID,MADRID,28053,ENTREVIAS,PUENTE DE VALLECAS,443615,4469619,40.37336648575158,-3.665482524950977,917 863 195,eoi.extmoratalaz-ptevallecas.madrid@educa.madrid.org,/contenido/entidadesYorganismos/CentrosEnse�anzaIdiomas
5726383,Extensi�n Escuela Oficial de Idiomas de Madrid - Villaverde en El Espinillo," Metro: Ciudad los Angeles (l�nea 3)  Bus: 22, 23, 59, 85, 86  ","  Ense�anzas autorizadas:  nivel b�sico, intermedio y avanzado (tardes) de franc�s e ingl�s. ",0,http://www.madrid.es/vgn-ext-templating/v/index.jsp?vgnextchannel=9e4c43db40317010VgnVCM100000dc0ca8c0RCRD&vgnextoid=0d397a9d2a549210VgnVCM2000000c205a0aRCRD,ALIANZA,CALLE,V,S/N,MADRID,MADRID,28041,LOS ROSALES,VILLAVERDE,441321,4467882,40.35755994620206,-3.6923427241919202,913 176 300,eoi.extvillaverde-elespinillo.madrid@educa.madrid.org,/contenido/entidadesYorganismos/CentrosEnse�anzaIdiomas
4810764,Fundaci�n Alb�niz. Escuela Superior de M�sica Reina Sof�a," Metro: �pera (Ramal Pr�ncipe P�o, l�neas 2, 5)  Bus: 25, 39  ",,0,http://www.madrid.es/vgn-ext-templating/v/index.jsp?vgnextchannel=9e4c43db40317010VgnVCM100000dc0ca8c0RCRD&vgnextoid=286da6eb4db38110VgnVCM1000000b205a0aRCRD,ORIENTE,PLAZA,V,S/N,MADRID,MADRID,28013,PALACIO,CENTRO,439736,4474563,40.417632509561116,-3.7116407088004757,915 230 419,fundaci�n@albeniz.com,/contenido/entidadesYorganismos/FundacionesCulturales
7597036,ICADE Business School," Metro: Arg&uuml;elles (l�neas 3, 4, 6), Ventura Rodr�guez (l�nea 3)  Bus: 1, 2, 44, 74, 133, C1, C2, M2 ",,0,http://www.madrid.es/vgn-ext-templating/v/index.jsp?vgnextchannel=9e4c43db40317010VgnVCM100000dc0ca8c0RCRD&vgnextoid=eabc83e8aa187410VgnVCM1000000b205a0aRCRD,REY FRANCISCO,CALLE,V,4,MADRID,MADRID,28008,ARGUELLES,MONCLOA-ARAVACA,439435,4475712,40.427961315077795,-3.7152980296448708,915 592 000,icadebschool@upcomillas.es,/contenido/entidadesYorganismos/CentrosEnse�anzaEspecializada
6839,IESE Business School,"Bus: 160, 161, I", Escuela de negocios ,0,http://www.madrid.es/vgn-ext-templating/v/index.jsp?vgnextchannel=9e4c43db40317010VgnVCM100000dc0ca8c0RCRD&vgnextoid=85813b54d771c010VgnVCM1000000b205a0aRCRD,CERRO DEL AGUILA,CAMINO,V,3,MADRID,MADRID,28023,ARAVACA,MONCLOA-ARAVACA,435837,4478378,40.45170738751218,-3.7579693594466446,912 113 000,,/contenido/entidadesYorganismos/CentrosEnse�anzaEspecializada
61612,Instituci�n Art�stica de Ense�anza (IADE)," Metro: Serrano (l�nea 4), Vel�zquez (l�nea 4).  Bus: 1, 5, 9, 14, 19, 21, 27, 45, 51, 53, 74, 150. ",  Titulaciones    Grado en Dise�o de interiores  Grado en Dise�o de modas  Diplomado en Dise�o de interiores  Diplomado en Dise�o de moda  ,0,http://www.madrid.es/vgn-ext-templating/v/index.jsp?vgnextchannel=9e4c43db40317010VgnVCM100000dc0ca8c0RCRD&vgnextoid=d4ed8ed67151c010VgnVCM2000000c205a0aRCRD,CLAUDIO COELLO,CALLE,V,48,MADRID,MADRID,28001,RECOLETOS,SALAMANCA,441902,4475604,40.42716467505727,-3.6862066802199003,915 771 728,iade@iade.es,/contenido/entidadesYorganismos/Universidades/OtrosCentrosUniversitarios
6652,Instituto Alem�n de Cultura Madrid (Goethe - Institut)," Metro: Alonso Mart�nez (l�neas 4, 5, 10) , Rub�n Dar�o (l�nea 5)  Bus: 3, 5, 7, 14, 21, 27, 37, 45, 53, 150 ",,1,http://www.madrid.es/vgn-ext-templating/v/index.jsp?vgnextchannel=9e4c43db40317010VgnVCM100000dc0ca8c0RCRD&vgnextoid=28bc42be9971c010VgnVCM1000000b205a0aRCRD,ZURBARAN,CALLE,V,21,MADRID,MADRID,28010,ALMAGRO,CHAMBERI,441459,4475873,40.429556911638464,-3.6914418206657453,913 913 966 (Secretar�a)  / 913 913 944 (Centralita),info@madrid.goethe.org,/contenido/entidadesYorganismos/CentrosEnse�anzaIdiomas
8192507,Instituto Cultural Rumano en Madrid," Metro: Banco de Espa�a (l�nea 2)  Bus: 10, 14, 27, 34, 37, 45 ",,0,http://www.madrid.es/vgn-ext-templating/v/index.jsp?vgnextchannel=9e4c43db40317010VgnVCM100000dc0ca8c0RCRD&vgnextoid=010f26c270caf410VgnVCM2000000c205a0aRCRD,LEALTAD,PLAZA,V,3,MADRID,MADRID,28014,LOS JERONIMOS,RETIRO,441390,4474367,40.41598519620823,-3.692127946334196,917 589 566 ,icrmadrid@icr.ro,/contenido/entidadesYorganismos/CentrosEnse�anzaIdiomas
90438,Instituto de Ciencias de Materiales de Madrid," Bus: 711 , 712 , 713 , 714 , 715 , 716 , 721 , 722 , 724 , 725 , 726 , 827 , 827-A   Renfe: Cantoblanco Universidad ",  �reas Cient�ficas:  ciencia y tecnolog�a de materiales    Unidades Asociadas:     Instituto magnetismo Ap Salvador Velayos  departamento de teconolog�as de superficies  centro de tecnolog�as f�sicas  grupos de teor�a materiales condensaci�n y qu�mica cu�ntica  grupo de matem�ticas aplicaci�n a la amteria condensada  laboratorio heteroestructuras con aplicaci�n en espintr�nica  laboratorio de bajas temperaturas y altos campos magn�ticos 2  ,0,http://www.madrid.es/vgn-ext-templating/v/index.jsp?vgnextchannel=9e4c43db40317010VgnVCM100000dc0ca8c0RCRD&vgnextoid=19205c2cdc41c010VgnVCM2000000c205a0aRCRD,SOR JUANA INES DE LA CRUZ,CALLE,V,3,MADRID,MADRID,28049,EL GOLOSO,FUENCARRAL-EL PARDO,441732,4488496,40.54329797261656,-3.6893979995539445,913 349 000,,/contenido/entidadesYorganismos/CentrosEnse�anzaEspecializada
7116901,Instituto de Empresa IE," Metro: Gregorio Mara��n (l�neas 7, 10)  Bus: 9, 16, 19, 51 ",,0,http://www.madrid.es/vgn-ext-templating/v/index.jsp?vgnextchannel=9e4c43db40317010VgnVCM100000dc0ca8c0RCRD&vgnextoid=f52e71ecde351410VgnVCM2000000c205a0aRCRD,MARIA DE MOLINA,CALLE,V,13,MADRID,MADRID,28006,EL VISO,CHAMARTIN,441815,4476806,40.43799578233919,-3.68734258019097,"915 689 600             
",info@ie.edu,/contenido/entidadesYorganismos/CentrosEnse�anzaEspecializada
6826,Instituto de Salud Carlos III. Centro Nacional de Epidemiolog�a,"Bus: 66, 173, 174, 176, 178",,0,http://www.madrid.es/vgn-ext-templating/v/index.jsp?vgnextchannel=9e4c43db40317010VgnVCM100000dc0ca8c0RCRD&vgnextoid=0b90a4ea6871c010VgnVCM1000000b205a0aRCRD,MONFORTE DE LEMOS,AVENIDA,V,5,MADRID,MADRID,28029,LA PAZ,FUENCARRAL-EL PARDO,441617,4480968,40.47546597881768,-3.6900603941123107,"918 222 000        
",,/contenido/entidadesYorganismos/AdministracionCentral/AgenciasOrganismosEmpresas
136647,Instituto del Cine de Madrid," Metro: Pr�ncipe P�o (l�neas 6, 10, R)  Renfe: Pr�ncipe P�o ",,0,http://www.madrid.es/vgn-ext-templating/v/index.jsp?vgnextchannel=9e4c43db40317010VgnVCM100000dc0ca8c0RCRD&vgnextoid=866d5f463b81c010VgnVCM1000000b205a0aRCRD,EDUARDO BENOT,CALLE,V,2,MADRID,MADRID,28008,ARGUELLES,MONCLOA-ARAVACA,439180,4475060,40.42206918086872,-3.7182415229276238,"914 478 040            
",info@institutodelcine.es,/contenido/entidadesYorganismos/CentrosEnse�anzaEspecializada
6646,Instituto Franc�s de Espa�a en Madrid," Metro: Col�n (l�nea 4)  Bus: 5 , 14 , 21 , 27 , 37 , 45 , 53 , 150  Renfe: Recoletos ",,0,http://www.madrid.es/vgn-ext-templating/v/index.jsp?vgnextchannel=9e4c43db40317010VgnVCM100000dc0ca8c0RCRD&vgnextoid=a19e7b503a71c010VgnVCM1000000b205a0aRCRD,MARQUES DE LA ENSENADA,CALLE,V,10,MADRID,MADRID,28004,JUSTICIA,CENTRO,441375,4475311,40.424488220772155,-3.692380132628246,917 004 800 (centralita),ife.madrid@institutfrancais.es,/contenido/entidadesYorganismos/CentrosEnse�anzaIdiomas
6831,Instituto Gemol�gico Espa�ol," Metro: R�os Rosas (l�nea 1) 
 Bus: 3, 5, 12, 37, 45, 149 ","  Titulaciones :diplomado en gemolog�a, tasaci�n de joyas, corte y pulido de gemas. ",0,http://www.madrid.es/vgn-ext-templating/v/index.jsp?vgnextchannel=9e4c43db40317010VgnVCM100000dc0ca8c0RCRD&vgnextoid=caed42be9971c010VgnVCM1000000b205a0aRCRD,ALENZA,CALLE,V,1,MADRID,MADRID,28003,RIOS ROSAS,CHAMBERI,440678,4477325,40.442581673356834,-3.700796192332983,914 414 300 / 682 096 757,info@ige.org,/contenido/entidadesYorganismos/CentrosEnse�anzaEspecializada
6619,Instituto Italiano de Cultura de Madrid," Metro: Opera (l�neas 2, 5, R)  Bus: 3, 25, 39, 148 ",,0,http://www.madrid.es/vgn-ext-templating/v/index.jsp?vgnextchannel=9e4c43db40317010VgnVCM100000dc0ca8c0RCRD&vgnextoid=6c4e42be9971c010VgnVCM1000000b205a0aRCRD,MAYOR,CALLE,V,86,MADRID,MADRID,28013,PALACIO,CENTRO,439636,4474297,40.41523808103924,-3.7127823633086336,"915 475 205  / 915 478 603 (Centralita)                 
",iicmadrid@isteri.it,/contenido/entidadesYorganismos/MonumentosEdificiosArtisticos
7564824,Instituto Polaco de la Cultura, Metro: Banco de Espa�a (l�nea 2) y Retiro (l�nea 2).  Bus: 19  Renfe: Atocha ,,0,http://www.madrid.es/vgn-ext-templating/v/index.jsp?vgnextchannel=9e4c43db40317010VgnVCM100000dc0ca8c0RCRD&vgnextoid=4bb6953e33bf6410VgnVCM2000000c205a0aRCRD,FELIPE IV,CALLE,V,12,MADRID,MADRID,28014,LOS JERONIMOS,RETIRO,441612,4474254,40.41498286962499,-3.6895010386824776,914 298 672 ,madryt@instytutpolski.org,/contenido/entidadesYorganismos/CentrosEnse�anzaIdiomas
31469,Instituto Superior de Estudios (ISED)," Metro: Palos de la Frontera (l�nea 3), Atocha (l�nea 1)  Bus: 6, 19, 27, 34, 45, 47, 55, 59, 85, 86   Renfe: Atocha  ", Cursos de especializaci�n profesional y de extensi�n universitaria. ,0,http://www.madrid.es/vgn-ext-templating/v/index.jsp?vgnextchannel=9e4c43db40317010VgnVCM100000dc0ca8c0RCRD&vgnextoid=bc116f065851c010VgnVCM2000000c205a0aRCRD,MURCIA,CALLE,V,11,MADRID,MADRID,28045,PALOS DE MOGUER,ARGANZUELA,441240,4473190,40.405380674060524,-3.6937752713012295,915 394 400,madrid@ised.es,/contenido/entidadesYorganismos/CentrosEnse�anzaEspecializada
5900953,ISE-JCMadrid Escuela de Ocio y Tiempo Libre," Metro: Eugenia de Montijo (l�nea 5) 
 Bus: 17 ",,0,http://www.madrid.es/vgn-ext-templating/v/index.jsp?vgnextchannel=9e4c43db40317010VgnVCM100000dc0ca8c0RCRD&vgnextoid=7173c25ab930d210VgnVCM2000000c205a0aRCRD,OCA&Ntilde;A,CALLE,V,14,MADRID,MADRID,28047,ALUCHE,LATINA,436072,4470854,40.38394657080957,-3.754440693962786,915 258 956,,/contenido/entidadesYorganismos/CentrosEscuelasTiempoLibre
8187849,M�sica y Danza Senara,,,0,http://www.madrid.es/vgn-ext-templating/v/index.jsp?vgnextchannel=9e4c43db40317010VgnVCM100000dc0ca8c0RCRD&vgnextoid=45786bc8dd29f410VgnVCM1000000b205a0aRCRD,MORATALAZ,AVENIDA,V,178 - B,MADRID,MADRID,28030,VINATEROS,MORATALAZ,445487,4473500,40.40845373748181,-3.643765498657471,913 016 070,,/contenido/entidadesYorganismos/CentrosEnse�anzasArtisticas/ConservatoriosEscuelasMusicaDanza
6718446,Punto de Informaci�n de Voluntariado de la Comunidad de Madrid," Metro: Gran V�a (l�nea 1, 5), Sevilla (l�nea 2)  Bus: 1, 2, 46, 74, 146, 202 ",,0,http://www.madrid.es/vgn-ext-templating/v/index.jsp?vgnextchannel=9e4c43db40317010VgnVCM100000dc0ca8c0RCRD&vgnextoid=0f543313928ab310VgnVCM1000000b205a0aRCRD,JARDINES,CALLE,V,4,MADRID,MADRID,28013,SOL,CENTRO,440577,4474696,40.41890023308047,-3.70174092195967,900 444 555,,/contenido/entidadesYorganismos/CentrosEscuelasVoluntariado
6692,Real Conservatorio Profesional de Danza Mariemma," Metro: Embajadores, Acacias  Bus: 27, 34, 36, 41, 60, 62, 78, 116, 118, 119, 148, C1, C2, M1  Renfe: Embajadores ",  Art�sticas ( LOE )    M�sica y danza  Danza ( LOE )  Ense�anzas profesionales  Danza cl�sica  Danza contempor�nea  Danza espa�ola  Ense�anzas elementales  ,0,http://www.madrid.es/vgn-ext-templating/v/index.jsp?vgnextchannel=9e4c43db40317010VgnVCM100000dc0ca8c0RCRD&vgnextoid=06c142be9971c010VgnVCM1000000b205a0aRCRD,SORIA,CALLE,V,2,MADRID,MADRID,28005,ACACIAS,ARGANZUELA,440217,4473191,40.40530763805262,-3.7058423217686824,91 468 06 51,cpd.realescuela.madrid@educa.madrid.org,/contenido/entidadesYorganismos/CentrosEnse�anzasArtisticas/ConservatoriosEscuelasMusicaDanza
6688,Real Conservatorio Superior de M�sica de Madrid," Metro: Atocha (l�nea 1)  Bus: 6 , 10 , 14 , 19 , 26 , 27 , 32 , 34 , 36 , 37 , 41 , 45 , 59 , 85 , 86 , 102 , L1  Renfe: Atocha ",  Art�stas ( LOE )    M�sica y danza  M�sica ( LOE )  Ense�anzas Art�sticas Superiores (L OE )   Musicolog�a  Composici�n  Direcci�n  Pedagog�a  Interpretaci�n  Itinerario A.  Arpa  Clarinete  Contrabajo  Fagot  Flauta  Oboe  Percusi�n  Saxof�n  Trompa  Trompeta  Tromb�n  Trompa  Tuba  Viola  Viol�n  Violonchelo  Itinerario B.  Piano  Guitarra  Acorde�n  Itinerario C.  Flauta de pico  Traverseo barroco  Viol�n barroco  Viola da gamba  Violonchelo barroco  Clave  �rgano  Instrumentos de Cuerda Pulsada del Renacimiento y del Barroco   ,0,http://www.madrid.es/vgn-ext-templating/v/index.jsp?vgnextchannel=9e4c43db40317010VgnVCM100000dc0ca8c0RCRD&vgnextoid=11b142be9971c010VgnVCM1000000b205a0aRCRD,DOCTOR MATA,CALLE,V,2,MADRID,MADRID,28012,EMBAJADORES,CENTRO,441192,4473605,40.40911573710767,-3.6943911208911793,915 392 901,csm.realconservatorio.madrid@educa.madrid.org,/contenido/entidadesYorganismos/CentrosEnse�anzasArtisticas/ConservatoriosEscuelasMusicaDanza
6680,Real Escuela Superior de Arte Dram�tico (RESAD)," Metro: Conde de Casal (l�nea 6)  Bus: 20, 26, 30, 32, 56, 63, 143, 152, C2 ",  Art�sticas ( LOE )    Arte dram�tico  Superiores de arte dram�tico  Interpretaci�n  Teatro de texto  Teatro del gesto  Teatro musical  Direcci�n esc�nica y dramaturgia  Escenograf�a  ,0,http://www.madrid.es/vgn-ext-templating/v/index.jsp?vgnextchannel=9e4c43db40317010VgnVCM100000dc0ca8c0RCRD&vgnextoid=fad142be9971c010VgnVCM1000000b205a0aRCRD,NAZARET,AVENIDA,V,2,MADRID,MADRID,28009,NI�O JESUS,RETIRO,442864,4473756,40.41058367885532,-3.6747002045784893,91 504 21 51 / 91 504 43 42,es.artedramatico.madrid@educa.madrid.org,/contenido/entidadesYorganismos/CentrosEnse�anzasArtisticas/ConservatoriosEscuelasMusicaDanza
6820,Universidad Aut�noma de Madrid - El Pa�s. Escuela de Periodismo," Metro: Suanzes (l�nea 5)  Bus: 28, 105, 153 ","  Titulaciones:  M�ster en Periodismo, postgrado t�tulo propio de la Universidad Aut�noma de Madrid.  ",0,http://www.madrid.es/vgn-ext-templating/v/index.jsp?vgnextchannel=9e4c43db40317010VgnVCM100000dc0ca8c0RCRD&vgnextoid=0f5f7b503a71c010VgnVCM1000000b205a0aRCRD,MIGUEL YUSTE,CALLE,NUM,40,MADRID,MADRID,28037,SIMANCAS,SAN BLAS-CANILLEJAS,447180,4476711,40.43748974312978,-3.6240808754489744,"913 377 760                
             
",,/contenido/entidadesYorganismos/CentrosEnse�anzaEspecializada
