PK,NOMBRE,EQUIPAMIENTO,TRANSPORTE,DESCRIPCION,ACCESIBILIDAD,CONTENT-URL,NOMBRE-VIA,CLASE-VIAL,TIPO-NUM,NUM,LOCALIDAD,PROVINCIA,CODIGO-POSTAL,BARRIO,DISTRITO,COORDENADA-X,COORDENADA-Y,LATITUD,LONGITUD,TELEFONO,FAX,TIPO
176850,Colegio P�blico Adolfo Su�rez,Comedor - Horario ampliado - Planes de mejora.,BUS: 174, ENSE�ANZAS: Segundo ciclo de E. Infantil - Primaria - Educaci�n Secundaria Obligatoria ,0,http://www.madrid.es/vgn-ext-templating/v/index.jsp?vgnextchannel=9e4c43db40317010VgnVCM100000dc0ca8c0RCRD&vgnextoid=a9344b6faa61c010VgnVCM1000000b205a0aRCRD,INFANTA CATALINA MICAELA,CALLE,NUM,31,MADRID,MADRID,28050,VALDEFUENTES,HORTALEZA,444807,4482402,40.48860266655876,-3.6525544243312855,917 502 058 / 676 562 792,917 502 058,/contenido/entidadesYorganismos/CentrosEducacion/ColegiosPublicos
5075,Colegio P�blico Agustina D�ez, Comedor - Horario ampliado ," METRO: Alto del Arenal BUS: 54 , 58 , 103 , 143 ", ENSE�ANZA: Educaci�n infantil - Primaria ,0,http://www.madrid.es/vgn-ext-templating/v/index.jsp?vgnextchannel=9e4c43db40317010VgnVCM100000dc0ca8c0RCRD&vgnextoid=dd68a3f5ca71c010VgnVCM1000000b205a0aRCRD,VESUBIO,CALLE,NUM,5,MADRID,MADRID,28038,PORTAZGO,PUENTE DE VALLECAS,445176,4471253,40.3881909372302,-3.647236724917086,917 770 073,917 770 073,/contenido/entidadesYorganismos/CentrosEducacion/ColegiosPublicos
4693138,Colegio P�blico Agust�n Rodriguez Sahag�n,Horario ampliado - Comedor - Planes de mejora,Bus: 142, ENSE�ANZA: Educacion Infantil - Primaria - Ense�anza biling&uuml;e   ,0,http://www.madrid.es/vgn-ext-templating/v/index.jsp?vgnextchannel=9e4c43db40317010VgnVCM100000dc0ca8c0RCRD&vgnextoid=706c615f4eb66110VgnVCM1000000b205a0aRCRD,LA GRANJA DE SAN ILDEFONSO,CALLE,V,17,MADRID,MADRID,28031,CASCO H.VALLECAS,VILLA DE VALLECAS,447288,4469000,40.36803998494376,-3.6221677428793977,913 324 348,914 941 475,/contenido/entidadesYorganismos/CentrosEducacion/ColegiosPublicos
5076,Colegio P�blico Alberto Alcocer,Comedor - Transporte - Horario ampliado - Planes de mejora.,"METRO: Las Musas BUS: 38 , 48 , 140, 153", ENSE�ANZA: Educaci�n Infantil - Primaria - Ense�anza biling&uuml;e ,0,http://www.madrid.es/vgn-ext-templating/v/index.jsp?vgnextchannel=9e4c43db40317010VgnVCM100000dc0ca8c0RCRD&vgnextoid=2388a3f5ca71c010VgnVCM1000000b205a0aRCRD,CANILLEJAS A VICALVARO,AVENIDA,NUM,56,MADRID,MADRID,28022,HELLIN,SAN BLAS-CANILLEJAS,448197,4476243,40.43333782278732,-3.6120521748962555,913 202 609,913 200 446,/contenido/entidadesYorganismos/CentrosEducacion/ColegiosPublicos
5077,Colegio P�blico Alcalde de M�stoles,Transporte - Comedor - Horario ampliado - Planes de mejora,"BUS: 34 , 39 , 139 , 117 , 17 ,", ENSE�ANZA: Educaci�n Infantil - Primaria  ,0,http://www.madrid.es/vgn-ext-templating/v/index.jsp?vgnextchannel=9e4c43db40317010VgnVCM100000dc0ca8c0RCRD&vgnextoid=7898a3f5ca71c010VgnVCM1000000b205a0aRCRD,ALDEANUEVA DE LA VERA,CALLE,V,9,MADRID,MADRID,28044,LAS AGUILAS,LATINA,434201,4470414,40.37983690289588,-3.7764479299262628,917 055 465,915 095 129,/contenido/entidadesYorganismos/CentrosEducacion/ColegiosPublicos
5078,Colegio P�blico Alfonso X El Sabio, Comedor - Transporte -  Horario ampliado - Planes de mejora. ," METRO: San Cipriano BUS: 4, 71, 100, 106, E-3 ", ENSE�ANZA: Educaci�n Infantil - Primaria ,0,http://www.madrid.es/vgn-ext-templating/v/index.jsp?vgnextchannel=9e4c43db40317010VgnVCM100000dc0ca8c0RCRD&vgnextoid=cda8a3f5ca71c010VgnVCM1000000b205a0aRCRD,FUENTE DE SAN PEDRO,CALLE,V,6,MADRID,MADRID,28032,CASCO H.VICALVARO,VICALVARO,448883,4472893,40.403201384467415,-3.6036948781029365,913 719 661,917 765 962,/contenido/entidadesYorganismos/CentrosEducacion/ColegiosPublicos
5079,Colegio P�blico Alhambra,Comedor - Transporte - Horario ampliado - Planes de mejora.,"METRO: Lacoma BUS: 49 , 67 , 82", ENSE�ANZA: Educaci�n Infantil - Primaria - Ense�anza biling&uuml;e  ,0,http://www.madrid.es/vgn-ext-templating/v/index.jsp?vgnextchannel=9e4c43db40317010VgnVCM100000dc0ca8c0RCRD&vgnextoid=13c8a3f5ca71c010VgnVCM1000000b205a0aRCRD,RAMON GOMEZ DE LA SERNA,CALLE,NUM,103,MADRID,MADRID,28035,PE�A GRANDE,FUENCARRAL-EL PARDO,438517,4481884,40.48349348726197,-3.726718327962491,913 162 273,913 737 021,/contenido/entidadesYorganismos/CentrosEducacion/ColegiosPublicos
5080,Colegio P�blico Amadeo Vives,Comedor - Horario ampliado - Planes de mejora - Integraci�n preferente (Trastornos generales del desarrollo),"BUS: 25 , 31 , 138", ENSE�ANZA: Educaci�n Infantil - Primaria  ,0,http://www.madrid.es/vgn-ext-templating/v/index.jsp?vgnextchannel=9e4c43db40317010VgnVCM100000dc0ca8c0RCRD&vgnextoid=68d8a3f5ca71c010VgnVCM1000000b205a0aRCRD,LOS YEBENES,CALLE,V,6,MADRID,MADRID,28047,ALUCHE,LATINA,436005,4472352,40.39743593771221,-3.755392529137971,917 183 389,917 199 055,/contenido/entidadesYorganismos/CentrosEducacion/ColegiosPublicos
5081,Colegio P�blico Amador de los R�os,Comedor - Planes de mejora," METRO: Manuel Becerra   BUS: 12 , 2 , 56 , 71 , 143, 156, C2 ", ENSE�ANZA: Educaci�n Infantil - Primaria - Ense�anza biling&uuml;e   ,0,http://www.madrid.es/vgn-ext-templating/v/index.jsp?vgnextchannel=9e4c43db40317010VgnVCM100000dc0ca8c0RCRD&vgnextoid=bde8a3f5ca71c010VgnVCM1000000b205a0aRCRD,MARQUES DE ZAFRA,PASEO,V,16,MADRID,MADRID,28028,FUENTE DEL BERRO,SALAMANCA,443568,4475493,40.426279629183625,-3.6665578263940595,917 252 610,917 261 891,/contenido/entidadesYorganismos/CentrosEducacion/ColegiosPublicos
5083,Colegio P�blico Am�s Acero,Comedor - Integraci�n preferente (Trastornos generales del desarrollo),"METRO: Nueva Numancia , Portazgo BUS: 10 , 54 , 57 , 58 , 103 , 111 , 310 , 410", ENSE�ANZA: Educaci�n Infantil - Primaria  ,0,http://www.madrid.es/vgn-ext-templating/v/index.jsp?vgnextchannel=9e4c43db40317010VgnVCM100000dc0ca8c0RCRD&vgnextoid=0309a3f5ca71c010VgnVCM1000000b205a0aRCRD,RODRIGUEZ ESPINOSA,CALLE,NUM,54,MADRID,MADRID,28053,PALOMERAS BAJAS,PUENTE DE VALLECAS,443774,4471489,40.390223332282275,-3.6637750346593543,914 785 161,914 772 415,/contenido/entidadesYorganismos/CentrosEducacion/ColegiosPublicos
5792171,Colegio P�blico Antonio Fontan,,"Bus: 134, 178", ENSE�ANZA: Educaci�n Infantil - Primaria  ,0,http://www.madrid.es/vgn-ext-templating/v/index.jsp?vgnextchannel=9e4c43db40317010VgnVCM100000dc0ca8c0RCRD&vgnextoid=93f1a0910bcca210VgnVCM2000000c205a0aRCRD,SANTUARIO DE VALVERDE,AVENIDA,V,71,MADRID,MADRID,28049,EL GOLOSO,FUENCARRAL-EL PARDO,441330,4484979,40.51157829071127,-3.6938180692699696,911 722 243,911 720 010,/contenido/entidadesYorganismos/CentrosEducacion/ColegiosPublicos
5087,Colegio P�blico Antonio Machado,Comedor - Planes de mejora -  Horario ampliado,"BUS: 35 , 47", ENSE�ANZA: Educaci�n Infantil - Primaria  ,0,http://www.madrid.es/vgn-ext-templating/v/index.jsp?vgnextchannel=9e4c43db40317010VgnVCM100000dc0ca8c0RCRD&vgnextoid=ad29a3f5ca71c010VgnVCM1000000b205a0aRCRD,ALLARIZ,CALLE,V,3,MADRID,MADRID,28044,BUENAVISTA,CARABANCHEL,436078,4469020,40.36742548683976,-3.7541975520390944,915 088 661,914 006 788,/contenido/entidadesYorganismos/CentrosEducacion/ColegiosPublicos
5088,Colegio P�blico Antonio Moreno Rosales,Comedor - Planes de mejora,"METRO: Tirso de Molina , Ant�n Mart�n BUS: 6 , 26 , 32 ", ENSE�ANZA: Educaci�n Infantil - Primaria  ,0,http://www.madrid.es/vgn-ext-templating/v/index.jsp?vgnextchannel=9e4c43db40317010VgnVCM100000dc0ca8c0RCRD&vgnextoid=f249a3f5ca71c010VgnVCM1000000b205a0aRCRD,OLMO,CALLE,V,4,MADRID,MADRID,28012,EMBAJADORES,CENTRO,440611,4473872,40.41147059852911,-3.701274799534028,915 390 646,915 390 646,/contenido/entidadesYorganismos/CentrosEducacion/ColegiosPublicos
5085,Colegio P�blico Antonio de Nebrija,Comedor - Horario ampliado - Planes de mejora,"BUS: 85 , 123 RENFE: Villaverde Bajo", ENSE�ANZA: Educaci�n Infantil - Primaria  ,0,http://www.madrid.es/vgn-ext-templating/v/index.jsp?vgnextchannel=9e4c43db40317010VgnVCM100000dc0ca8c0RCRD&vgnextoid=5819a3f5ca71c010VgnVCM1000000b205a0aRCRD,JUAN JOSE MARTINEZ SECO,CALLE,V,77,MADRID,MADRID,28021,LOS ROSALES,VILLAVERDE,441839,4467246,40.35186683091612,-3.6861847074521887,917 963 500,915 051 317,/contenido/entidadesYorganismos/CentrosEducacion/ColegiosPublicos
5091,Colegio P�blico Arag�n,Comedor - Planes de mejora,"METRO: Miguel Hern�ndez BUS: 54 , 58 , 103 , 142 , 143 , 144", ENSE�ANZA: Educaci�n infantil - Primaria  ,0,http://www.madrid.es/vgn-ext-templating/v/index.jsp?vgnextchannel=9e4c43db40317010VgnVCM100000dc0ca8c0RCRD&vgnextoid=4859a3f5ca71c010VgnVCM1000000b205a0aRCRD,RAFAEL ALBERTI,AVENIDA,NUM,2,MADRID,MADRID,28038,PALOMERAS SURESTE,PUENTE DE VALLECAS,446016,4471719,40.39244393012934,-3.6373799409076795,913 039 852,913 806 367,/contenido/entidadesYorganismos/CentrosEducacion/ColegiosPublicos
5092,Colegio P�blico Aravaca, Integraci�n (General) - Comedor ," BUS: 160, 161 ", ENSE�ANZA: Educaci�n Infantil - Primaria -  Ense�anza Biling&uuml;e - ,0,http://www.madrid.es/vgn-ext-templating/v/index.jsp?vgnextchannel=9e4c43db40317010VgnVCM100000dc0ca8c0RCRD&vgnextoid=9d69a3f5ca71c010VgnVCM1000000b205a0aRCRD,ESTUDIO,CALLE,V,6,MADRID,MADRID,28023,ARAVACA,MONCLOA-ARAVACA,433495,4479383,40.460576198420775,-3.7857037462052063,913 078 119 - 913 071 832,913 071 832,/contenido/entidadesYorganismos/CentrosEducacion/ColegiosPublicos
5093,Colegio P�blico Arcipreste de Hita,Comedor - Horario ampliado - Planes de mejora,"METRO: Opa�el BUS: 55 , 108 , 118 , 247", ENSE�ANZA: Educacion Infantil - Primaria  ,0,http://www.madrid.es/vgn-ext-templating/v/index.jsp?vgnextchannel=9e4c43db40317010VgnVCM100000dc0ca8c0RCRD&vgnextoid=e289a3f5ca71c010VgnVCM1000000b205a0aRCRD,ANTONIO MORENO,CALLE,V,25,MADRID,MADRID,28025,ABRANTES,CARABANCHEL,438524,4470930,40.38481599116821,-3.725574252110717,915 605 495,914 605 635,/contenido/entidadesYorganismos/CentrosEducacion/ColegiosPublicos
5094,Colegio P�blico Arquitecto Gaud�,Comedor - Horario ampliado - Planes de mejora,"METRO: Pio XII BUS: 16 , 29 , 49 , 70 , 107 , 150 , 229", ENSE�ANZA: Educaci�n infantil - Primaria  ,1,http://www.madrid.es/vgn-ext-templating/v/index.jsp?vgnextchannel=9e4c43db40317010VgnVCM100000dc0ca8c0RCRD&vgnextoid=3899a3f5ca71c010VgnVCM1000000b205a0aRCRD,ROSA JARDON,CALLE,V,10,MADRID,MADRID,28016,NUEVA ESPA�A,CHAMARTIN,443388,4479839,40.46541828100197,-3.669067772820547,913 506 564,913 506 564,/contenido/entidadesYorganismos/CentrosEducacion/ColegiosPublicos
5095,Colegio P�blico Asturias,Comedor - Horario ampliado - Planes de mejora,"BUS: 54 , 144", ENSE�ANZA: Educaci�n infantil - Primaria - Ense�anza biling&uuml;e   ,0,http://www.madrid.es/vgn-ext-templating/v/index.jsp?vgnextchannel=9e4c43db40317010VgnVCM100000dc0ca8c0RCRD&vgnextoid=d2c9a3f5ca71c010VgnVCM1000000b205a0aRCRD,ASTURIANOS,CALLE,V,2,MADRID,MADRID,28018,PALOMERAS SURESTE,PUENTE DE VALLECAS,445565,4470686,40.38310860341996,-3.6426052252549703,91 785 06 80,91 785 06 80,/contenido/entidadesYorganismos/CentrosEducacion/ColegiosPublicos
5096,Colegio P�blico Asunci�n Rinc�n,Comedor - Horario ampliado - Planes de mejora," METRO: Islas Filipinas   BUS: 2 , 12 , 202 ", ENSE�ANZA: Educaci�n Infantil - Primaria - Ense�anza biling&uuml;e   ,0,http://www.madrid.es/vgn-ext-templating/v/index.jsp?vgnextchannel=9e4c43db40317010VgnVCM100000dc0ca8c0RCRD&vgnextoid=28d9a3f5ca71c010VgnVCM1000000b205a0aRCRD,FILIPINAS,AVENIDA,V,5,MADRID,MADRID,28003,VALLEHERMOSO,CHAMBERI,439813,4477036,40.43991596115193,-3.7109677259909084,915 542 118,915 345 120,/contenido/entidadesYorganismos/CentrosEducacion/ColegiosPublicos
5431144,Colegio P�blico Ausias March, Horario ampliado - Comedor , Bus: 85 , ENSE�ANZA: Educaci�n infantil - Primaria ,0,http://www.madrid.es/vgn-ext-templating/v/index.jsp?vgnextchannel=9e4c43db40317010VgnVCM100000dc0ca8c0RCRD&vgnextoid=67c74431fcf04210VgnVCM1000000b205a0aRCRD,ESTEFANITA,CALLE,V,11,MADRID,MADRID,28021,BUTARQUE,VILLAVERDE,442804,4466409,40.34439346121857,-3.674746714234173,917 980 756,,/contenido/entidadesYorganismos/CentrosEducacion/ColegiosPublicos
5098,Colegio P�blico Azor�n,Comedor - Transporte - Planes de mejora,"BUS: 59 , 79", ENSE�ANZA: Educaci�n Infantil - Primaria  ,0,http://www.madrid.es/vgn-ext-templating/v/index.jsp?vgnextchannel=9e4c43db40317010VgnVCM100000dc0ca8c0RCRD&vgnextoid=7de9a3f5ca71c010VgnVCM1000000b205a0aRCRD,GODELLA,CALLE,V,57,MADRID,MADRID,28021,SAN CRISTOBAL,VILLAVERDE,441762,4466252,40.342906888165004,-3.6870005154391885,917 975 733,917 231 639,/contenido/entidadesYorganismos/CentrosEducacion/ColegiosPublicos
5099,Colegio P�blico Barcelona,Comedor - Horario ampliado - Planes de mejora,"BUS: 18 , 22 , 59 , 79 , 85 , 86 , 116", ENSE�ANZA: Educaci�n Infantil - Primaria  ,0,http://www.madrid.es/vgn-ext-templating/v/index.jsp?vgnextchannel=9e4c43db40317010VgnVCM100000dc0ca8c0RCRD&vgnextoid=c20aa3f5ca71c010VgnVCM1000000b205a0aRCRD,LA VERBENA DE LA PALOMA,AVENIDA,V,14,MADRID,MADRID,28041,LOS ANGELES,VILLAVERDE,440988,4467979,40.35841023700524,-3.696273094000059,913 603 078,913 179 568,/contenido/entidadesYorganismos/CentrosEducacion/ColegiosPublicos
7635761,Colegio P�blico Blas de Lezo,, Metro: Las Tablas  Bus: 176 , ENSE�ANZA: Educaci�n infantil - Primaria  ,0,http://www.madrid.es/vgn-ext-templating/v/index.jsp?vgnextchannel=9e4c43db40317010VgnVCM100000dc0ca8c0RCRD&vgnextoid=bb4868fe04878410VgnVCM2000000c205a0aRCRD,TRIACASTELA,CALLE,V,1,MADRID,MADRID,28050,VALVERDE,FUENCARRAL-EL PARDO,443308,4484759,40.50973426099199,-3.670452271301756,914 274 125,914 274 125,/contenido/entidadesYorganismos/CentrosEducacion/ColegiosPublicos
5100,Colegio P�blico Blas de Otero,Transporte - Comedor - Planes de mejora - Horario ampliado,"BUS: 58 , 63 , 145 METRO: Villa de Vallecas", ENSE�ANZA: Educaci�n Infantil - Primaria - Ense�anza biling&uuml;e  ,0,http://www.madrid.es/vgn-ext-templating/v/index.jsp?vgnextchannel=9e4c43db40317010VgnVCM100000dc0ca8c0RCRD&vgnextoid=181aa3f5ca71c010VgnVCM1000000b205a0aRCRD,PUENTELARRA,CALLE,V,34,MADRID,MADRID,28031,SANTA EUGENIA,VILLA DE VALLECAS,448164,4470461,40.38124773778207,-3.6119692564174404,913 311 550,913 310 535,/contenido/entidadesYorganismos/CentrosEducacion/ColegiosPublicos
5101,Colegio P�blico Bolivia,Comedor - Horario ampliado - Planes de mejora,"METRO: Bat�n BUS: 36 , 39 , 65", ENSE�ANZA: Educaci�n Infantil - Primaria  ,0,http://www.madrid.es/vgn-ext-templating/v/index.jsp?vgnextchannel=9e4c43db40317010VgnVCM100000dc0ca8c0RCRD&vgnextoid=6d2aa3f5ca71c010VgnVCM1000000b205a0aRCRD,VILLAVALIENTE,CALLE,V,29,MADRID,MADRID,28011,LUCERO,LATINA,436483,4473480,40.407634072188344,-3.7498731428601237,914 649 989,914 649 989,/contenido/entidadesYorganismos/CentrosEducacion/ColegiosPublicos
5102,Colegio P�blico Bravo Murillo,Comedor - Transporte - Horario ampliado - Planes de mejora,"METRO: Avenida de la Ilustraci�n BUS: 49 , 64 , 67 , 83 , 124 , 133 , 127", ENSE�ANZA: Educaci�n Infantil - Primaria  ,0,http://www.madrid.es/vgn-ext-templating/v/index.jsp?vgnextchannel=9e4c43db40317010VgnVCM100000dc0ca8c0RCRD&vgnextoid=b24aa3f5ca71c010VgnVCM1000000b205a0aRCRD,ISLAS CIES,CALLE,V,11,MADRID,MADRID,28035,PE�A GRANDE,FUENCARRAL-EL PARDO,439252,4481550,40.48053890145454,-3.718014861516011,917 385 793,917 385 793,/contenido/entidadesYorganismos/CentrosEducacion/ColegiosPublicos
5103,Colegio P�blico Breog�n,Comedor - Horario ampliado - Planes de mejora,"METRO: Barrio del Pilar BUS: 42 , 147", ENSE�ANZA: Educaci�n Infantil - Primaria  ,0,http://www.madrid.es/vgn-ext-templating/v/index.jsp?vgnextchannel=9e4c43db40317010VgnVCM100000dc0ca8c0RCRD&vgnextoid=085aa3f5ca71c010VgnVCM1000000b205a0aRCRD,GINZO DE LIMIA,CALLE,V,2,MADRID,MADRID,28029,LA PAZ,FUENCARRAL-EL PARDO,440569,4480970,40.47540952287272,-3.7024232948074007,917 304 040,917 396 184,/contenido/entidadesYorganismos/CentrosEducacion/ColegiosPublicos
5104,Colegio P�blico Calder�n de la Barca,Comedor - Horario ampliado - Planes de mejora,"BUS: 105 , 115 METRO: Barajas", ENSE�ANZA: Educaci�n Infantil - Primaria -  Ense�anza biling&uuml;e -  ,0,http://www.madrid.es/vgn-ext-templating/v/index.jsp?vgnextchannel=9e4c43db40317010VgnVCM100000dc0ca8c0RCRD&vgnextoid=5d6aa3f5ca71c010VgnVCM1000000b205a0aRCRD,CALDERON,CALLE,V,2,MADRID,MADRID,28042,TIMON,BARAJAS,450602,4480375,40.47070810904175,-3.5840209268472183,917 472 465,917 473 130,/contenido/entidadesYorganismos/CentrosEducacion/ColegiosPublicos
5105,Colegio P�blico Camilo Jos� Cela,Comedor - Transporte - Horario ampliado - Horario ampliado,METRO: Barrio del Pilar BUS: 147, ENSE�ANZA: Educaci�n Infantil - Primaria  ,0,http://www.madrid.es/vgn-ext-templating/v/index.jsp?vgnextchannel=9e4c43db40317010VgnVCM100000dc0ca8c0RCRD&vgnextoid=a28aa3f5ca71c010VgnVCM1000000b205a0aRCRD,MELCHOR FERNANDEZ ALMAGRO,CALLE,NUM,22,MADRID,MADRID,28029,LA PAZ,FUENCARRAL-EL PARDO,440721,4481208,40.477564401619375,-3.700652519727763,917 392 424,913 781 507,/contenido/entidadesYorganismos/CentrosEducacion/ColegiosPublicos
5107,Colegio P�blico Capit�n Cort�s,Comedor - Horario ampliado - Planes de mejora,"BUS: 34 , 108", ENSE�ANZA: Educaci�n Infantil - Primaria - Ense�anza biling&uuml;e   ,0,http://www.madrid.es/vgn-ext-templating/v/index.jsp?vgnextchannel=9e4c43db40317010VgnVCM100000dc0ca8c0RCRD&vgnextoid=f79aa3f5ca71c010VgnVCM1000000b205a0aRCRD,MONSE�OR OSCAR ROMERO,CALLE,V,17,MADRID,MADRID,28025,PUERTA BONITA,CARABANCHEL,437054,4470509,40.38091347738878,-3.7428500011276635,91 462 86 62,91 461 91 30,/contenido/entidadesYorganismos/CentrosEducacion/ColegiosPublicos
5108,Colegio P�blico Cardenal Herrera Oria,Comedor - Transporte -  Horario ampliado - Planes de mejora,"BUS: 67 , 83 , 124 , 127 , 133 ", ENSE�ANZA: Educaci�n Infantil - Primaria -  Ense�anza biling&uuml;e -  ,0,http://www.madrid.es/vgn-ext-templating/v/index.jsp?vgnextchannel=9e4c43db40317010VgnVCM100000dc0ca8c0RCRD&vgnextoid=4daaa3f5ca71c010VgnVCM1000000b205a0aRCRD,FERMIN CABALLERO,CALLE,NUM,68,MADRID,MADRID,28034,EL PILAR,FUENCARRAL-EL PARDO,439842,4481775,40.48260881390874,-3.7110758224045726,913 781 613,913 785 711,/contenido/entidadesYorganismos/CentrosEducacion/ColegiosPublicos
5110,Colegio P�blico Carlos S�inz de los Terreros,Comedor - Horario ampliado - Planes de mejora,"METRO: Miguel Hern�ndez BUS: 54 , 58 , 103 , 142 , 143 , 144", ENSE�ANZA: Educaci�n infantil - Primaria  ,0,http://www.madrid.es/vgn-ext-templating/v/index.jsp?vgnextchannel=9e4c43db40317010VgnVCM100000dc0ca8c0RCRD&vgnextoid=92caa3f5ca71c010VgnVCM1000000b205a0aRCRD,CARTAMA,CALLE,NUM,1,MADRID,MADRID,28018,PALOMERAS SURESTE,PUENTE DE VALLECAS,445870,4470873,40.38481313041185,-3.6390280931999377,917 783 885,917 774 420,/contenido/entidadesYorganismos/CentrosEducacion/ColegiosPublicos
5111,Colegio P�blico Carlos V,Comedor - Horario ampliado - Planes de mejora,"METRO: Barrio de la Concepci�n BUS: 21 , 48 , 146", ENSE�ANZA: Educaci�n Infantil - Primaria - Ense�anza biling&uuml;e   ,0,http://www.madrid.es/vgn-ext-templating/v/index.jsp?vgnextchannel=9e4c43db40317010VgnVCM100000dc0ca8c0RCRD&vgnextoid=e7daa3f5ca71c010VgnVCM1000000b205a0aRCRD,VIRGEN DEL VAL,CALLE,NUM,3,MADRID,MADRID,28027,SAN PASCUAL,CIUDAD LINEAL,444608,4476702,40.43724098714693,-3.6544038942331123,914 041 481,914 052 705,/contenido/entidadesYorganismos/CentrosEducacion/ColegiosPublicos
5112,Colegio P�blico Carmen Cabezuelo,Comedor - Horario ampliado,"METRO: Garc�a Noblejas BUS: 4 , 28 , 38 , 70", ENSE�ANZA: Educaci�n Infantil - Primaria  ,0,http://www.madrid.es/vgn-ext-templating/v/index.jsp?vgnextchannel=9e4c43db40317010VgnVCM100000dc0ca8c0RCRD&vgnextoid=3deaa3f5ca71c010VgnVCM1000000b205a0aRCRD,CANGAS DE ONIS,CALLE,NUM,7,MADRID,MADRID,28037,SIMANCAS,SAN BLAS-CANILLEJAS,446771,4475895,40.430112607702604,-3.628834506070179,913 040 117,913 040 117,/contenido/entidadesYorganismos/CentrosEducacion/ColegiosPublicos
5792204,Colegio P�blico Carmen Laforet,," Bus: 100, 106  Metro: Puerta de Arganda ", ENSE�ANZA: Educaci�n infantil - Primaria  ,0,http://www.madrid.es/vgn-ext-templating/v/index.jsp?vgnextchannel=9e4c43db40317010VgnVCM100000dc0ca8c0RCRD&vgnextoid=12cf00444dcca210VgnVCM2000000c205a0aRCRD,TITANIO,CALLE,V,16,MADRID,MADRID,28032,CASCO H.VICALVARO,VICALVARO,449282,4472611,40.400676319677835,-3.598982213500786,917 760 141,917 604 734,/contenido/entidadesYorganismos/CentrosEducacion/ColegiosPublicos
5115,Colegio P�blico Cervantes,Comedor - Horario ampliado - Planes de mejora,"METRO: Cuatro Caminos BUS: 3 , 37 , 45 , 64 , 66 , 69 , 124 ,128 , 149 , F", ENSE�ANZA: Educaci�n Infantil - Primaria  ,0,http://www.madrid.es/vgn-ext-templating/v/index.jsp?vgnextchannel=9e4c43db40317010VgnVCM100000dc0ca8c0RCRD&vgnextoid=820ba3f5ca71c010VgnVCM1000000b205a0aRCRD,RAIMUNDO FERNANDEZ VILLAVERDE,CALLE,V,4,MADRID,MADRID,28003,RIOS ROSAS,CHAMBERI,440485,4477774,40.446612640189215,-3.7031139484944826,915 330 837,915 330 837,/contenido/entidadesYorganismos/CentrosEducacion/ColegiosPublicos
5124,Colegio P�blico Ciudad Pegaso,Comedor - Transporte - Horario ampliado,"BUS: 77 , 89 , 101 , 114 , 115", ENSE�ANZA: Educaci�n infantil - Primaria - Ense�anza biling&uuml;e   ,0,http://www.madrid.es/vgn-ext-templating/v/index.jsp?vgnextchannel=9e4c43db40317010VgnVCM100000dc0ca8c0RCRD&vgnextoid=52cba3f5ca71c010VgnVCM1000000b205a0aRCRD,SEPTIMA,AVENIDA,V,12,MADRID,MADRID,28022,REJAS,SAN BLAS-CANILLEJAS,449397,4477778,40.44724009402133,-3.5980274884924257,917 412 017,917 436 218,/contenido/entidadesYorganismos/CentrosEducacion/ColegiosPublicos
5116,Colegio P�blico Ciudad de Badajoz,Comedor - Planes de mejora,  BUS:  17  Metro:  Aviaci�n Espa�ola  Cercan�as:  Las �guilas , ENSE�ANZA: Educaci�n Infantil - Primaria  ,0,http://www.madrid.es/vgn-ext-templating/v/index.jsp?vgnextchannel=9e4c43db40317010VgnVCM100000dc0ca8c0RCRD&vgnextoid=d71ba3f5ca71c010VgnVCM1000000b205a0aRCRD,FRAY JOSE CERDEIRI�A,CALLE,V,51,MADRID,MADRID,28024,LAS AGUILAS,LATINA,433997,4470876,40.38398261095106,-3.7788988980894436,917 065 611,917 107 103,/contenido/entidadesYorganismos/CentrosEducacion/ColegiosPublicos
5117,Colegio P�blico Ciudad de C�rdoba,Comedor - Horario ampliado - Planes de mejora,"BUS: 18 , 22 , 59 , 76 , 79 , 85 , 86 , 116 ,", ENSE�ANZA: Educaci�n Infantil - Primaria - Ense�anza biling&uuml;e ,0,http://www.madrid.es/vgn-ext-templating/v/index.jsp?vgnextchannel=9e4c43db40317010VgnVCM100000dc0ca8c0RCRD&vgnextoid=2d2ba3f5ca71c010VgnVCM1000000b205a0aRCRD,LILLO,CALLE,S/N,1,MADRID,MADRID,28041,LOS ANGELES,VILLAVERDE,440878,4468436,40.362519348197296,-3.697610896320262,913 179 827 - 913 172 417,913 179 827,/contenido/entidadesYorganismos/CentrosEducacion/ColegiosPublicos
5118,Colegio P�blico Ciudad de Guadalajara,Comedor - Transporte - Horario ampliado,"METRO: Alameda de Osuna BUS: 105, 112, 114, 115, 151", ENSE�ANZA: Educaci�n Infantil - Primaria - Ense�anza biling&uuml;e   ,0,http://www.madrid.es/vgn-ext-templating/v/index.jsp?vgnextchannel=9e4c43db40317010VgnVCM100000dc0ca8c0RCRD&vgnextoid=724ba3f5ca71c010VgnVCM1000000b205a0aRCRD,BERGANTIN,CALLE,V,13,MADRID,MADRID,28042,ALAMEDA DE OSUNA,BARAJAS,450528,4479070,40.458947463149386,-3.5847918554675733,917 470 938,917 472 064,/contenido/entidadesYorganismos/CentrosEducacion/ColegiosPublicos
5119,Colegio P�blico Ciudad de Ja�n,Comedor - Transporte - Integraci�n (preferentemente mot�ricos) - Horario ampliado - Planes de mejora -Convenio con el British Council," BUS: 18, 22, 59, 76, 78, 79, 81, 116, 121 METRO: Hospital 12 de Octubre ", ENSE�ANZA: Educaci�n Infantil - Primaria  ,0,http://www.madrid.es/vgn-ext-templating/v/index.jsp?vgnextchannel=9e4c43db40317010VgnVCM100000dc0ca8c0RCRD&vgnextoid=c75ba3f5ca71c010VgnVCM1000000b205a0aRCRD,CAMINO DEL RIO,CALLE,V,3,MADRID,MADRID,28041,ORCASUR,USERA,440577,4469555,40.37257848231791,-3.7012601755625014,913 174 313 - 913 171 644,913 171 644,/contenido/entidadesYorganismos/CentrosEducacion/ColegiosPublicos
5121,Colegio P�blico Ciudad de Roma,Comedor - Horario ampliado - Planes de mejora,"METRO: Sainz de Baranda BUS: 15 , 30 , 143, 156, 202, 215", ENSE�ANZA: Educaci�n Infantil - Primaria - Ense�anza biling&uuml;e  ,0,http://www.madrid.es/vgn-ext-templating/v/index.jsp?vgnextchannel=9e4c43db40317010VgnVCM100000dc0ca8c0RCRD&vgnextoid=628ba3f5ca71c010VgnVCM1000000b205a0aRCRD,JUAN ESPLANDIU,CALLE,V,2,MADRID,MADRID,28007,ESTRELLA,RETIRO,443674,4474336,40.41586394930115,-3.665205626185569,915 743 897,915 041 695,/contenido/entidadesYorganismos/CentrosEducacion/ColegiosPublicos
5122,Colegio P�blico Ciudad de Valencia,Comedor - Transporte - Horario ampliado,"BUS: 58 , 63 , 145", ENSE�ANZA: Educaci�n Infantil - Primaria  ,0,http://www.madrid.es/vgn-ext-templating/v/index.jsp?vgnextchannel=9e4c43db40317010VgnVCM100000dc0ca8c0RCRD&vgnextoid=b79ba3f5ca71c010VgnVCM1000000b205a0aRCRD,MEDITERRANEO,AVENIDA,V,91,MADRID,MADRID,28007,SANTA EUGENIA,VILLA DE VALLECAS,448809,4470902,40.385260536182564,-3.604406503967331,913 310 805,913 312 548,/contenido/entidadesYorganismos/CentrosEducacion/ColegiosPublicos
5123,Colegio P�blico Ciudad de Zaragoza,Comedor - Transporte - Horario ampliado - Planes de mejora,"BUS: 105 , 112 , 115 , 151", ENSE�ANZA: Educaci�n Infantil - Primaria  ,0,http://www.madrid.es/vgn-ext-templating/v/index.jsp?vgnextchannel=9e4c43db40317010VgnVCM100000dc0ca8c0RCRD&vgnextoid=0daba3f5ca71c010VgnVCM1000000b205a0aRCRD,MANUEL AGUILAR MU�OZ,CALLE,V,1,MADRID,MADRID,28042,ALAMEDA DE OSUNA,BARAJAS,449984,4479224,40.460302151327085,-3.5912198696737083,913 293 756 - 917 477 420,917 477 420,/contenido/entidadesYorganismos/CentrosEducacion/ColegiosPublicos
5120,Colegio P�blico Ciudad de los �ngeles,Comedor - Horario ampliado - Planes de mejora.,"BUS: 18 , 22 , 59 , 79 , 85 , 86 , 116", ENSE�ANZA: Educaci�n Infantil - Primaria  ,0,http://www.madrid.es/vgn-ext-templating/v/index.jsp?vgnextchannel=9e4c43db40317010VgnVCM100000dc0ca8c0RCRD&vgnextoid=1d6ba3f5ca71c010VgnVCM1000000b205a0aRCRD,LA ALEGRIA DE LA HUERTA,CALLE,V,6,MADRID,MADRID,28041,LOS ANGELES,VILLAVERDE,441002,4467672,40.35564559555992,-3.696079786555593,917 954 993,915 050 434,/contenido/entidadesYorganismos/CentrosEducacion/ColegiosPublicos
5125,Colegio P�blico Claudio Moyano,Comedor - Horario ampliado - Planes de mejora - Integraci�n preferente (Trastornos generales del desarrollo),"METRO: Canal , Islas Filipinas BUS: 2 , 12 , 202", ENSE�ANZA: Educaci�n Infantil - Primaria - Ense�anza biling&uuml;e   ,0,http://www.madrid.es/vgn-ext-templating/v/index.jsp?vgnextchannel=9e4c43db40317010VgnVCM100000dc0ca8c0RCRD&vgnextoid=a7dba3f5ca71c010VgnVCM1000000b205a0aRCRD,CEA BERMUDEZ,CALLE,V,26,MADRID,MADRID,28003,VALLEHERMOSO,CHAMBERI,439993,4476929,40.43896509232795,-3.708835358862963,915 335 718,915 335 718,/contenido/entidadesYorganismos/CentrosEducacion/ColegiosPublicos
5277,Colegio P�blico Complejo Escolar Pr�ncipe Felipe,Comedor - Transporte - Horario ampliado ,"METRO: Barrio del Pilar BUS: 49 , 83 , 128 , 132 , 134 , 137", ENSE�ANZA: Educaci�n Infantil - Primaria - Ense�anza biling&uuml;e - ,0,http://www.madrid.es/vgn-ext-templating/v/index.jsp?vgnextchannel=9e4c43db40317010VgnVCM100000dc0ca8c0RCRD&vgnextoid=8ff6a3f5ca71c010VgnVCM1000000b205a0aRCRD,MONFORTE DE LEMOS,AVENIDA,NUM,24,MADRID,MADRID,28029,LA PAZ,FUENCARRAL-EL PARDO,440693,4481503,40.480219870681125,-3.7010104732977656,913 146 819,913 232 548,/contenido/entidadesYorganismos/CentrosEducacion/ColegiosPublicos
5128,Colegio P�blico Concha Espina,Comedor - Horario ampliado - Planes de mejora,"METRO: Miguel Hernandez BUS: 54 , 58 , 103 , 142 , 143 , 144", ENSE�ANZA: Educaci�n infantil - Primaria  ,0,http://www.madrid.es/vgn-ext-templating/v/index.jsp?vgnextchannel=9e4c43db40317010VgnVCM100000dc0ca8c0RCRD&vgnextoid=420ca3f5ca71c010VgnVCM1000000b205a0aRCRD,GERARDO DIEGO,CALLE,NUM,6,MADRID,MADRID,28018,PALOMERAS SURESTE,PUENTE DE VALLECAS,445453,4470983,40.38577682775334,-3.643950119182148,917 781 461,917 772 584,/contenido/entidadesYorganismos/CentrosEducacion/ColegiosPublicos
5129,Colegio P�blico Conde de Romanones,Comedor - Horario ampliado - Planes de mejora," METRO: El Carmen, Quintana   BUS: 21, 38, 48,  109, 146 ", ENSE�ANZA: Educaci�n Infantil - Primaria  ,0,http://www.madrid.es/vgn-ext-templating/v/index.jsp?vgnextchannel=9e4c43db40317010VgnVCM100000dc0ca8c0RCRD&vgnextoid=971ca3f5ca71c010VgnVCM1000000b205a0aRCRD,ELFO,CALLE,NUM,143,MADRID,MADRID,28027,QUINTANA,CIUDAD LINEAL,445632,4476721,40.43747986110289,-3.6423326381692056,913 673 655 - 914 080 947,914 080 947,/contenido/entidadesYorganismos/CentrosEducacion/ColegiosPublicos
6149062,Colegio P�blico Cortes de C�diz,," BUS: 172, 173 ", ENSE�ANZAS: Segundo ciclo de Educaci�n Infantil - Primaria -  Ense�anza Biling&uuml;e - ,0,http://www.madrid.es/vgn-ext-templating/v/index.jsp?vgnextchannel=9e4c43db40317010VgnVCM100000dc0ca8c0RCRD&vgnextoid=34cee4f2de891310VgnVCM2000000c205a0aRCRD,NICETO ALCALA ZAMORA,AVENIDA,V,48,MADRID,MADRID,28050,VALDEFUENTES,HORTALEZA,444522,4483551,40.49893432860617,-3.656017907963137,911 727 223,911 720 746,/contenido/entidadesYorganismos/CentrosEducacion/ColegiosPublicos
5131,Colegio P�blico Costa Rica,Comedor - Horario ampliado - Planes de mejora,"METRO: Aluche BUS: 17 , 121 , 131 , 138 RENFE: Aluche", ENSE�ANZA: Educaci�n Infantil - Primaria  ,0,http://www.madrid.es/vgn-ext-templating/v/index.jsp?vgnextchannel=9e4c43db40317010VgnVCM100000dc0ca8c0RCRD&vgnextoid=ec2ca3f5ca71c010VgnVCM1000000b205a0aRCRD,CAMARENA,CALLE,V,247,MADRID,MADRID,28047,ALUCHE,LATINA,435943,4471028,40.38550403353863,-3.755989664410327,917 171 601,917 171 601,/contenido/entidadesYorganismos/CentrosEducacion/ColegiosPublicos
5132,Colegio P�blico Crist�bal Col�n,Transporte - Comedor - Horario ampliado - Planes de mejora - Integraci�n preferente (trastornos generales del desarrollo)," BUS: 22 , 76 , 86 , 130 , 131  RENFE: Puente Alcocer ", ENSE�ANZA: Educaci�n Infantil - Primaria  ,0,http://www.madrid.es/vgn-ext-templating/v/index.jsp?vgnextchannel=9e4c43db40317010VgnVCM100000dc0ca8c0RCRD&vgnextoid=324ca3f5ca71c010VgnVCM1000000b205a0aRCRD,CARABANCHEL A VILLAVERDE,CARRETERA,V,109,MADRID,MADRID,28041,SAN ANDRES,VILLAVERDE,440150,4467091,40.35035079998796,-3.706057974681441,917 973 312,917 973 312,/contenido/entidadesYorganismos/CentrosEducacion/ColegiosPublicos
5133,Colegio P�blico Cuba,Comedor - Horario ampliado - Transporte - Planes de mejora,"METRO: Campamento , Empalme BUS: 25 , 121 , 131 , 138", ENSE�ANZA: Educaci�n Infantil - Primaria  ,0,http://www.madrid.es/vgn-ext-templating/v/index.jsp?vgnextchannel=9e4c43db40317010VgnVCM100000dc0ca8c0RCRD&vgnextoid=875ca3f5ca71c010VgnVCM1000000b205a0aRCRD,TEMBLEQUE,CALLE,V,58,MADRID,MADRID,28024,ALUCHE,LATINA,435492,4472096,40.39509014363514,-3.761411071256881,915 187 564,915 180 170,/contenido/entidadesYorganismos/CentrosEducacion/ColegiosPublicos
5135,Colegio P�blico Daniel V�zquez D�az,Comedor - Horario ampliado - Planes de mejora - Integraci�n preferente (Trastornos generales del desarrollo),"METRO: Valdezarza BUS: 126 ,127 , 128 , 132", ENSE�ANZA: Educaci�n Infantil - Primaria  ,0,http://www.madrid.es/vgn-ext-templating/v/index.jsp?vgnextchannel=9e4c43db40317010VgnVCM100000dc0ca8c0RCRD&vgnextoid=228ca3f5ca71c010VgnVCM1000000b205a0aRCRD,ARMENTEROS,CALLE,V,46,MADRID,MADRID,28039,VALDEZARZA,MONCLOA-ARAVACA,439661,4479797,40.464777111936684,-3.7130226942453906,914 505 842,913 117 764,/contenido/entidadesYorganismos/CentrosEducacion/ColegiosPublicos
5136,Colegio P�blico Dionisio Ridruejo,Comedor -  Horario ampliado - Planes de mejora,"METRO: San Lorenzo BUS: 72 , 87", ENSE�ANZA: Educaci�n Infantil - Primaria - Ense�anza biling&uuml;e   ,0,http://www.madrid.es/vgn-ext-templating/v/index.jsp?vgnextchannel=9e4c43db40317010VgnVCM100000dc0ca8c0RCRD&vgnextoid=779ca3f5ca71c010VgnVCM1000000b205a0aRCRD,ZIPAQUIRA,CALLE,V,14,MADRID,MADRID,28033,PINAR DEL REY,HORTALEZA,446321,4480661,40.47301835441678,-3.6345431561438026,917 639 188,917 639 188,/contenido/entidadesYorganismos/CentrosEducacion/ColegiosPublicos
5137,Colegio P�blico Doctor Conde Arruga,Comedor - Horario ampliado,"METRO: Artilleros BUS: 20 , 30 , 71 , 100", ENSE�ANZA: Educaci�n Infantil - Primaria - Ense�anza biling&uuml;e   ,0,http://www.madrid.es/vgn-ext-templating/v/index.jsp?vgnextchannel=9e4c43db40317010VgnVCM100000dc0ca8c0RCRD&vgnextoid=ccaca3f5ca71c010VgnVCM1000000b205a0aRCRD,HACIENDA DE PAVONES,CALLE,V,105,MADRID,MADRID,28030,VINATEROS,MORATALAZ,445499,4472986,40.40382410472334,-3.643579973780007,917 732 393,917 737 286,/contenido/entidadesYorganismos/CentrosEducacion/ColegiosPublicos
5138,Colegio P�blico Doctor Federico Rubio,Comedor - Planes de mejora - Horario ampliado,"METRO: Francos Rodr�guez BUS: 44 , 127", ENSE�ANZA: Educaci�n Infantil - Primaria  ,0,http://www.madrid.es/vgn-ext-templating/v/index.jsp?vgnextchannel=9e4c43db40317010VgnVCM100000dc0ca8c0RCRD&vgnextoid=12cca3f5ca71c010VgnVCM1000000b205a0aRCRD,DOCTOR FEDERICO RUBIO Y GALI,AVENIDA,V,53,MADRID,MADRID,28039,BELLAS VISTAS,TETUAN,439792,4478425,40.45242712056568,-3.7113472292938066,914 502 091,914 595 006,/contenido/entidadesYorganismos/CentrosEducacion/ColegiosPublicos
5140,Colegio P�blico Doctor Severo Ochoa,Comedor - Transporte - Planes de mejora,"BUS: 4 , 100 , 106 , 130 ", ENSE�ANZA: Educacion Infantil - Primaria - Ense�anza biling&uuml;e   ,0,http://www.madrid.es/vgn-ext-templating/v/index.jsp?vgnextchannel=9e4c43db40317010VgnVCM100000dc0ca8c0RCRD&vgnextoid=67dca3f5ca71c010VgnVCM1000000b205a0aRCRD,EZCARAY,CALLE,V,3,MADRID,MADRID,28032,AMBROZ,VICALVARO,448041,4473688,40.410311030784285,-3.6136821061928113,917 752 715,917 750 711,/contenido/entidadesYorganismos/CentrosEducacion/ColegiosPublicos
5141,Colegio P�blico Doctor Tolosa Latour,Comedor - Horario ampliado - Planes de mejora,"BUS: 54 , 144", ENSE�ANZA: Educaci�n infantil - Primaria - Ense�anza biling&uuml;e   ,0,http://www.madrid.es/vgn-ext-templating/v/index.jsp?vgnextchannel=9e4c43db40317010VgnVCM100000dc0ca8c0RCRD&vgnextoid=bceca3f5ca71c010VgnVCM1000000b205a0aRCRD,ASTURIANOS,CALLE,V,4,MADRID,MADRID,28018,PALOMERAS SURESTE,PUENTE DE VALLECAS,445615,4470563,40.38200381255466,-3.642005680937447,91 778 47 94,917 777 679,/contenido/entidadesYorganismos/CentrosEducacion/ColegiosPublicos
5134,Colegio P�blico D�maso Alonso,Horario ampliado - Transporte - Comedor - Planes de mejora,"BUS: 22 , 79 , 86 , 130 , 131", ENSE�ANZA: Educaci�n Infantil - Primaria - Ense�anza biling&uuml;e   ,0,http://www.madrid.es/vgn-ext-templating/v/index.jsp?vgnextchannel=9e4c43db40317010VgnVCM100000dc0ca8c0RCRD&vgnextoid=dc6ca3f5ca71c010VgnVCM1000000b205a0aRCRD,ESPINELA,AVENIDA,V,1,MADRID,MADRID,28021,SAN ANDRES,VILLAVERDE,439900,4466615,40.34604471386465,-3.7089567302070083,917 970 620,917 970 620,/contenido/entidadesYorganismos/CentrosEducacion/ColegiosPublicos
5144,Colegio P�blico EEUU - Huarte de San Juan,Comedor - Transporte - Planes de mejora- Horario ampliado,"BUS: 41 , 75", ENSE�ANZA: Educaci�n Infantil - Primaria  ,0,http://www.madrid.es/vgn-ext-templating/v/index.jsp?vgnextchannel=9e4c43db40317010VgnVCM100000dc0ca8c0RCRD&vgnextoid=020da3f5ca71c010VgnVCM1000000b205a0aRCRD,COMANDANTE FORTEA,PASEO,V,71,MADRID,MADRID,28008,CASA DE CAMPO,MONCLOA-ARAVACA,437874,4475807,40.42870179468233,-3.733708557423035,915 418 978 - 915 420 841,915 594 699,/contenido/entidadesYorganismos/CentrosEducacion/ColegiosPublicos
6024,Colegio P�blico Eduardo Rojo,Comedor - Horario ampliado - Integraci�n preferente (Trastornos generales del desarrollo),"BUS: 57, 103, 111, 144, 310", ENSE�ANZA: Educaci�n Infantil - Primaria  ,0,http://www.madrid.es/vgn-ext-templating/v/index.jsp?vgnextchannel=9e4c43db40317010VgnVCM100000dc0ca8c0RCRD&vgnextoid=f6c4ae10c471c010VgnVCM1000000b205a0aRCRD,EDUARDO ROJO,CALLE,V,5,MADRID,MADRID,28018,PALOMERAS BAJAS,PUENTE DE VALLECAS,443854,4471178,40.38742706684719,-3.6628050333334046,914 774 560,914 784 525,/contenido/entidadesYorganismos/CentrosEducacion/ColegiosPublicos
42014,Colegio P�blico El Espinillo,Comedor,"BUS: 22 , 59 , 85 , 79 , 123", ENSE�ANZA: Educaci�n Infantil - Primaria  ,0,http://www.madrid.es/vgn-ext-templating/v/index.jsp?vgnextchannel=9e4c43db40317010VgnVCM100000dc0ca8c0RCRD&vgnextoid=0d77598d1351c010VgnVCM1000000b205a0aRCRD,UNANIMIDAD,CALLE,V,1,MADRID,MADRID,28041,LOS ROSALES,VILLAVERDE,441245,4468328,40.36157241219842,-3.6932788501569522,917 237 434 - 913 182 512,917 237 434,/contenido/entidadesYorganismos/CentrosEducacion/ColegiosPublicos
176810,Colegio P�blico El Greco, Comedor - Horario ampliado. ,"RENFE: Villaverde Bajo BUS: SE Los Rosales , 85 , 123"," ENSE�ANZA: Segundo ciclo de Infantil, Educaci�n Primaria y Educaci�n Secundaria Obligatoria ",0,http://www.madrid.es/vgn-ext-templating/v/index.jsp?vgnextchannel=9e4c43db40317010VgnVCM100000dc0ca8c0RCRD&vgnextoid=b9f34b6faa61c010VgnVCM1000000b205a0aRCRD,ESTEFANITA,CALLE,NUM,7,MADRID,MADRID,28021,BUTARQUE,VILLAVERDE,442785,4466530,40.345482201202394,-3.674981279643457,917 100 008,917 100 008,/contenido/entidadesYorganismos/CentrosEducacion/ColegiosPublicos
5220,Colegio P�blico El Madro�o,Comedor -  Horario ampliado - Planes de mejora,"BUS: 63 , 141 , 143 , E", ENSE�ANZA: Educaci�n infantil - Primaria  ,0,http://www.madrid.es/vgn-ext-templating/v/index.jsp?vgnextchannel=9e4c43db40317010VgnVCM100000dc0ca8c0RCRD&vgnextoid=571da3f5ca71c010VgnVCM1000000b205a0aRCRD,LAS MARISMAS,CALLE,NUM,14,MADRID,MADRID,28038,NUMANCIA,PUENTE DE VALLECAS,444572,4472813,40.402204300135466,-3.654488722948694,915 014 668,915 013 612,/contenido/entidadesYorganismos/CentrosEducacion/ColegiosPublicos
5339,Colegio P�blico El Quijote,Comedor - Transporte -  Horario ampliado - Planes de mejora - Convenio con British Council,"METRO: Congosto BUS: 54 , 142", ENSE�ANZA: Educaci�n Infantil - Primaria ,0,http://www.madrid.es/vgn-ext-templating/v/index.jsp?vgnextchannel=9e4c43db40317010VgnVCM100000dc0ca8c0RCRD&vgnextoid=ac2da3f5ca71c010VgnVCM1000000b205a0aRCRD,FUENTIDUE�A,CALLE,S/N,4,MADRID,MADRID,28031,CASCO H.VALLECAS,VILLA DE VALLECAS,447154,4469764,40.374905112512465,-3.6238093612915145,913 800 214,913 800 246,/contenido/entidadesYorganismos/CentrosEducacion/ColegiosPublicos
64474,Colegio P�blico El Sol,Comedor - Transporte - Horario Ampliado - Integraci�n preferente: Audtitivos- Planes de mejora,"BUS: 48 , 109 , 140",  Ense�anzas    Segundo ciclo de Educaci�n Infantil  Educaci�n Primaria   Educaci�n especial:   Educaci�n infantil   Educaci�n B�sica Obligatoria   ,0,http://www.madrid.es/vgn-ext-templating/v/index.jsp?vgnextchannel=9e4c43db40317010VgnVCM100000dc0ca8c0RCRD&vgnextoid=e667598d1351c010VgnVCM1000000b205a0aRCRD,CANILLEJAS A VICALVARO,AVENIDA,NUM,82,MADRID,MADRID,28022,ARCOS,SAN BLAS-CANILLEJAS,448221,4475206,40.423997382335585,-3.611684586484881,91 777 76 79  (Colegio P�blico) / 913 060 345 / 913 060 347 (Educaci�n Especial),913 060 347,/contenido/entidadesYorganismos/CentrosEducacion/ColegiosPublicos
5145,Colegio P�blico Emilia Pardo Baz�n,Comedor - Planes de mejora,"METRO: Embajadores BUS: 27, 34, 36, 41, 60, 119, 148, C1, C2 RENFE: Embajadores ", ENSE�ANZA: Educaci�n Infantil - Primaria - Ense�anza biling&uuml;e -  ,0,http://www.madrid.es/vgn-ext-templating/v/index.jsp?vgnextchannel=9e4c43db40317010VgnVCM100000dc0ca8c0RCRD&vgnextoid=f14da3f5ca71c010VgnVCM1000000b205a0aRCRD,VENTORRILLO,CALLE,V,14,MADRID,MADRID,28005,EMBAJADORES,CENTRO,440245,4473354,40.40677803487061,-3.705527696367566,915 306 059,915 275 184,/contenido/entidadesYorganismos/CentrosEducacion/ColegiosPublicos
5148,Colegio P�blico Ermita del Santo,Comedor - Horario ampliado - Planes de mejora,"BUS: 25 , 138", ENSE�ANZA: Educaci�n Infantil - Primaria  ,0,http://www.madrid.es/vgn-ext-templating/v/index.jsp?vgnextchannel=9e4c43db40317010VgnVCM100000dc0ca8c0RCRD&vgnextoid=9c6da3f5ca71c010VgnVCM1000000b205a0aRCRD,ERMITA DEL SANTO,PASEO,V,18,MADRID,MADRID,28011,PUERTA DEL ANGEL,LATINA,438732,4473826,40.41091984789517,-3.7234030687601254,914 642 590,914 642 590,/contenido/entidadesYorganismos/CentrosEducacion/ColegiosPublicos
5149,Colegio P�blico Escuelas Aguirre, Comedor - Horario ampliado - Integraci�n (preferentemente auditivos) ," BUS: 20 , 26 , 63 , 69 , 152 ", ENSE�ANZA: Educacion Infantil - Primaria - Ense�anza biling&uuml;e  ,0,http://www.madrid.es/vgn-ext-templating/v/index.jsp?vgnextchannel=9e4c43db40317010VgnVCM100000dc0ca8c0RCRD&vgnextoid=e18da3f5ca71c010VgnVCM1000000b205a0aRCRD,PIO BAROJA,CALLE,V,4,MADRID,MADRID,28009,NI�O JESUS,RETIRO,442897,4474196,40.41454970248996,-3.674350860475647,915 741 864,915 044 683,/contenido/entidadesYorganismos/CentrosEducacion/ColegiosPublicos
5150,Colegio P�blico Escuelas Bosque,Comedor - Transporte - Integraci�n (preferentemente mot�ricos) - Horario ampliado - Planes de mejora,"METRO: Francos Rodr�guez BUS: 44 , 64 , 126 , 127 , 128 , 132", ENSE�ANZA: Educaci�n Infantil - Primaria - Ense�anza biling&uuml;e   ,1,http://www.madrid.es/vgn-ext-templating/v/index.jsp?vgnextchannel=9e4c43db40317010VgnVCM100000dc0ca8c0RCRD&vgnextoid=379da3f5ca71c010VgnVCM1000000b205a0aRCRD,SANTO ANGEL DE LA GUARDA,AVENIDA,V,4,MADRID,MADRID,28039,VALDEZARZA,MONCLOA-ARAVACA,439697,4479154,40.45898733981378,-3.712536881730324,91 450 50 60- 91 459 05 57,91 459 05 57,/contenido/entidadesYorganismos/CentrosEducacion/ColegiosPublicos
5245,Colegio P�blico Esperanza, Comedor - Horario ampliado - Planes de mejora ," METRO: Esperanza BUS: 73 , 120 , 122 ", ENSE�ANZA: Educaci�n Infantil - Primaria - Ense�anza biling&uuml;e  ,0,http://www.madrid.es/vgn-ext-templating/v/index.jsp?vgnextchannel=9e4c43db40317010VgnVCM100000dc0ca8c0RCRD&vgnextoid=8cada3f5ca71c010VgnVCM1000000b205a0aRCRD,ANDORRA,CALLE,V,12,MADRID,MADRID,28043,CANILLAS,HORTALEZA,445359,4479383,40.46144263379954,-3.6457808079102354,913 003 012,913 003 012,/contenido/entidadesYorganismos/CentrosEducacion/ColegiosPublicos
5152,Colegio P�blico Eugenio Mar�a de Hostos,Comedor - Horario ampliado - Planes de mejora,"METRO: Antonio Machado BUS: 42 , 127 , 132", ENSE�ANZA: Educaci�n Infantil - Primaria - Ense�anza biling&uuml;e   ,0,http://www.madrid.es/vgn-ext-templating/v/index.jsp?vgnextchannel=9e4c43db40317010VgnVCM100000dc0ca8c0RCRD&vgnextoid=27dda3f5ca71c010VgnVCM1000000b205a0aRCRD,VALDEVARNES,CALLE,V,26,MADRID,MADRID,28039,VALDEZARZA,MONCLOA-ARAVACA,439262,4480287,40.469162084516505,-3.7177757178062834,913 866 937 / 913 736 366,913 866 937,/contenido/entidadesYorganismos/CentrosEducacion/ColegiosPublicos
5155,Colegio P�blico Felipe II,Comedor - Planes de mejora,"METRO: Ventilla BUS: 42 , 147", ENSE�ANZA: Educaci�n Infantil - Primaria  ,1,http://www.madrid.es/vgn-ext-templating/v/index.jsp?vgnextchannel=9e4c43db40317010VgnVCM100000dc0ca8c0RCRD&vgnextoid=c10ea3f5ca71c010VgnVCM1000000b205a0aRCRD,ASTURIAS,AVENIDA,V,70,MADRID,MADRID,28029,ALMENARA,TETUAN,440828,4480690,40.47290570166502,-3.699341838889918,913 157 353,917 339 393,/contenido/entidadesYorganismos/CentrosEducacion/ColegiosPublicos
5158,Colegio P�blico Fernando el Cat�lico,Comedor - Horario ampliado - Planes de mejora," METRO: Quevedo   BUS: 16 , 61 , 149 ", ENSE�ANZA: Educaci�n Infantil - Primaria - Ense�anza biling&uuml;e   ,1,http://www.madrid.es/vgn-ext-templating/v/index.jsp?vgnextchannel=9e4c43db40317010VgnVCM100000dc0ca8c0RCRD&vgnextoid=6c2ea3f5ca71c010VgnVCM1000000b205a0aRCRD,FERNANDO EL CATOLICO,CALLE,V,16,MADRID,MADRID,28015,ARAPILES,CHAMBERI,439912,4476390,40.434103689530446,-3.7097392943348284,914 442 902,914 469 251,/contenido/entidadesYorganismos/CentrosEducacion/ColegiosPublicos
5156,Colegio P�blico Fern�ndez de Morat�n,Comedor - Horario ampliado - Comedor - Planes de mejora,"BUS: 46 , 75", ENSE�ANZA: Educaci�n Infantil - Primaria  ,0,http://www.madrid.es/vgn-ext-templating/v/index.jsp?vgnextchannel=9e4c43db40317010VgnVCM100000dc0ca8c0RCRD&vgnextoid=171ea3f5ca71c010VgnVCM1000000b205a0aRCRD,VALLADOLID,AVENIDA,NUM,2,MADRID,MADRID,28008,CASA DE CAMPO,MONCLOA-ARAVACA,438415,4475584,40.42673321856838,-3.7273094844478685,915 479 787 - 915 596 791,915 596 791,/contenido/entidadesYorganismos/CentrosEducacion/ColegiosPublicos
5159,Colegio P�blico Fil�sofo S�neca,Comedor - Horario ampliado - Planes de mejora,"METRO: Parque de Santa Mar�a BUS: 9 , 107", ENSE�ANZA: Educaci�n Infantil - Primaria  ,0,http://www.madrid.es/vgn-ext-templating/v/index.jsp?vgnextchannel=9e4c43db40317010VgnVCM100000dc0ca8c0RCRD&vgnextoid=b14ea3f5ca71c010VgnVCM1000000b205a0aRCRD,SANTA ADELA,CALLE,V,21,MADRID,MADRID,28033,PINAR DEL REY,HORTALEZA,444995,4481266,40.478381551999256,-3.6502374703975162,917 638 145,913 817 216,/contenido/entidadesYorganismos/CentrosEducacion/ColegiosPublicos
5160,Colegio P�blico Fontarr�n,Comedor - Transporte - Integraci�n (preferentemente mot�ricos) - Horario ampliado - Planes de mejora,"BUS: 8 , 20 , 30 , 45 , 63 , 71 , 100 , 143 , E", ENSE�ANZA: Educaci�n Infantil - Primaria - Ense�anza biling&uuml;e   ,0,http://www.madrid.es/vgn-ext-templating/v/index.jsp?vgnextchannel=9e4c43db40317010VgnVCM100000dc0ca8c0RCRD&vgnextoid=075ea3f5ca71c010VgnVCM1000000b205a0aRCRD,ARROYO FONTARRON,CALLE,V,24,MADRID,MADRID,28030,PAVONES,MORATALAZ,446341,4472013,40.39511351284605,-3.6335755702199677,917 720 378,913 050 045,/contenido/entidadesYorganismos/CentrosEducacion/ColegiosPublicos
5161,Colegio P�blico Francisco Arranz,Transporte - Comedor - Horario ampliado - Planes de mejora,BUS: 34, ENSE�ANZA: Educaci�n Infantil - Primaria  ,0,http://www.madrid.es/vgn-ext-templating/v/index.jsp?vgnextchannel=9e4c43db40317010VgnVCM100000dc0ca8c0RCRD&vgnextoid=5c6ea3f5ca71c010VgnVCM1000000b205a0aRCRD,SONDICA,CALLE,V,2,MADRID,MADRID,28044,LAS AGUILAS,LATINA,435371,4469859,40.37492895164089,-3.762609414778231,917 066 882,917 066 882,/contenido/entidadesYorganismos/CentrosEducacion/ColegiosPublicos
5165,Colegio P�blico Francisco Fat�u,Comedor - Transporte -  Horario ampliado - Planes de mejora - Integraci�n preferente (Trastornos generales del desarrollo),"BUS: 58 , 142", ENSE�ANZA: Educaci�n Infantil - Primaria ,0,http://www.madrid.es/vgn-ext-templating/v/index.jsp?vgnextchannel=9e4c43db40317010VgnVCM100000dc0ca8c0RCRD&vgnextoid=91cea3f5ca71c010VgnVCM1000000b205a0aRCRD,SUERTE,CAMINO,S/N,23,MADRID,MADRID,28031,CASCO H.VALLECAS,VILLA DE VALLECAS,447611,4469880,40.37597903288599,-3.6184358604020184,913 321 050,913 323 222,/contenido/entidadesYorganismos/CentrosEducacion/ColegiosPublicos
5166,Colegio P�blico Francisco Ruano,Planes de mejora,"BUS: 24 , 102 , 111 , 144 RENFE: Entrevias", ENSE�ANZA: Educaci�n infantil - Primaria  ,0,http://www.madrid.es/vgn-ext-templating/v/index.jsp?vgnextchannel=9e4c43db40317010VgnVCM100000dc0ca8c0RCRD&vgnextoid=e6dea3f5ca71c010VgnVCM1000000b205a0aRCRD,ALMURADIEL,CALLE,NUM,150,MADRID,MADRID,28053,ENTREVIAS,PUENTE DE VALLECAS,442936,4470370,40.380085637390486,-3.673547648504667,917 862 196,917 862 196,/contenido/entidadesYorganismos/CentrosEducacion/ColegiosPublicos
5162,Colegio P�blico Francisco de Goya,Comedor - Horario ampliado - Planes de mejora,"METRO: Puerta del Angel BUS: 31 , 33 , 36 , 39 , 65 , 138", ENSE�ANZA: Educaci�n Infantil - Primaria  ,0,http://www.madrid.es/vgn-ext-templating/v/index.jsp?vgnextchannel=9e4c43db40317010VgnVCM100000dc0ca8c0RCRD&vgnextoid=a18ea3f5ca71c010VgnVCM1000000b205a0aRCRD,ANTILLON,CALLE,NUM,23,MADRID,MADRID,28011,PUERTA DEL ANGEL,LATINA,438360,4473859,40.411189612846165,-3.727790340862767,914 637 472,914 633 270,/contenido/entidadesYorganismos/CentrosEducacion/ColegiosPublicos
5163,Colegio P�blico Francisco de Luis,Comedor - Horario ampliado - Planes de mejora,"METRO: Estrella BUS: 8 , 20 , 30 , 32 , 113", ENSE�ANZA: Educaci�n Infantil - Primaria  ,0,http://www.madrid.es/vgn-ext-templating/v/index.jsp?vgnextchannel=9e4c43db40317010VgnVCM100000dc0ca8c0RCRD&vgnextoid=f69ea3f5ca71c010VgnVCM1000000b205a0aRCRD,CORREGIDOR RODRIGO RODRIGUEZ,CALLE,V,5,MADRID,MADRID,28030,MEDIA LEGUA,MORATALAZ,444085,4473553,40.40883801642817,-3.660292565776491,914 394 600,913 284 275,/contenido/entidadesYorganismos/CentrosEducacion/ColegiosPublicos
5164,Colegio P�blico Francisco de Quevedo, Comedor - Horario ampliado - Planes de mejora ,"METRO: Men�ndez Pelayo BUS: 24 , 37 , 54 , 57 , 102 , 141 , 152", ENSE�ANZA: Educaci�n Infantil - Primaria  ,0,http://www.madrid.es/vgn-ext-templating/v/index.jsp?vgnextchannel=9e4c43db40317010VgnVCM100000dc0ca8c0RCRD&vgnextoid=4caea3f5ca71c010VgnVCM1000000b205a0aRCRD,GRANADA,CALLE,V,16,MADRID,MADRID,28007,PACIFICO,RETIRO,442466,4473110,40.404727692050116,-3.679332106624429,915 515 211,914 333 827,/contenido/entidadesYorganismos/CentrosEducacion/ColegiosPublicos
5167,Colegio P�blico Fray Jun�pero Serra,Comedor - Horario ampliado - Planes de mejora,"METRO: Nueva Numancia BUS: 10 , 24 , 54 , 57 , 58 , 310 , 410", ENSE�ANZA: Educaci�n infantil - Primaria  ,0,http://www.madrid.es/vgn-ext-templating/v/index.jsp?vgnextchannel=9e4c43db40317010VgnVCM100000dc0ca8c0RCRD&vgnextoid=3ceea3f5ca71c010VgnVCM1000000b205a0aRCRD,VALDERRIBAS,CAMINO,V,120,MADRID,MADRID,28038,NUMANCIA,PUENTE DE VALLECAS,444255,4472050,40.395309545329106,-3.658157243926342,914 304 882,914 376 926,/contenido/entidadesYorganismos/CentrosEducacion/ColegiosPublicos
176824,Colegio P�blico Gabriela Mistral,Comedor - Horario ampliado," METRO: Las Tablas  BUS: 172, 176 ", ENSE�ANZA: Educaci�n Infantil - Primaria - Ense�anza biling&uuml;e  ,0,http://www.madrid.es/vgn-ext-templating/v/index.jsp?vgnextchannel=9e4c43db40317010VgnVCM100000dc0ca8c0RCRD&vgnextoid=0f044b6faa61c010VgnVCM1000000b205a0aRCRD,MIRALLOS,CALLE,V,3,MADRID,MADRID,28050,VALVERDE,FUENCARRAL-EL PARDO,443552,4484536,40.50774206131332,-3.6675525270094127,913 586 549,913 586 557,/contenido/entidadesYorganismos/CentrosEducacion/ColegiosPublicos
5082,Colegio P�blico Gandhi,Comedor - Horario ampliado - Planes de mejora,"METRO: Garc�a Noblejas BUS: 70 , 109 , 106", ENSE�ANZA: Educaci�n Infantil - Primaria  ,0,http://www.madrid.es/vgn-ext-templating/v/index.jsp?vgnextchannel=9e4c43db40317010VgnVCM100000dc0ca8c0RCRD&vgnextoid=810fa3f5ca71c010VgnVCM1000000b205a0aRCRD,GANDHI,CALLE,NUM,10,MADRID,MADRID,28017,PUEBLO NUEVO,CIUDAD LINEAL,446115,4475193,40.423746261606965,-3.6365082780370956,917 544 592 - 913 044 982 ,913 045 222,/contenido/entidadesYorganismos/CentrosEducacion/ColegiosPublicos
5169,Colegio P�blico Garcilaso de la Vega,Comedor - Horario ampliado - Planes de mejora,"METRO: Canillas BUS: 73 , 112 , 120", ENSE�ANZA: Educaci�n Infantil - Primaria - Ense�anza biling&uuml;e   ,0,http://www.madrid.es/vgn-ext-templating/v/index.jsp?vgnextchannel=9e4c43db40317010VgnVCM100000dc0ca8c0RCRD&vgnextoid=2c2fa3f5ca71c010VgnVCM1000000b205a0aRCRD,TREFACIO,CALLE,V,18,MADRID,MADRID,28043,CANILLAS,HORTALEZA,446353,4479992,40.46699372886275,-3.634108987557183,913 882 060,917 161 701,/contenido/entidadesYorganismos/CentrosEducacion/ColegiosPublicos
5168,Colegio P�blico Garc�a Morente,Comedor - Transporte - Planes de mejora,"BUS: 102 , 103 , 111", ENSE�ANZA: Educaci�n infantil - Primaria  ,0,http://www.madrid.es/vgn-ext-templating/v/index.jsp?vgnextchannel=9e4c43db40317010VgnVCM100000dc0ca8c0RCRD&vgnextoid=d61fa3f5ca71c010VgnVCM1000000b205a0aRCRD,SUR,RONDA,V,229,MADRID,MADRID,28053,ENTREVIAS,PUENTE DE VALLECAS,443615,4469619,40.37336648575158,-3.665482524950977,917 852 016,917 856 013,/contenido/entidadesYorganismos/CentrosEducacion/ColegiosPublicos
5171,Colegio P�blico Giner de los R�os,Comedor - Transporte - Planes de mejora,"BUS: 24 , 103 , 111 , 144 RENFE: Entrevias", ENSE�ANZA: Educaci�n infantil - Primaria  ,0,http://www.madrid.es/vgn-ext-templating/v/index.jsp?vgnextchannel=9e4c43db40317010VgnVCM100000dc0ca8c0RCRD&vgnextoid=c65fa3f5ca71c010VgnVCM1000000b205a0aRCRD,MEMBEZAR,CALLE,V,25,MADRID,MADRID,28053,ENTREVIAS,PUENTE DE VALLECAS,443366,4470305,40.379529471156005,-3.6684765035279683,917 858 021,917 858 021,/contenido/entidadesYorganismos/CentrosEducacion/ColegiosPublicos
5172,Colegio P�blico Gloria Fuertes,Comedor -  Horario ampliado - Planes de mejora,"BUS: 78 , 81 , 116 RENFE: Orcasitas", ENSE�ANZA: Educaci�n Infantil - Primaria  ,0,http://www.madrid.es/vgn-ext-templating/v/index.jsp?vgnextchannel=9e4c43db40317010VgnVCM100000dc0ca8c0RCRD&vgnextoid=1c6fa3f5ca71c010VgnVCM1000000b205a0aRCRD,CENSO,CALLE,NUM,3,MADRID,MADRID,28041,ORCASITAS,USERA,440245,4469195,40.369311628795366,-3.7051368370067617,913 414 448 - 913 412 180,913 410 018,/contenido/entidadesYorganismos/CentrosEducacion/ColegiosPublicos
5174,Colegio P�blico Gonzalo Fern�ndez de C�rdoba,Comedor - Horario ampliado - Planes de mejora,BUS: 65, ENSE�ANZA: Educacion Infantil - Primaria - Ense�anza biling&uuml;e   ,0,http://www.madrid.es/vgn-ext-templating/v/index.jsp?vgnextchannel=9e4c43db40317010VgnVCM100000dc0ca8c0RCRD&vgnextoid=b69fa3f5ca71c010VgnVCM1000000b205a0aRCRD,ADANERO,CALLE,V,3,MADRID,MADRID,28024,CAMPAMENTO,LATINA,433973,4472004,40.39414213700213,-3.7792987452696023,917 113 625,917 113 735,/contenido/entidadesYorganismos/CentrosEducacion/ColegiosPublicos
5173,Colegio P�blico Gonzalo de Berceo,Comedor - Horario ampliado - Planes de mejora,"METRO: Plaza El�ptica BUS: 47 , 55 , 81 , 247", ENSE�ANZA: Educaci�n Infantil - Primaria  ,0,http://www.madrid.es/vgn-ext-templating/v/index.jsp?vgnextchannel=9e4c43db40317010VgnVCM100000dc0ca8c0RCRD&vgnextoid=618fa3f5ca71c010VgnVCM1000000b205a0aRCRD,ABRANTES,AVENIDA,NUM,5,MADRID,MADRID,28025,ABRANTES,CARABANCHEL,438827,4470916,40.38471221481113,-3.722003386269505,915 697 819 (Infantil y Primer ciclo de Primaria) - 915 697 225 ( Segundo y tercer ciclo primaria),91 469 21 74,/contenido/entidadesYorganismos/CentrosEducacion/ColegiosPublicos
5176,Colegio P�blico Guindalera, Comedor. Planes de mejora. ," METRO: Parque Avenidas 
 BUS: 43 , 48 , 74 , 53 ", ENSE�ANZA: Educaci�n Infantil - Primaria ,0,http://www.madrid.es/vgn-ext-templating/v/index.jsp?vgnextchannel=9e4c43db40317010VgnVCM100000dc0ca8c0RCRD&vgnextoid=0cafa3f5ca71c010VgnVCM1000000b205a0aRCRD,BOSTON,CALLE,V,3,MADRID,MADRID,28028,GUINDALERA,SALAMANCA,443538,4476715,40.437285997697046,-3.6670202290755864,"917 252 437 - 913 559 839                  
",917 255 776,/contenido/entidadesYorganismos/CentrosEducacion/ColegiosPublicos
5177,Colegio P�blico Gustavo Adolfo B�cquer,Comedor - Horario ampliado - Transporte - Planes de mejora,"BUS: 15 , 28 , 110 , 113 , 210", ENSE�ANZA: Educaci�n Infantil - Primaria - Ense�anza biling&uuml;e   ,0,http://www.madrid.es/vgn-ext-templating/v/index.jsp?vgnextchannel=9e4c43db40317010VgnVCM100000dc0ca8c0RCRD&vgnextoid=51cfa3f5ca71c010VgnVCM1000000b205a0aRCRD,SANTA GENOVEVA,CALLE,V,32,MADRID,MADRID,28017,VENTAS,CIUDAD LINEAL,445052,4475231,40.42401892228641,-3.6490417567786837,914 051 507,914 053 498,/contenido/entidadesYorganismos/CentrosEducacion/ColegiosPublicos
5178,Colegio P�blico Hait�,Comedor -  Horario ampliado - Planes de mejora,"METRO: Carabanchel , Eugenia de Montijo BUS: 17 , 35", ENSE�ANZA: Educaci�n Infantil - Primaria  ,0,http://www.madrid.es/vgn-ext-templating/v/index.jsp?vgnextchannel=9e4c43db40317010VgnVCM100000dc0ca8c0RCRD&vgnextoid=a6dfa3f5ca71c010VgnVCM1000000b205a0aRCRD,GUABAIRO,CALLE,NUM,22,MADRID,MADRID,28047,VISTA ALEGRE,CARABANCHEL,436762,4471084,40.38607118178492,-3.7463468868792895,914 220 250,914 651 108,/contenido/entidadesYorganismos/CentrosEducacion/ColegiosPublicos
5179,Colegio P�blico Hermanos Pinz�n,Comedor - Horario ampliado,"BUS: 36 , 39 , 65 , 121 , 131"," ENSE�ANZA: Educaci�n Infantil - Primaria  Otra sede en C/ Calam�n, 3  ",0,http://www.madrid.es/vgn-ext-templating/v/index.jsp?vgnextchannel=9e4c43db40317010VgnVCM100000dc0ca8c0RCRD&vgnextoid=fbefa3f5ca71c010VgnVCM1000000b205a0aRCRD,AZOR,CALLE,V,4,MADRID,MADRID,28024,CAMPAMENTO,LATINA,434868,4472489,40.398581785882875,-3.7688034732056224,915 186 040,915 186 040,/contenido/entidadesYorganismos/CentrosEducacion/ColegiosPublicos
5180,Colegio P�blico Hern�n Cort�s,Comedor - Transporte - Integraci�n (preferentemente auditivos) - Horario ampliado - Planes de mejora,"BUS: 31 , 138 , 121", ENSE�ANZA: Educaci�n Infantil - Primaria - Ense�anza biling&uuml;e   ,0,http://www.madrid.es/vgn-ext-templating/v/index.jsp?vgnextchannel=9e4c43db40317010VgnVCM100000dc0ca8c0RCRD&vgnextoid=4100a3f5ca71c010VgnVCM1000000b205a0aRCRD,LOS YEBENES,CALLE,V,241,MADRID,MADRID,28047,ALUCHE,LATINA,436348,4471655,40.391183407465824,-3.7512812696024738,917 176 844,917 180 472,/contenido/entidadesYorganismos/CentrosEducacion/ColegiosPublicos
5182,Colegio P�blico Honduras, Comedor - Transporte -  Horario ampliado - Planes de mejora ," METRO: Villa de Vallecas  BUS: 54 , 58 , 103 , 142 ", ENSE�ANZA: Educaci�n Infantil - Primaria ,0,http://www.madrid.es/vgn-ext-templating/v/index.jsp?vgnextchannel=9e4c43db40317010VgnVCM100000dc0ca8c0RCRD&vgnextoid=9610a3f5ca71c010VgnVCM1000000b205a0aRCRD,FEDERICO GARCIA LORCA,PASEO,NUM,19,MADRID,MADRID,28031,CASCO H.VALLECAS,VILLA DE VALLECAS,447414,4470078,40.377750319496414,-3.6207727531375826,913 325 719 - 913 317 441,913 325 719,/contenido/entidadesYorganismos/CentrosEducacion/ColegiosPublicos
31747,Colegio P�blico Hortaleza,Comedor - Horario ampliado - Residencia,"BUS: 9 , 72 , 87 , 120 , 125", ENSE�ANZA: Educaci�n Infantil - Primaria  ,0,http://www.madrid.es/vgn-ext-templating/v/index.jsp?vgnextchannel=9e4c43db40317010VgnVCM100000dc0ca8c0RCRD&vgnextoid=72f9059cb751c010VgnVCM2000000c205a0aRCRD,VALDETORRES DE JARAMA,CALLE,V,1,MADRID,MADRID,28043,PINAR DEL REY,HORTALEZA,445202,4480605,40.47244065719513,-3.647738240999276,917 642 900,913 816 099,/contenido/entidadesYorganismos/CentrosEducacion/ColegiosPublicos
5183,Colegio P�blico Ignacio Zuloaga,Comedor - Horario ampliado - Planes de mejora,"METRO: Francos Rodr�guez BUS: 44 , 126 , 127 , 128 , 132", ENSE�ANZA: Educaci�n Infantil - Primaria  ,0,http://www.madrid.es/vgn-ext-templating/v/index.jsp?vgnextchannel=9e4c43db40317010VgnVCM100000dc0ca8c0RCRD&vgnextoid=eb20a3f5ca71c010VgnVCM1000000b205a0aRCRD,ALEJANDRO RODRIGUEZ,CALLE,NUM,34,MADRID,MADRID,28039,BELLAS VISTAS,TETUAN,439782,4478850,40.456254963753004,-3.711505537451778,914 509 620,913 980 080,/contenido/entidadesYorganismos/CentrosEducacion/ColegiosPublicos
176840,Colegio P�blico Infanta Leonor,Comedor - Horario ampliado - Planes de mejora,, ENSE�ANZA: Educacion Infantil - Primaria - Ense�anza biling&uuml;e   ,0,http://www.madrid.es/vgn-ext-templating/v/index.jsp?vgnextchannel=9e4c43db40317010VgnVCM100000dc0ca8c0RCRD&vgnextoid=54244b6faa61c010VgnVCM1000000b205a0aRCRD,MONASTERIO DE EL PAULAR,CALLE,,140,MADRID,MADRID,28049,MIRASIERRA,FUENCARRAL-EL PARDO,439827,4483668,40.499669521430285,-3.7114329556023478,917 508 788,917 508 847,/contenido/entidadesYorganismos/CentrosEducacion/ColegiosPublicos
5184,Colegio P�blico Isaac Alb�niz,Comedor - Horario ampliado - Planes de mejora,"BUS: 29 , 52 , 70 ,107", ENSE�ANZA: Educaci�n Infantil - Primaria - Ense�anza biling&uuml;e ,0,http://www.madrid.es/vgn-ext-templating/v/index.jsp?vgnextchannel=9e4c43db40317010VgnVCM100000dc0ca8c0RCRD&vgnextoid=3140a3f5ca71c010VgnVCM1000000b205a0aRCRD,DRACENA,CALLE,NUM,29,MADRID,MADRID,28016,NUEVA ESPA�A,CHAMARTIN,443382,4479707,40.46422875441015,-3.6691267410574406,913 596 972,913 596 972,/contenido/entidadesYorganismos/CentrosEducacion/ColegiosPublicos
5185,Colegio P�blico Isaac Peral,Comedor - Horario ampliado - Planes de mejora,"METRO: Oporto BUS: 47 , 55 , 81 , 108 , 118 , 247", ENSE�ANZA: Educaci�n Infantil - Primaria  ,0,http://www.madrid.es/vgn-ext-templating/v/index.jsp?vgnextchannel=9e4c43db40317010VgnVCM100000dc0ca8c0RCRD&vgnextoid=8650a3f5ca71c010VgnVCM1000000b205a0aRCRD,RUFINO NOVALVOS,GLORIETA,NUM,5,MADRID,MADRID,28025,PUERTA BONITA,CARABANCHEL,438073,4471098,40.38629580500656,-3.7309272123026656,914 726 780,914 726 780,/contenido/entidadesYorganismos/CentrosEducacion/ColegiosPublicos
5186,Colegio P�blico Isabel la Cat�lica,Comedor - Horario ampliado - Planes de mejora,"METRO: Tribunal BUS: 3 , 21, 37", ENSE�ANZA: Educaci�n Infantil - Primaria - Ense�anza biling&uuml;e   ,1,http://www.madrid.es/vgn-ext-templating/v/index.jsp?vgnextchannel=9e4c43db40317010VgnVCM100000dc0ca8c0RCRD&vgnextoid=db60a3f5ca71c010VgnVCM1000000b205a0aRCRD,BARCELO,CALLE,V,2,MADRID,MADRID,28004,JUSTICIA,CENTRO,440755,4475555,40.426642215368176,-3.699722994908341,915 217 840,915 229 393,/contenido/entidadesYorganismos/CentrosEducacion/ColegiosPublicos
5190,Colegio P�blico Jaime Balmes,Comedor - Integraci�n (preferentemente auditivos) - Planes de mejora,"BUS: 24 , 102", ENSE�ANZA: Educaci�n infantil - Primaria - Ense�anza biling&uuml;e   ,0,http://www.madrid.es/vgn-ext-templating/v/index.jsp?vgnextchannel=9e4c43db40317010VgnVCM100000dc0ca8c0RCRD&vgnextoid=2180a3f5ca71c010VgnVCM1000000b205a0aRCRD,SIERRA DE LA SOLANA,CALLE,NUM,2,MADRID,MADRID,28053,SAN DIEGO,PUENTE DE VALLECAS,443179,4471236,40.3879037093727,-3.6707625153722523,914 785 884,914 771 646,/contenido/entidadesYorganismos/CentrosEducacion/ColegiosPublicos
5191,Colegio P�blico Jaime Vera,Comedor - Horario ampliado - Planes de mejora," METRO: Estrecho   BUS: 3 , 43 , 64 , 66 , 124 , 128 ", ENSE�ANZA: Educaci�n Infantil - Primaria  ,0,http://www.madrid.es/vgn-ext-templating/v/index.jsp?vgnextchannel=9e4c43db40317010VgnVCM100000dc0ca8c0RCRD&vgnextoid=7690a3f5ca71c010VgnVCM1000000b205a0aRCRD,BRAVO MURILLO,CALLE,V,162,MADRID,MADRID,28020,CUATRO CAMINOS,TETUAN,440503,4478425,40.45247841346628,-3.702962807620527,915 723 019 - 915 723 026,915 709 453,/contenido/entidadesYorganismos/CentrosEducacion/ColegiosPublicos
5192,Colegio P�blico Javier de Miguel,Comedor  - Horario ampliado ,"BUS: 136, 310 ", ENSE�ANZA: Educaci�n infantil - Primaria - Ense�anza biling&uuml;e -  ,0,http://www.madrid.es/vgn-ext-templating/v/index.jsp?vgnextchannel=9e4c43db40317010VgnVCM100000dc0ca8c0RCRD&vgnextoid=cba0a3f5ca71c010VgnVCM1000000b205a0aRCRD,JAVIER DE MIGUEL,CALLE,V,90,MADRID,MADRID,28018,PALOMERAS BAJAS,PUENTE DE VALLECAS,444328,4471036,40.38617971853788,-3.657208307609012,913 035 102,913 805 770,/contenido/entidadesYorganismos/CentrosEducacion/ColegiosPublicos
5193,Colegio P�blico Joaqu�n Costa,Horario ampliado - Comedor - Planes de mejora - Integraci�n preferente (Trastornos generales del desarrollo),"METRO: Puerta Toledo, Pir�mides, Acacias  BUS: 3, 17, 18, 23, 35, 36, 41, 62, 148, C", ENSE�ANZA: Educaci�n Infantil - Primaria - Ense�anza biling&uuml;e -  ,0,http://www.madrid.es/vgn-ext-templating/v/index.jsp?vgnextchannel=9e4c43db40317010VgnVCM100000dc0ca8c0RCRD&vgnextoid=11c0a3f5ca71c010VgnVCM1000000b205a0aRCRD,PONTONES,PASEO,NUM,8,MADRID,MADRID,28005,IMPERIAL,ARGANZUELA,439477,4473224,40.40555135378083,-3.7145657673590473,913 653 632 - 913 642 825,913 653 559,/contenido/entidadesYorganismos/CentrosEducacion/ColegiosPublicos
5194,Colegio P�blico Joaqu�n Dicenta,Comedor - Horario ampliado - Planes de mejora,BUS: 138, ENSE�ANZA: Educaci�n Infantil - Primaria  ,0,http://www.madrid.es/vgn-ext-templating/v/index.jsp?vgnextchannel=9e4c43db40317010VgnVCM100000dc0ca8c0RCRD&vgnextoid=66d0a3f5ca71c010VgnVCM1000000b205a0aRCRD,OLIVOS,PASEO,V,70,MADRID,MADRID,28011,PUERTA DEL ANGEL,LATINA,437456,4473250,40.40563593391012,-3.7383841619985705,914 632 093,917 550 696,/contenido/entidadesYorganismos/CentrosEducacion/ColegiosPublicos
6025,Colegio P�blico Joaqu�n Turina,Comedor - Horario ampliado - Planes de mejora,"BUS 29 , 125 , 129 , 150", ENSE�ANZA: Educacion Infantil - Primaria  ,0,http://www.madrid.es/vgn-ext-templating/v/index.jsp?vgnextchannel=9e4c43db40317010VgnVCM100000dc0ca8c0RCRD&vgnextoid=4cd4ae10c471c010VgnVCM1000000b205a0aRCRD,ARTURO SORIA,CALLE,NUM,332,MADRID,MADRID,28033,COSTILLARES,CIUDAD LINEAL,443633,4481527,40.480641242461274,-3.66632834447267,913 025 556,913 022 741,/contenido/entidadesYorganismos/CentrosEducacion/ColegiosPublicos
5195,Colegio P�blico Jorge Guill�n,Comedor - Transporte - Integraci�n preferente (mot�ricos) - Horario ampliado,"METRO: Barrio del Pilar BUS: 42 , 49 , 126 , 128 , 147", ENSE�ANZA: Educaci�n Infantil - Primaria  ,1,http://www.madrid.es/vgn-ext-templating/v/index.jsp?vgnextchannel=9e4c43db40317010VgnVCM100000dc0ca8c0RCRD&vgnextoid=bbe0a3f5ca71c010VgnVCM1000000b205a0aRCRD,EL FERROL,AVENIDA,NUM,47,MADRID,MADRID,28029,EL PILAR,FUENCARRAL-EL PARDO,440121,4480963,40.47531422517472,-3.7077074438048214,917 393 801,917 393 801,/contenido/entidadesYorganismos/CentrosEducacion/ColegiosPublicos
5196,Colegio P�blico Jorge Manrique,Comedor - Horario ampliado - Planes de mejora,"METRO: Usera BUS: 55 , 60, 47, 147", ENSE�ANZA: Educaci�n Infantil - Primaria ,0,http://www.madrid.es/vgn-ext-templating/v/index.jsp?vgnextchannel=9e4c43db40317010VgnVCM100000dc0ca8c0RCRD&vgnextoid=0101a3f5ca71c010VgnVCM1000000b205a0aRCRD,PINTOR LUCAS,PLAZA,NUM,17,MADRID,MADRID,28026,MOSCARDO,USERA,439817,4471285,40.38810858515369,-3.710375518289677,915 656 300,915 691 615,/contenido/entidadesYorganismos/CentrosEducacion/ColegiosPublicos
5430866,Colegio P�blico Josep Tarradellas,Horario ampliado - Comedor," Bus: 172, 176  Metro: Las Tablas ", ENSE�ANZA: Educaci�n infantil - Primaria  ,0,http://www.madrid.es/vgn-ext-templating/v/index.jsp?vgnextchannel=9e4c43db40317010VgnVCM100000dc0ca8c0RCRD&vgnextoid=0f3147ec3af04210VgnVCM1000000b205a0aRCRD,TRIACASTELA,CALLE,V,1,MADRID,MADRID,28050,VALVERDE,FUENCARRAL-EL PARDO,443308,4484759,40.50973426099199,-3.670452271301756,914 274 125,914 274 161,/contenido/entidadesYorganismos/CentrosEducacion/ColegiosPublicos
5197,Colegio P�blico Jos� Bergam�n,Comedor - Horario ampliado - Planes de mejora,"METRO: Fuencarral BUS: 66 ,124 , 137", ENSE�ANZA: Educaci�n Infantil - Primaria  ,0,http://www.madrid.es/vgn-ext-templating/v/index.jsp?vgnextchannel=9e4c43db40317010VgnVCM100000dc0ca8c0RCRD&vgnextoid=5611a3f5ca71c010VgnVCM1000000b205a0aRCRD,BRAILLE,CALLE,NUM,19,MADRID,MADRID,28034,VALVERDE,FUENCARRAL-EL PARDO,441127,4483197,40.495510999757265,-3.6960480794830053,917 355 560 -917 345 042,91 734 50 42,/contenido/entidadesYorganismos/CentrosEducacion/ColegiosPublicos
5198,Colegio P�blico Jos� Calvo Sotelo,Comedor - Horario ampliado,"METRO: Pac�fico, Puente de Vallecas BUS: 8 , 10 , 24 , 37 , 54 , 56 , 57 , 136 , 141 , 310 ", ENSE�ANZA: Educaci�n Infantil - Primaria  ,0,http://www.madrid.es/vgn-ext-templating/v/index.jsp?vgnextchannel=9e4c43db40317010VgnVCM100000dc0ca8c0RCRD&vgnextoid=ab21a3f5ca71c010VgnVCM1000000b205a0aRCRD,CIUDAD DE BARCELONA,AVENIDA,V,83,MADRID,MADRID,28007,ADELFAS,RETIRO,442935,4472674,40.4008413126834,-3.6737662524006756,914 337 125,914 336 781,/contenido/entidadesYorganismos/CentrosEducacion/ColegiosPublicos
5200,Colegio P�blico Jos� Mar�a de Pereda,Comedor - Horario ampliado - Planes de mejora,"BUS: 24 , 102 , 111", ENSE�ANZA: Educaci�n infantil - Primaria  ,0,http://www.madrid.es/vgn-ext-templating/v/index.jsp?vgnextchannel=9e4c43db40317010VgnVCM100000dc0ca8c0RCRD&vgnextoid=f041a3f5ca71c010VgnVCM1000000b205a0aRCRD,MESTANZA,CALLE,V,94,MADRID,MADRID,28053,ENTREVIAS,PUENTE DE VALLECAS,442824,4470565,40.381834618749636,-3.6748845263872902,915 072 651,917 861 787,/contenido/entidadesYorganismos/CentrosEducacion/ColegiosPublicos
5201,Colegio P�blico Jos� Ortega y Gasset,Comedor - Horario ampliado - Planes de mejora - Integraci�n preferente (Trastornos generales del desarrollo)," METRO: Tetu�n, Valdeacederas  BUS: 149, 66, 124 ", ENSE�ANZA: Educaci�n Infantil - Primaria - Ense�anza biling&uuml;e ,0,http://www.madrid.es/vgn-ext-templating/v/index.jsp?vgnextchannel=9e4c43db40317010VgnVCM100000dc0ca8c0RCRD&vgnextoid=4651a3f5ca71c010VgnVCM1000000b205a0aRCRD,ORENSE,CALLE,NUM,87,MADRID,MADRID,28020,CASTILLEJOS,TETUAN,441254,4479432,40.461603417432755,-3.6942000296394557,915 720 997,915 701 341,/contenido/entidadesYorganismos/CentrosEducacion/ColegiosPublicos
6518289,Colegio P�blico Jos� de Echegaray,, BUS: 142 , ENSE�ANZA: Educaci�n Infantil - Primaria - Ense�anza Biling&uuml;e ,0,http://www.madrid.es/vgn-ext-templating/v/index.jsp?vgnextchannel=9e4c43db40317010VgnVCM100000dc0ca8c0RCRD&vgnextoid=dd26d08058cd8310VgnVCM2000000c205a0aRCRD,PUENTEDEY,CALLE,V,14,MADRID,MADRID,28051,CASCO H.VALLECAS,VILLA DE VALLECAS,447938,4469021,40.368261154491805,-3.614501949365195,913 323 789 y 913 313 437,913 323 789,/contenido/entidadesYorganismos/CentrosEducacion/ColegiosPublicos
5202,Colegio P�blico Jovellanos,Comedor - Transporte - Horario ampliado - Planes de mejora - Integraci�n preferente (Trastornos generales del desarrollo),"BUS: 34 , 39 , 139 RENFE: Las Aguilas", ENSE�ANZA: Educaci�n Infantil - Primaria  ,0,http://www.madrid.es/vgn-ext-templating/v/index.jsp?vgnextchannel=9e4c43db40317010VgnVCM100000dc0ca8c0RCRD&vgnextoid=9b61a3f5ca71c010VgnVCM1000000b205a0aRCRD,MONROY,CALLE,V,34,MADRID,MADRID,28044,LAS AGUILAS,LATINA,433643,4470356,40.379270096494,-3.783014879023733,917 055 018,915 095 089,/contenido/entidadesYorganismos/CentrosEducacion/ColegiosPublicos
5204,Colegio P�blico Juan Gris,Comedor - Transporte - Horario ampliado - Planes de mejora,"BUS: 58 , 142 , 54 METRO: Congosto", ENSE�ANZA: Educaci�n Infantil - Primaria  ,0,http://www.madrid.es/vgn-ext-templating/v/index.jsp?vgnextchannel=9e4c43db40317010VgnVCM100000dc0ca8c0RCRD&vgnextoid=3691a3f5ca71c010VgnVCM1000000b205a0aRCRD,MUELA DE SAN JUAN,CALLE,V,31,MADRID,MADRID,28031,CASCO H.VALLECAS,VILLA DE VALLECAS,447701,4469508,40.372633463040025,-3.6173451376298167,913 327 264,913 327 263,/contenido/entidadesYorganismos/CentrosEducacion/ColegiosPublicos
5205,Colegio P�blico Juan Ram�n Jim�nez,Horario ampliado - Comedor,"METRO: Tetu�n BUS: 66 , 124", ENSE�ANZA: Educaci�n Infantil - Primaria  ,0,http://www.madrid.es/vgn-ext-templating/v/index.jsp?vgnextchannel=9e4c43db40317010VgnVCM100000dc0ca8c0RCRD&vgnextoid=8ba1a3f5ca71c010VgnVCM1000000b205a0aRCRD,MARQUES DE VIANA,CALLE,NUM,58,MADRID,MADRID,28039,VALDEACEDERAS,TETUAN,440490,4479624,40.46327856245691,-3.7032287227178435,915 717 512,914 250 976,/contenido/entidadesYorganismos/CentrosEducacion/ColegiosPublicos
5206,Colegio P�blico Juan Sebasti�n Elcano,Comedor - Horario ampliado - Planes de mejora,"METRO: Usera BUS: 6 , 23 , 47", ENSE�ANZA: Educaci�n Infantil - Primaria  ,0,http://www.madrid.es/vgn-ext-templating/v/index.jsp?vgnextchannel=9e4c43db40317010VgnVCM100000dc0ca8c0RCRD&vgnextoid=d0c1a3f5ca71c010VgnVCM1000000b205a0aRCRD,MIRASIERRA,CALLE,NUM,29,MADRID,MADRID,28026,MOSCARDO,USERA,440294,4471385,40.38904382319174,-3.704765272620041,914 765 139,914 768 107,/contenido/entidadesYorganismos/CentrosEducacion/ColegiosPublicos
5207,Colegio P�blico Juan Zarag�eta,Transporte - Horario ampliado - Comedor - Planes de mejora,"METRO: San Lorenzo BUS: 72 , 87", ENSE�ANZA: Educaci�n Infantil - Primaria - Ense�anza biling&uuml;e   ,0,http://www.madrid.es/vgn-ext-templating/v/index.jsp?vgnextchannel=9e4c43db40317010VgnVCM100000dc0ca8c0RCRD&vgnextoid=26d1a3f5ca71c010VgnVCM1000000b205a0aRCRD,VIA DE LOS POBLADOS,CALLE,V,19,MADRID,MADRID,28033,VALDEFUENTES,HORTALEZA,446619,4480558,40.47210978701385,-3.631007402473766,917 630 869 - 913 821 057,917 630 869,/contenido/entidadesYorganismos/CentrosEducacion/ColegiosPublicos
5203,Colegio P�blico Juan de la Cierva,Comedor -  Horario ampliado - Planes de mejora - Integraci�n preferente (Trastornos generales del desarrollo)," BUS: 22 , 59 , 79 , 85 , 123 , 130  METRO: Villaverde Bajo Cruce ", ENSE�ANZA: Educaci�n Infantil - Primaria  ,0,http://www.madrid.es/vgn-ext-templating/v/index.jsp?vgnextchannel=9e4c43db40317010VgnVCM100000dc0ca8c0RCRD&vgnextoid=e081a3f5ca71c010VgnVCM1000000b205a0aRCRD,VILLARROSA,CALLE,NUM,7,MADRID,MADRID,28041,LOS ROSALES,VILLAVERDE,441478,4467534,40.354436009188994,-3.690461923731924,917 965 560 - 917 230 235,917 965 560,/contenido/entidadesYorganismos/CentrosEducacion/ColegiosPublicos
5208,Colegio P�blico Juli�n Besteiro,Comedor - Planes de mejora,"METRO: Abrantes BUS: 47 , 108 , 118", ENSE�ANZA: Educaci�n Infantil - Primaria  ,0,http://www.madrid.es/vgn-ext-templating/v/index.jsp?vgnextchannel=9e4c43db40317010VgnVCM100000dc0ca8c0RCRD&vgnextoid=7be1a3f5ca71c010VgnVCM1000000b205a0aRCRD,ABRANTES,AVENIDA,NUM,79,MADRID,MADRID,28025,ABRANTES,CARABANCHEL,438306,4470466,40.38059274136839,-3.7281206806824976,915 600 091,915 655 204,/contenido/entidadesYorganismos/CentrosEducacion/ColegiosPublicos
176859,Colegio P�blico Juli�n Mar�as, Horario ampliado - Comedor. ,"BUS: 38 , 140",ENSE�ANZA: Educacion Infantil - Primaria,0,http://www.madrid.es/vgn-ext-templating/v/index.jsp?vgnextchannel=9e4c43db40317010VgnVCM100000dc0ca8c0RCRD&vgnextoid=fe444b6faa61c010VgnVCM1000000b205a0aRCRD,BUDAPEST,CALLE,V,11,MADRID,MADRID,28022,ROSAS,SAN BLAS-CANILLEJAS,448996,4475550,40.42714432750662,-3.6025767698118516,917 609 323,917 609 319,/contenido/entidadesYorganismos/CentrosEducacion/ColegiosPublicos
5153,Colegio P�blico La Alameda,Comedor - Horario ampliado - Planes de mejora,"BUS: 38 , 48 , 140", ENSE�ANZA: Educaci�n infantil - Primaria - Ense�anza biling&uuml;e   ,0,http://www.madrid.es/vgn-ext-templating/v/index.jsp?vgnextchannel=9e4c43db40317010VgnVCM100000dc0ca8c0RCRD&vgnextoid=c002a3f5ca71c010VgnVCM1000000b205a0aRCRD,MUSAS,CALLE,NUM,9,MADRID,MADRID,28022,CANILLEJAS,SAN BLAS-CANILLEJAS,448509,4476708,40.43753723503757,-3.6084115811852313,917 411 453,913 204 540,/contenido/entidadesYorganismos/CentrosEducacion/ColegiosPublicos
6023,Colegio P�blico La Dehesa del Pr�ncipe,Comedor - Horario ampliado - Planes de mejora,METRO: Cuatro Vientos BUS: 139 RENFE: Cuatro Vientos, ENSE�ANZA: Educacion Infantil - Primaria  ,0,http://www.madrid.es/vgn-ext-templating/v/index.jsp?vgnextchannel=9e4c43db40317010VgnVCM100000dc0ca8c0RCRD&vgnextoid=a1b4ae10c471c010VgnVCM1000000b205a0aRCRD,LANCEROS,PASEO,V,4,MADRID,MADRID,28024,CAMPAMENTO,LATINA,432715,4470420,40.37977209501616,-3.7939529685128695,915 091 679,915 090 044,/contenido/entidadesYorganismos/CentrosEducacion/ColegiosPublicos
5210,Colegio P�blico La Latina,Comedor - Horario ampliado - Planes de mejora - Integraci�n preferente (Trastornos generales del desarrollo),"METRO: Aluche BUS: 17 , 121 , 131 , H RENFE: Aluche", ENSE�ANZA: Educaci�n Infantil - Primaria  ,0,http://www.madrid.es/vgn-ext-templating/v/index.jsp?vgnextchannel=9e4c43db40317010VgnVCM100000dc0ca8c0RCRD&vgnextoid=1612a3f5ca71c010VgnVCM1000000b205a0aRCRD,MAQUEDA,CALLE,NUM,130,MADRID,MADRID,28024,ALUCHE,LATINA,435434,4471408,40.388887867589375,-3.7620245761086015,915 099 915,917 196 252,/contenido/entidadesYorganismos/CentrosEducacion/ColegiosPublicos
5294,Colegio P�blico La Rioja, Comedor - Planes de mejora ,"METRO: Miguel Hern�ndez BUS: 54 , 58 , 103 , 142 , 143 , 144", ENSE�ANZA: Educaci�n infantil - Primaria  ,0,http://www.madrid.es/vgn-ext-templating/v/index.jsp?vgnextchannel=9e4c43db40317010VgnVCM100000dc0ca8c0RCRD&vgnextoid=6b22a3f5ca71c010VgnVCM1000000b205a0aRCRD,LEON FELIPE,CALLE,NUM,3,MADRID,MADRID,28038,PALOMERAS SURESTE,PUENTE DE VALLECAS,446044,4471242,40.388148628884075,-3.637009550808539,917 773 912,917 773 912,/contenido/entidadesYorganismos/CentrosEducacion/ColegiosPublicos
5211,Colegio P�blico Legado Crespo,Comedor - Horario ampliado - Planes de mejora," METRO: Embajadores   BUS: 27 , 34 , 36 , 60 , 69 , 78 , 116 , 118 , 119   RENFE: Embajadores ", ENSE�ANZA: Educaci�n Infantil - Primaria - Ense�anza biling&uuml;e ,0,http://www.madrid.es/vgn-ext-templating/v/index.jsp?vgnextchannel=9e4c43db40317010VgnVCM100000dc0ca8c0RCRD&vgnextoid=b042a3f5ca71c010VgnVCM1000000b205a0aRCRD,ACACIAS,PASEO,V,2,MADRID,MADRID,28005,ACACIAS,ARGANZUELA,440380,4473134,40.404805864280796,-3.7039161461158803,915 286 325,915 286 325,/contenido/entidadesYorganismos/CentrosEducacion/ColegiosPublicos
5212,Colegio P�blico Leopoldo Alas,Comedor - Horario ampliado - Planes de mejora,"BUS: 15 , 28 , 106 , 110 , 210", ENSE�ANZA: Educaci�n Infantil - Primaria  ,0,http://www.madrid.es/vgn-ext-templating/v/index.jsp?vgnextchannel=9e4c43db40317010VgnVCM100000dc0ca8c0RCRD&vgnextoid=0652a3f5ca71c010VgnVCM1000000b205a0aRCRD,PEDREZUELA,CALLE,NUM,18,MADRID,MADRID,28017,VENTAS,CIUDAD LINEAL,444683,4475703,40.42824645764569,-3.6534325307123314,914 033 755,914 042 281,/contenido/entidadesYorganismos/CentrosEducacion/ColegiosPublicos
4974266,Colegio P�blico Leopoldo Calvo Sotelo,Horario ampliado - Comedor," BUS: 172, 176 ", ENSE�ANZA: Educacion Infantil - Primaria - Ense�anza biling&uuml;e   ,0,http://www.madrid.es/vgn-ext-templating/v/index.jsp?vgnextchannel=9e4c43db40317010VgnVCM100000dc0ca8c0RCRD&vgnextoid=7205ffc4131ab110VgnVCM2000000c205a0aRCRD,CASTIELLO DE JACA,CALLE,V,2,MADRID,MADRID,28050,VALVERDE,FUENCARRAL-EL PARDO,442903,4483774,40.50083316755261,-3.675143321637599,914 273 351,914 273 083,/contenido/entidadesYorganismos/CentrosEducacion/ColegiosPublicos
5213,Colegio P�blico Lepanto,Comedor - Horario ampliado,"METRO: Antonio Machado BUS: 42 , 127 , 132", ENSE�ANZA: Educaci�n Infantil - Primaria - Ense�anza biling&uuml;e   ,0,http://www.madrid.es/vgn-ext-templating/v/index.jsp?vgnextchannel=9e4c43db40317010VgnVCM100000dc0ca8c0RCRD&vgnextoid=5b62a3f5ca71c010VgnVCM1000000b205a0aRCRD,VALDERREY,CALLE,V,9,MADRID,MADRID,28035,VALDEZARZA,MONCLOA-ARAVACA,438984,4480209,40.46843902268448,-3.7210473028721722,913 160 937,913 738 204,/contenido/entidadesYorganismos/CentrosEducacion/ColegiosPublicos
5214,Colegio P�blico Lope de Vega,Comedor - Planes de mejora," Metro: Urgel   Bus: 34 , 35 , 118 , 119 ", ENSE�ANZA: Educaci�n Infantil - Primaria  ,0,http://www.madrid.es/vgn-ext-templating/v/index.jsp?vgnextchannel=9e4c43db40317010VgnVCM100000dc0ca8c0RCRD&vgnextoid=a082a3f5ca71c010VgnVCM1000000b205a0aRCRD,INGLATERRA,CALLE,NUM,8,MADRID,MADRID,28019,SAN ISIDRO,CARABANCHEL,438731,4472019,40.39460546257796,-3.7232402248952865,914 710 955,914 710 955,/contenido/entidadesYorganismos/CentrosEducacion/ColegiosPublicos
5215,Colegio P�blico Lorenzo Luzuriaga,Transporte - Comedor - Horario ampliado - Planes de mejora,"METRO: Herrera Oria BUS: 49 , 67 , 83 , 124 , 133 , 134", ENSE�ANZA: Educaci�n Infantil - Primaria - Ense�anza biling&uuml;e  ,0,http://www.madrid.es/vgn-ext-templating/v/index.jsp?vgnextchannel=9e4c43db40317010VgnVCM100000dc0ca8c0RCRD&vgnextoid=f592a3f5ca71c010VgnVCM1000000b205a0aRCRD,VALENCIA DE DON JUAN,CALLE,V,13,MADRID,MADRID,28034,LA PAZ,FUENCARRAL-EL PARDO,440648,4482217,40.48664862656937,-3.7016083209102453,917 305 938,917 314 362,/contenido/entidadesYorganismos/CentrosEducacion/ColegiosPublicos
64457,Colegio P�blico Los Almendros,Comedor - Horario ampliado,"METRO: Valdebernardo BUS: 8 , 71 , 130", ENSE�ANZA: Educaci�n infantil - Primaria  ,0,http://www.madrid.es/vgn-ext-templating/v/index.jsp?vgnextchannel=9e4c43db40317010VgnVCM100000dc0ca8c0RCRD&vgnextoid=c897598d1351c010VgnVCM1000000b205a0aRCRD,LADERA DE LOS ALMENDROS,CALLE,NUM,45,MADRID,MADRID,28032,CASCO H.VICALVARO,VICALVARO,447004,4472139,40.39629114218003,-3.625774203881319,917 510 982,917 726 814,/contenido/entidadesYorganismos/CentrosEducacion/ColegiosPublicos
5296,Colegio P�blico Los Rosales,Comedor -  Horario ampliado - Planes de mejora,"BUS: 85 , 123 , 713", ENSE�ANZA: Educaci�n Infantil - Primaria  ,0,http://www.madrid.es/vgn-ext-templating/v/index.jsp?vgnextchannel=9e4c43db40317010VgnVCM100000dc0ca8c0RCRD&vgnextoid=4ba2a3f5ca71c010VgnVCM1000000b205a0aRCRD,LOS ROSALES,AVENIDA,V,131,MADRID,MADRID,28021,BUTARQUE,VILLAVERDE,442548,4467228,40.35175390495651,-3.677834634453844,917 956 756,917 956 756,/contenido/entidadesYorganismos/CentrosEducacion/ColegiosPublicos
4974277,Colegio P�blico Loyola de Palacio,Comedor - Horario ampliado - Planes de mejora," METRO: LAS SUERTES  BUS: 142, 145 ",ENSE�ANZA: Educaci�n Infantil 2&ordm; Ciclo - Primaria - ESO,0,http://www.madrid.es/vgn-ext-templating/v/index.jsp?vgnextchannel=9e4c43db40317010VgnVCM100000dc0ca8c0RCRD&vgnextoid=4c96ffc4131ab110VgnVCM2000000c205a0aRCRD,EMBALSE DE NAVACERRADA,CALLE,V,60,MADRID,MADRID,28051,CASCO H.VALLECAS,VILLA DE VALLECAS,449296,4468166,40.36064250120841,-3.5984510871197415,913 326 020 - 913 851 330,913 326 020,/contenido/entidadesYorganismos/CentrosEducacion/ColegiosPublicos
5216,Colegio P�blico Luis Bello,Comedor - Horario ampliado - Planes de mejora,"METRO: Prosperidad BUS: 1 , 9 , 73", ENSE�ANZA: Educaci�n Infantil - Primaria - Ense�anza biling&uuml;e -  ,1,http://www.madrid.es/vgn-ext-templating/v/index.jsp?vgnextchannel=9e4c43db40317010VgnVCM100000dc0ca8c0RCRD&vgnextoid=90c2a3f5ca71c010VgnVCM1000000b205a0aRCRD,LUIS CABRERA,CALLE,V,66,MADRID,MADRID,28002,PROSPERIDAD,CHAMARTIN,442990,4477429,40.44368060148635,-3.6735452726272593,912 205 533,912 205 535,/contenido/entidadesYorganismos/CentrosEducacion/ColegiosPublicos
5217,Colegio P�blico Luis Cernuda,Comedor - Horario ampliado - Planes de mejora,"METRO: Esperanza, Arturo Soria   BUS: 9, 72, 73 ,120 ,122", ENSE�ANZA: Educaci�n Infantil - Primaria - Ense�anza biling&uuml;e   ,0,http://www.madrid.es/vgn-ext-templating/v/index.jsp?vgnextchannel=9e4c43db40317010VgnVCM100000dc0ca8c0RCRD&vgnextoid=e5d2a3f5ca71c010VgnVCM1000000b205a0aRCRD,CARRIL DEL CONDE,CALLE,V,64,MADRID,MADRID,28043,CANILLAS,HORTALEZA,444663,4479374,40.46131540437997,-3.6539887453598747,913 002 732,913 002 732,/contenido/entidadesYorganismos/CentrosEducacion/ColegiosPublicos
5218,Colegio P�blico Luis de G�ngora,Comedor," METRO: Pe�agrande   BUS: 42 , 126 , 132 , 137 , 147 ", ENSE�ANZA: Educaci�n Infantil - Primaria  ,0,http://www.madrid.es/vgn-ext-templating/v/index.jsp?vgnextchannel=9e4c43db40317010VgnVCM100000dc0ca8c0RCRD&vgnextoid=3be2a3f5ca71c010VgnVCM1000000b205a0aRCRD,SARRIA,CALLE,NUM,49,MADRID,MADRID,28029,EL PILAR,FUENCARRAL-EL PARDO,439552,4480888,40.47459730345878,-3.714412445984112,91 386 08 16,,/contenido/entidadesYorganismos/CentrosEducacion/ColegiosPublicos
42017,Colegio P�blico Madrid Sur,Comedor,BUS: 102 * 136 * 310 * 410 RENFE: El Pozo,  ENSE�ANZA : Educaci�n infantil - Primaria  ,0,http://www.madrid.es/vgn-ext-templating/v/index.jsp?vgnextchannel=9e4c43db40317010VgnVCM100000dc0ca8c0RCRD&vgnextoid=cfa7598d1351c010VgnVCM1000000b205a0aRCRD,PUERTO DE BALBARAN,CALLE,V,133,MADRID,MADRID,28018,PALOMERAS BAJAS,PUENTE DE VALLECAS,444478,4469969,40.37657755418934,-3.6553480036748622,91 785 55 39,,/contenido/entidadesYorganismos/CentrosEducacion/ColegiosPublicos
5792191,Colegio P�blico Maestro Padilla, Horario ampliado - Comedor ," Bus: 35, 118, 155 ", ENSE�ANZA: Educaci�n Infantil - Primaria - Ense�anza Biling&uuml;e ,0,http://www.madrid.es/vgn-ext-templating/v/index.jsp?vgnextchannel=9e4c43db40317010VgnVCM100000dc0ca8c0RCRD&vgnextoid=8b5800444dcca210VgnVCM2000000c205a0aRCRD,PESETA,AVENIDA,V,112,MADRID,MADRID,28054,BUENAVISTA,CARABANCHEL,436676,4468490,40.3626409159049,-3.747372159760245,911 731 852 - 699 502 386,911 724 720,/contenido/entidadesYorganismos/CentrosEducacion/ColegiosPublicos
5221,Colegio P�blico Manuel Bartolom� Coss�o,Comedor - Transporte -  Horario ampliado - Planes de mejora,"BUS: 17 , 139 RENFE: Fanjul", ENSE�ANZA: Educaci�n Infantil - Primaria - Ense�anza biling&uuml;e   ,0,http://www.madrid.es/vgn-ext-templating/v/index.jsp?vgnextchannel=9e4c43db40317010VgnVCM100000dc0ca8c0RCRD&vgnextoid=8003a3f5ca71c010VgnVCM1000000b205a0aRCRD,JOSE DE CADALSO,CALLE,V,19,MADRID,MADRID,28044,LAS AGUILAS,LATINA,434603,4470579,40.38135498597348,-3.7717294965452615,917 067 408 (Infantil) / 917 064 098 (Primaria),917 064 098,/contenido/entidadesYorganismos/CentrosEducacion/ColegiosPublicos
5223,Colegio P�blico Manuel N��ez de Arenas,Comedor - Transporte - Horario ampliado - Planes de mejora,"BUS: 24 , 102", ENSE�ANZA: Educaci�n infantil - Primaria  ,0,http://www.madrid.es/vgn-ext-templating/v/index.jsp?vgnextchannel=9e4c43db40317010VgnVCM100000dc0ca8c0RCRD&vgnextoid=2b23a3f5ca71c010VgnVCM1000000b205a0aRCRD,MARTOS,CALLE,V,120,MADRID,MADRID,28053,ENTREVIAS,PUENTE DE VALLECAS,443934,4469826,40.37525283072323,-3.661743346960403,917 855 972 - 917 855 923,917 860 204,/contenido/entidadesYorganismos/CentrosEducacion/ColegiosPublicos
5224,Colegio P�blico Manuel S�inz de Vicu�a, Comedor - Horario ampliado - Planes de mejora ," METRO: Vinateros BUS: 32 , 71 ", ENSE�ANZA: Educaci�n Infantil - Primaria - Ense�anza Biling&uuml;e - ,0,http://www.madrid.es/vgn-ext-templating/v/index.jsp?vgnextchannel=9e4c43db40317010VgnVCM100000dc0ca8c0RCRD&vgnextoid=7043a3f5ca71c010VgnVCM1000000b205a0aRCRD,CAMINO DE LOS VINATEROS,CALLE,NUM,104,MADRID,MADRID,28030,MARROQUINA,MORATALAZ,444960,4473613,40.4094369606419,-3.6499859326517705,914 391 349,913 285 625,/contenido/entidadesYorganismos/CentrosEducacion/ColegiosPublicos
5222,Colegio P�blico Manuel de Falla,Transporte - Comedor ,"BUS: 22 , 76 , 86 , 130 , 131 RENFE: Puente Alcocer", ENSE�ANZA: Educaci�n Infantil - Primaria  ,0,http://www.madrid.es/vgn-ext-templating/v/index.jsp?vgnextchannel=9e4c43db40317010VgnVCM100000dc0ca8c0RCRD&vgnextoid=d513a3f5ca71c010VgnVCM1000000b205a0aRCRD,JOSE ORTU&Ntilde;O PONCE,CALLE,V,2,MADRID,MADRID,28021,SAN ANDRES,VILLAVERDE,440193,4466636,40.34625498819677,-3.705508952749143,917 971 448,917 971 448,/contenido/entidadesYorganismos/CentrosEducacion/ColegiosPublicos
5226,Colegio P�blico Marcelo Usera,Comedor - Horario ampliado - Planes de mejora - Integraci�n preferente (Trastornos generales del desarrollo),"METRO: Usera BUS: 6 , 18 , 22 , 47 , 59 , 76 , 78 , 79 , 85 , 86 , 247", ENSE�ANZA: Educaci�n Infantil - Primaria  ,0,http://www.madrid.es/vgn-ext-templating/v/index.jsp?vgnextchannel=9e4c43db40317010VgnVCM100000dc0ca8c0RCRD&vgnextoid=1b63a3f5ca71c010VgnVCM1000000b205a0aRCRD,PERALES DE TAJU�A,CALLE,NUM,1,MADRID,MADRID,28026,ALMENDRALES,USERA,440730,4471172,40.3871562007155,-3.699608733660164,914 753 495,917 923 840,/contenido/entidadesYorganismos/CentrosEducacion/ColegiosPublicos
7048498,Colegio P�blico Margaret Thatcher,," BUS: 105, 151 ", ENSE�ANZAS: Segundo ciclo de Educaci�n Infantil - Primaria ,0,http://www.madrid.es/vgn-ext-templating/v/index.jsp?vgnextchannel=9e4c43db40317010VgnVCM100000dc0ca8c0RCRD&vgnextoid=8c8b39efd6cef310VgnVCM1000000b205a0aRCRD,PLAYA DE SAN LORENZO,GLORIETA,V,4,MADRID,MADRID,28042,TIMON,BARAJAS,450055,4480353,40.47047719759706,-3.5904597549954724,913 056 086,913 055 404,/contenido/entidadesYorganismos/CentrosEducacion/ColegiosPublicos
5228,Colegio P�blico Mariano Jos� de Larra,Comedor - Horario ampliado - Planes de mejora,"METRO: Las Musas BUS: 38 , 48 , 140", ENSE�ANZA: Educaci�n infantil - Primaria - Ense�anza biling&uuml;e   ,0,http://www.madrid.es/vgn-ext-templating/v/index.jsp?vgnextchannel=9e4c43db40317010VgnVCM100000dc0ca8c0RCRD&vgnextoid=b593a3f5ca71c010VgnVCM1000000b205a0aRCRD,LONGARES,CALLE,NUM,11,MADRID,MADRID,28022,ROSAS,SAN BLAS-CANILLEJAS,448456,4475939,40.43061532814977,-3.6089740337850564,913 133 789,917 759 574,/contenido/entidadesYorganismos/CentrosEducacion/ColegiosPublicos
5230,Colegio P�blico Marqu�s de Marcenado,Comedor - Horario ampliado,"BUS: 25 , 31 , 33 , 36 , 39 , 41 , 50 , 65 , 138", ENSE�ANZA: Educaci�n Infantil - Primaria  ,0,http://www.madrid.es/vgn-ext-templating/v/index.jsp?vgnextchannel=9e4c43db40317010VgnVCM100000dc0ca8c0RCRD&vgnextoid=0ba3a3f5ca71c010VgnVCM1000000b205a0aRCRD,LINNEO,CALLE,V,31,MADRID,MADRID,28005,IMPERIAL,ARGANZUELA,438979,4473763,40.410370492110424,-3.72048608485198,913 658 588,913 669 822,/contenido/entidadesYorganismos/CentrosEducacion/ColegiosPublicos
5231,Colegio P�blico Marqu�s de Suanzes,Comedor - Transporte - Horario ampliado - Integracion preferente (mot�ricos),"METRO: Suanzes BUS: 77 , 104 , 105", ENSE�ANZA: Educaci�n infantil - Primaria  ,0,http://www.madrid.es/vgn-ext-templating/v/index.jsp?vgnextchannel=9e4c43db40317010VgnVCM100000dc0ca8c0RCRD&vgnextoid=50c3a3f5ca71c010VgnVCM1000000b205a0aRCRD,VEINTICINCO DE SEPTIEMBRE,AVENIDA,NUM,1,MADRID,MADRID,28027,EL SALVADOR,SAN BLAS-CANILLEJAS,447144,4477333,40.44309078731439,-3.6245571705517694,917 412 072,913 203 617,/contenido/entidadesYorganismos/CentrosEducacion/ColegiosPublicos
5232,Colegio P�blico Mart�nez Monta��s,Comedor -  Horario ampliado - Planes de mejora," METRO: Pavones   BUS: 32 , 71 , 100 , 140 , 142 , 144 ", ENSE�ANZA: Educaci�n Infantil - Primaria - Ense�anza biling&uuml;e   ,0,http://www.madrid.es/vgn-ext-templating/v/index.jsp?vgnextchannel=9e4c43db40317010VgnVCM100000dc0ca8c0RCRD&vgnextoid=a5d3a3f5ca71c010VgnVCM1000000b205a0aRCRD,HACIENDA DE PAVONES,CALLE,V,223,MADRID,MADRID,28030,PAVONES,MORATALAZ,446318,4472768,40.40191354205018,-3.6339103602187524,917 738 878,917 738 878,/contenido/entidadesYorganismos/CentrosEducacion/ColegiosPublicos
5209,Colegio P�blico Mar�a Moliner, Comedor - Horario ampliado - Planes de mejora ," BUS: 4 , 38, 48 , 106, 140 METRO: Simancas, San Blas ", ENSE�ANZA: Educaci�n infantil - Primaria - Ense�anza biling&uuml;e  ,0,http://www.madrid.es/vgn-ext-templating/v/index.jsp?vgnextchannel=9e4c43db40317010VgnVCM100000dc0ca8c0RCRD&vgnextoid=6083a3f5ca71c010VgnVCM1000000b205a0aRCRD,ARCOS DE JALON,CALLE,V,34,MADRID,MADRID,28037,ARCOS,SAN BLAS-CANILLEJAS,447589,4475008,40.42217402076163,-3.619118046203692,913 133 969,913 069 463,/contenido/entidadesYorganismos/CentrosEducacion/ColegiosPublicos
5235,Colegio P�blico Men�ndez Pelayo,Comedor - Horario ampliado - Planes de mejora -Integraci�n preferente (auditivos).,"METRO: Atocha BUS: 6 , 19 , 27 , 34 , 45 , 47 ,55 , 59 , 69 , 85 , 86 , 102 , 247 RENFE: Atocha", ENSE�ANZA: Educaci�n Infantil - Primaria  ,0,http://www.madrid.es/vgn-ext-templating/v/index.jsp?vgnextchannel=9e4c43db40317010VgnVCM100000dc0ca8c0RCRD&vgnextoid=9514a3f5ca71c010VgnVCM1000000b205a0aRCRD,MENDEZ ALVARO,CALLE,V,16,MADRID,MADRID,28045,PALOS DE MOGUER,ARGANZUELA,441443,4473211,40.40557510310644,-3.691396695437019,915 272 781,915 397 381,/contenido/entidadesYorganismos/CentrosEducacion/ColegiosPublicos
5236,Colegio P�blico Men�ndez Pidal,Comedor - Horario ampliado - Integraci�n preferente (Tratornos generales del desarrollo),"METRO: Artilleros BUS: 8 , 20 , 30 , 71 , 100", ENSE�ANZA: Educaci�n Infantil - Primaria  ,0,http://www.madrid.es/vgn-ext-templating/v/index.jsp?vgnextchannel=9e4c43db40317010VgnVCM100000dc0ca8c0RCRD&vgnextoid=ea24a3f5ca71c010VgnVCM1000000b205a0aRCRD,ENCOMIENDA DE PALACIOS,CALLE,NUM,85,MADRID,MADRID,28030,FONTARRON,MORATALAZ,445702,4472620,40.400540243883796,-3.6411565174428118,917 736 781,913 016 012,/contenido/entidadesYorganismos/CentrosEducacion/ColegiosPublicos
5237,Colegio P�blico Meseta de Orcasitas,Comedor - Horario ampliado - Planes de mejora,"BUS: 6 , 60 , 78 , 81 , 116 , 121 , 131", ENSE�ANZA: Educaci�n Infantil - Primaria - Ense�anza biling&uuml;e   ,0,http://www.madrid.es/vgn-ext-templating/v/index.jsp?vgnextchannel=9e4c43db40317010VgnVCM100000dc0ca8c0RCRD&vgnextoid=3044a3f5ca71c010VgnVCM1000000b205a0aRCRD,CAMINO VIEJO DE VILLAVERDE,CALLE,NUM,1,MADRID,MADRID,28041,ORCASITAS,USERA,439790,4469491,40.37194535398157,-3.7105237988872513,913 413 045,913 417 861,/contenido/entidadesYorganismos/CentrosEducacion/ColegiosPublicos
5238,Colegio P�blico Mesonero Romanos, Comedor -  Horario ampliado - Planes de mejora ," BUS: 63 , 142 , 144 , E ", ENSE�ANZA: Educaci�n infantil - Primaria - Ense�anza biling&uuml;e  ,0,http://www.madrid.es/vgn-ext-templating/v/index.jsp?vgnextchannel=9e4c43db40317010VgnVCM100000dc0ca8c0RCRD&vgnextoid=8554a3f5ca71c010VgnVCM1000000b205a0aRCRD,PONT DE MOLINS,CALLE,NUM,31,MADRID,MADRID,28038,PORTAZGO,PUENTE DE VALLECAS,445423,4471861,40.39368443066321,-3.644378931194483,913 037 096,913 800 850,/contenido/entidadesYorganismos/CentrosEducacion/ColegiosPublicos
5239,Colegio P�blico Miguel Blasco Vilatela,Comedor -  Horario ampliado - Planes de mejora,"METRO: Garc�a Noblejas BUS: 4 , 28 , 38 , 48 , 70", ENSE�ANZA: Educaci�n Infantil - Primaria  ,0,http://www.madrid.es/vgn-ext-templating/v/index.jsp?vgnextchannel=9e4c43db40317010VgnVCM100000dc0ca8c0RCRD&vgnextoid=da64a3f5ca71c010VgnVCM1000000b205a0aRCRD,HERMANOS GARCIA NOBLEJAS,CALLE,NUM,70,MADRID,MADRID,28037,PUEBLO NUEVO,CIUDAD LINEAL,446486,4475812,40.42934657144525,-3.6321872882400443,913 043 999,913 043 999,/contenido/entidadesYorganismos/CentrosEducacion/ColegiosPublicos
5242,Colegio P�blico Miguel Servet,Comedor - Integraci�n - Horario ampliado,"BUS: 17 , 25 , 118 , 119", ENSE�ANZA: Educaci�n Infantil - Primaria  ,0,http://www.madrid.es/vgn-ext-templating/v/index.jsp?vgnextchannel=9e4c43db40317010VgnVCM100000dc0ca8c0RCRD&vgnextoid=7594a3f5ca71c010VgnVCM1000000b205a0aRCRD,FRAGATA,CALLE,V,33,MADRID,MADRID,28019,SAN ISIDRO,CARABANCHEL,437579,4471968,40.39409637138602,-3.736808786537968,914 611 757,914 627 953,/contenido/entidadesYorganismos/CentrosEducacion/ColegiosPublicos
5240,Colegio P�blico Miguel de Unamuno,Comedor - Transporte - Horario ampliado - Planes de mejora,"METRO: Legazpi BUS: 8 , 19 , 22 , 45 , 47 , 59 , 85 , 86 , 123 , 247", ENSE�ANZA: Educaci�n Infantil - Primaria - Ense�anza biling&uuml;e   ,0,http://www.madrid.es/vgn-ext-templating/v/index.jsp?vgnextchannel=9e4c43db40317010VgnVCM100000dc0ca8c0RCRD&vgnextoid=2084a3f5ca71c010VgnVCM1000000b205a0aRCRD,ALICANTE,CALLE,V,5,MADRID,MADRID,28045,DELICIAS,ARGANZUELA,441257,4471959,40.39428331181165,-3.6934728308868783,915 282 554,915 282 554,/contenido/entidadesYorganismos/CentrosEducacion/ColegiosPublicos
5243,Colegio P�blico Mirasierra,Comedor - Transporte - Horario ampliado,"BUS: 133 , 134", ENSE�ANZA: Educaci�n Infantil - Primaria - Ense�anza biling&uuml;e   ,0,http://www.madrid.es/vgn-ext-templating/v/index.jsp?vgnextchannel=9e4c43db40317010VgnVCM100000dc0ca8c0RCRD&vgnextoid=caa4a3f5ca71c010VgnVCM1000000b205a0aRCRD,LA MASO,CALLE,NUM,22,MADRID,MADRID,28034,MIRASIERRA,FUENCARRAL-EL PARDO,439585,4482724,40.49113903549112,-3.7141984471966625,917 345 665,917 350 356,/contenido/entidadesYorganismos/CentrosEducacion/ColegiosPublicos
5157,Colegio P�blico Monte de El Pardo, Comedor - Horario ampliado ," BUS: 601, 602 ", ENSE�ANZA: Educaci�n Infantil - Primaria - Ense�anza biling&uuml;e ,0,http://www.madrid.es/vgn-ext-templating/v/index.jsp?vgnextchannel=9e4c43db40317010VgnVCM100000dc0ca8c0RCRD&vgnextoid=10c4a3f5ca71c010VgnVCM1000000b205a0aRCRD,GUARDIA,AVENIDA,NUM,19,MADRID,MADRID,28048,EL PARDO,FUENCARRAL-EL PARDO,434520,4485655,40.51715726859882,-3.774264310704681,913 760 692 ,913 760 636,/contenido/entidadesYorganismos/CentrosEducacion/ColegiosPublicos
5233,Colegio P�blico M�jico (M�xico),Comedor - Transporte - Integraci�n preferente (mot�ricos) - Horario ampliado - Planes de mejora,"BUS: 11 , 21 , 53", ENSE�ANZA: Educaci�n Infantil - Primaria  ,1,http://www.madrid.es/vgn-ext-templating/v/index.jsp?vgnextchannel=9e4c43db40317010VgnVCM100000dc0ca8c0RCRD&vgnextoid=fae3a3f5ca71c010VgnVCM1000000b205a0aRCRD,BADAJOZ,AVENIDA,NUM,74,MADRID,MADRID,28027,SAN PASCUAL,CIUDAD LINEAL,444918,4477393,40.44348651514203,-3.650809049182787,91 403 57 44,,/contenido/entidadesYorganismos/CentrosEducacion/ColegiosPublicos
5234,Colegio P�blico M�ndez N��ez,Comedor - Horario ampliado - Planes de mejora,"BUS: 7 , 29 , 129", ENSE�ANZA: Educaci�n Infantil - Primaria  ,0,http://www.madrid.es/vgn-ext-templating/v/index.jsp?vgnextchannel=9e4c43db40317010VgnVCM100000dc0ca8c0RCRD&vgnextoid=4004a3f5ca71c010VgnVCM1000000b205a0aRCRD,ALICUN,CALLE,V,9,MADRID,MADRID,28033,APOSTOL SANTIAGO,HORTALEZA,444199,4481338,40.47897694855767,-3.659634305967847,913 024 834,913 024 834,/contenido/entidadesYorganismos/CentrosEducacion/ColegiosPublicos
5244,Colegio P�blico Navas de Tolosa,Transporte - Comedor - Horario ampliado - Planes de mejora,"BUS: 59 , 79 RENFE: San Crist�bal de los Angeles", ENSE�ANZA: Educaci�n Infantil - Primaria  ,0,http://www.madrid.es/vgn-ext-templating/v/index.jsp?vgnextchannel=9e4c43db40317010VgnVCM100000dc0ca8c0RCRD&vgnextoid=65d4a3f5ca71c010VgnVCM1000000b205a0aRCRD,BENIMAMET,CALLE,NUM,109,MADRID,MADRID,28021,SAN CRISTOBAL,VILLAVERDE,441908,4466410,40.344340447262475,-3.685296004324213,917 976 083,917 976 083,/contenido/entidadesYorganismos/CentrosEducacion/ColegiosPublicos
5247,Colegio P�blico Nuestra Se�ora de la Almudena, Comedor ," METRO: Ibiza BUS: 15 , 20 , 26 , 61 , 63 , 69 , 152 , 202, 215 ", ENSE�ANZA: Educaci�n Infantil - Primaria ,0,http://www.madrid.es/vgn-ext-templating/v/index.jsp?vgnextchannel=9e4c43db40317010VgnVCM100000dc0ca8c0RCRD&vgnextoid=0005a3f5ca71c010VgnVCM1000000b205a0aRCRD,LOPE DE RUEDA,CALLE,NUM,48,MADRID,MADRID,28009,IBIZA,RETIRO,442602,4474694,40.419015614377635,-3.6778727223264904,915 735 899,915 743 106,/contenido/entidadesYorganismos/CentrosEducacion/ColegiosPublicos
5248,Colegio P�blico Nuestra Se�ora de la Concepci�n,Comedor - Horario ampliado - Planes de mejora - Integraci�n preferente (Trastornos generales del desarrollo),METRO: Barrio de la Concepcion BUS: 21, ENSE�ANZA: Educaci�n Infantil - Primaria  ,0,http://www.madrid.es/vgn-ext-templating/v/index.jsp?vgnextchannel=9e4c43db40317010VgnVCM100000dc0ca8c0RCRD&vgnextoid=5515a3f5ca71c010VgnVCM1000000b205a0aRCRD,VIRGEN DEL SAGRARIO,CALLE,NUM,24,MADRID,MADRID,28027,CONCEPCION,CIUDAD LINEAL,444977,4476689,40.43714842135485,-3.6500522880397286,914 040 275,914 047 955,/contenido/entidadesYorganismos/CentrosEducacion/ColegiosPublicos
5249,Colegio P�blico Nuestra Se�ora de la Fuencisla,Comedor - Horario ampliado - Planes de mejora,"BUS: 18 , 22 , 59 , 76 , 79 , 85 , 86 RENFE: Doce de Octubre", ENSE�ANZA: Educaci�n Infantil - Primaria - Ense�anza biling&uuml;e ,0,http://www.madrid.es/vgn-ext-templating/v/index.jsp?vgnextchannel=9e4c43db40317010VgnVCM100000dc0ca8c0RCRD&vgnextoid=aa25a3f5ca71c010VgnVCM1000000b205a0aRCRD,TOMELLOSO,CALLE,V,39,MADRID,MADRID,28026,ALMENDRALES,USERA,440839,4470399,40.380200366406136,-3.698252688578992,914 754 327,915 001 173,/contenido/entidadesYorganismos/CentrosEducacion/ColegiosPublicos
5250,Colegio P�blico Nuestra Se�ora de la Luz, Transporte - Horario ampliado - Comedor - Planes de mejora ,BUS: 22 , ENSE�ANZA: Educaci�n Infantil - Primaria  ,0,http://www.madrid.es/vgn-ext-templating/v/index.jsp?vgnextchannel=9e4c43db40317010VgnVCM100000dc0ca8c0RCRD&vgnextoid=ff35a3f5ca71c010VgnVCM1000000b205a0aRCRD,MAGNESIA,CALLE,V,9,MADRID,MADRID,28021,SAN ANDRES,VILLAVERDE,440182,4466348,40.34365972711248,-3.705611429857769,917 950 766,917 975 020 ,/contenido/entidadesYorganismos/CentrosEducacion/ColegiosPublicos
5251,Colegio P�blico Nuestra Se�ora de la Paloma,Comedor - Horario ampliado - Planes de mejora,"METRO: La Latina BUS: 3 , 17 , 18 , 23 , 35 , 60 , 148", ENSE�ANZA: Educaci�n Infantil - Primaria - Ense�anza biling&uuml;e ,1,http://www.madrid.es/vgn-ext-templating/v/index.jsp?vgnextchannel=9e4c43db40317010VgnVCM100000dc0ca8c0RCRD&vgnextoid=4555a3f5ca71c010VgnVCM1000000b205a0aRCRD,TABERNILLAS,CALLE,V,2,MADRID,MADRID,28005,PALACIO,CENTRO,439752,4473836,40.4110845196558,-3.711383150975494,913 640 630 - 913 653 675,913 653 675,/contenido/entidadesYorganismos/CentrosEducacion/ColegiosPublicos
5252,Colegio P�blico Nuestra Se�ora del Lucero,Comedor - Horario ampliado - Transporte - Planes de mejora,"METRO: Laguna BUS: 31 , 119 , 138 RENFE: Laguna", ENSE�ANZA: Educaci�n Infantil - Primaria  ,0,http://www.madrid.es/vgn-ext-templating/v/index.jsp?vgnextchannel=9e4c43db40317010VgnVCM100000dc0ca8c0RCRD&vgnextoid=9a65a3f5ca71c010VgnVCM1000000b205a0aRCRD,MU�ICO,CALLE,NUM,1,MADRID,MADRID,28047,LOS CARMENES,LATINA,437227,4472895,40.40242068072587,-3.7410476655898712,914 647 678,914 647 678,/contenido/entidadesYorganismos/CentrosEducacion/ColegiosPublicos
5255,Colegio P�blico Pablo Picasso,Comedor -Horario ampliado - Planes de mejora,"BUS: 9 , 72 , 120 , 125", ENSE�ANZA: Educaci�n Infantil - Primaria - Ense�anza biling&uuml;e   ,0,http://www.madrid.es/vgn-ext-templating/v/index.jsp?vgnextchannel=9e4c43db40317010VgnVCM100000dc0ca8c0RCRD&vgnextoid=ef75a3f5ca71c010VgnVCM1000000b205a0aRCRD,ANGEL LUIS DE LA HERRAN,CALLE,V,35,MADRID,MADRID,28043,PINAR DEL REY,HORTALEZA,445250,4480421,40.47078626667984,-3.647156116262385,913 821 795 / 917 646 297,917 646 297,/contenido/entidadesYorganismos/CentrosEducacion/ColegiosPublicos
5256,Colegio P�blico Padre Coloma,Comedor - Horario ampliado,"METRO: Canillejas BUS: 77 , 89 , 105 , 114 , 115 , 140", ENSE�ANZA: Educaci�n infantil - Primaria  ,0,http://www.madrid.es/vgn-ext-templating/v/index.jsp?vgnextchannel=9e4c43db40317010VgnVCM100000dc0ca8c0RCRD&vgnextoid=3595a3f5ca71c010VgnVCM1000000b205a0aRCRD,GUTIERREZ CANALES,CALLE,NUM,19,MADRID,MADRID,28022,CANILLEJAS,SAN BLAS-CANILLEJAS,447968,4477926,40.448484963114275,-3.6148900571656988,91 742 64 47,91 741 25 98,/contenido/entidadesYorganismos/CentrosEducacion/ColegiosPublicos
5257,Colegio P�blico Padre Mariana,Comedor - Transporte - Planes de mejora,"BUS: 102, 111", ENSE�ANZA: Educaci�n infantil - Primaria  ,0,http://www.madrid.es/vgn-ext-templating/v/index.jsp?vgnextchannel=9e4c43db40317010VgnVCM100000dc0ca8c0RCRD&vgnextoid=8aa5a3f5ca71c010VgnVCM1000000b205a0aRCRD,SUR,RONDA,V,145,MADRID,MADRID,28053,ENTREVIAS,PUENTE DE VALLECAS,443124,4470030,40.37703559395701,-3.671302626256522,917 861 773,917 861 773,/contenido/entidadesYorganismos/CentrosEducacion/ColegiosPublicos
5258,Colegio P�blico Padre Poveda,Comedor - Horario ampliado - Planes de mejora," METRO: Alfonso XIII   BUS: 9 , 40 , 43 , 72 , 73 ", ENSE�ANZA: Educaci�n Infantil - Primaria - Ense�anza biling&uuml;e   ,0,http://www.madrid.es/vgn-ext-templating/v/index.jsp?vgnextchannel=9e4c43db40317010VgnVCM100000dc0ca8c0RCRD&vgnextoid=dfb5a3f5ca71c010VgnVCM1000000b205a0aRCRD,ALFONSO XIII,AVENIDA,V,23,MADRID,MADRID,28002,CIUDAD JARDIN,CHAMARTIN,443490,4478262,40.451218874985805,-3.6677240367753114,914 151 195 - 915 199 877,914 162 781,/contenido/entidadesYorganismos/CentrosEducacion/ColegiosPublicos
5260,Colegio P�blico Palacio Vald�s,Comedor - Planes de mejora,"METRO: Atocha BUS: 10 , 14 , 27 , 34 , 37 , 45 , 141 RENFE: Atocha", ENSE�ANZA: Educaci�n Infantil - Primaria  ,0,http://www.madrid.es/vgn-ext-templating/v/index.jsp?vgnextchannel=9e4c43db40317010VgnVCM100000dc0ca8c0RCRD&vgnextoid=25d5a3f5ca71c010VgnVCM1000000b205a0aRCRD,PRADO,PASEO,V,38,MADRID,MADRID,28014,CORTES,CENTRO,441318,4473765,40.41055699750786,-3.6929209140194783,914 203 370 - 913 695 034,914 203 370,/contenido/entidadesYorganismos/CentrosEducacion/ColegiosPublicos
5261,Colegio P�blico Palomeras Bajas,Comedor - Integraci�n (General) - Horario ampliado,"BUS: 57 , 144 RENFE: Entrev�as", ENSE�ANZA: Educaci�n infantil - Primaria  ,0,http://www.madrid.es/vgn-ext-templating/v/index.jsp?vgnextchannel=9e4c43db40317010VgnVCM100000dc0ca8c0RCRD&vgnextoid=7ae5a3f5ca71c010VgnVCM1000000b205a0aRCRD,FELIPE DE DIEGO,CALLE,NUM,6,MADRID,MADRID,28018,PALOMERAS BAJAS,PUENTE DE VALLECAS,444012,4470263,40.37919484869876,-3.6608630426434994,91 785 48 17,,/contenido/entidadesYorganismos/CentrosEducacion/ColegiosPublicos
5263,Colegio P�blico Parque Aluche,Comedor - Transporte - Integraci�n (preferentemente mot�ricos) - Horario ampliado,"METRO: Empalme BUS: 25 , 121 , 131 , H", ENSE�ANZA: Educaci�n Infantil - Primaria  ,1,http://www.madrid.es/vgn-ext-templating/v/index.jsp?vgnextchannel=9e4c43db40317010VgnVCM100000dc0ca8c0RCRD&vgnextoid=cff5a3f5ca71c010VgnVCM1000000b205a0aRCRD,QUERO,CALLE,V,47,MADRID,MADRID,28024,ALUCHE,LATINA,435523,4471623,40.39083157827759,-3.760997850579394,91 717 81 90,,/contenido/entidadesYorganismos/CentrosEducacion/ColegiosPublicos
5151,Colegio P�blico Parque Eugenia de Montijo,Comedor - Horario ampliado - Planes de mejora,"BUS: 34 , 35 , 121 , 131 , 139", ENSE�ANZA: Educaci�n Infantil - Primaria - Ense�anza biling&uuml;e   ,0,http://www.madrid.es/vgn-ext-templating/v/index.jsp?vgnextchannel=9e4c43db40317010VgnVCM100000dc0ca8c0RCRD&vgnextoid=d1cda3f5ca71c010VgnVCM1000000b205a0aRCRD,PARQUE EUGENIA DE MONTIJO,CALLE,V,28,MADRID,MADRID,28047,VISTA ALEGRE,CARABANCHEL,436244,4470234,40.37837446977044,-3.7523641127237983,914 615 653,914 615 603,/contenido/entidadesYorganismos/CentrosEducacion/ColegiosPublicos
5264,Colegio P�blico Pasamonte,Comedor - Integraci�n (General),"METRO: Vinateros BUS: 30 , 32 , 71 , 113", ENSE�ANZA: Educaci�n Infantil - Primaria - Ense�anza biling&uuml;e   ,0,http://www.madrid.es/vgn-ext-templating/v/index.jsp?vgnextchannel=9e4c43db40317010VgnVCM100000dc0ca8c0RCRD&vgnextoid=1516a3f5ca71c010VgnVCM1000000b205a0aRCRD,DOCTOR GARCIA TAPIA,AVENIDA,V,47,MADRID,MADRID,28030,MARROQUINA,MORATALAZ,445128,4473926,40.41226776087093,-3.6480330885473093,91 430 53 66,,/contenido/entidadesYorganismos/CentrosEducacion/ColegiosPublicos
5253,Colegio P�blico Patriarca Obispo Eijo y Garay,Comedor - Horario ampliado - Planes de mejora.," METRO: Avenida de Am�rica  BUS: 9, 16, 19, 29 , 52, Circular ", ENSE�ANZA: Educaci�n Infantil - Primaria - Ense�anza biling&uuml;e   ,0,http://www.madrid.es/vgn-ext-templating/v/index.jsp?vgnextchannel=9e4c43db40317010VgnVCM100000dc0ca8c0RCRD&vgnextoid=6a26a3f5ca71c010VgnVCM1000000b205a0aRCRD,LOPEZ DE HOYOS,CALLE,V,40,MADRID,MADRID,28006,EL VISO,CHAMARTIN,442303,4476991,40.43969634718427,-3.6816176968334515,917 450 282,917 451 152,/contenido/entidadesYorganismos/CentrosEducacion/ColegiosPublicos
176881,Colegio P�blico Pedro Duque, Transporte - Horario ampliado - Comedor - Planes de mejora. ,"BUS: 71, 100",ENSE�ANZA: Educaci�n Infantil (Segundo Ciclo) - Primaria,0,http://www.madrid.es/vgn-ext-templating/v/index.jsp?vgnextchannel=9e4c43db40317010VgnVCM100000dc0ca8c0RCRD&vgnextoid=ee844b6faa61c010VgnVCM1000000b205a0aRCRD,MARMOLINA,CALLE,V,5,MADRID,MADRID,28032,CASCO H.VICALVARO,VICALVARO,448572,4472231,40.39721845156279,-3.607306131972689,917 762 363,917 753 209,/contenido/entidadesYorganismos/CentrosEducacion/ColegiosPublicos
5267,Colegio P�blico Per�,Comedor - Horario ampliado,"METRO: Marqu�s de Vadillo BUS: 23 , 34 , 35 , 116 , 118 , 119", ENSE�ANZA: Educaci�n Infantil - Primaria  ,0,http://www.madrid.es/vgn-ext-templating/v/index.jsp?vgnextchannel=9e4c43db40317010VgnVCM100000dc0ca8c0RCRD&vgnextoid=bf36a3f5ca71c010VgnVCM1000000b205a0aRCRD,BALEARES,CALLE,NUM,18,MADRID,MADRID,28019,COMILLAS,CARABANCHEL,439577,4471918,40.39379355659199,-3.713263165805392,91 569 14 65,,/contenido/entidadesYorganismos/CentrosEducacion/ColegiosPublicos
5268,Colegio P�blico Pi I Margall,Comedor - Horario ampliado - Planes de mejora,"METRO: Noviciado , Tribunal , Bilbao BUS: 3 , 21 , 40 , 147 , 149", ENSE�ANZA: Educaci�n Infantil - Primaria - Ense�anza biling&uuml;e   ,0,http://www.madrid.es/vgn-ext-templating/v/index.jsp?vgnextchannel=9e4c43db40317010VgnVCM100000dc0ca8c0RCRD&vgnextoid=0556a3f5ca71c010VgnVCM1000000b205a0aRCRD,DOS DE MAYO,PLAZA,V,2,MADRID,MADRID,28004,UNIVERSIDAD,CENTRO,440343,4475575,40.42679288775549,-3.7045815049836723,915 323 420,915 231 075,/contenido/entidadesYorganismos/CentrosEducacion/ColegiosPublicos
176871,Colegio P�blico Pinar de San Jos�, Horario ampliado - Comedor - Integraci�n preferente: mot�ricos ," BUS: 155, 35 
 METRO: La Peseta ", ENSE�ANZA: Segundo ciclo de Educaci�n Infantil - Primaria ,0,http://www.madrid.es/vgn-ext-templating/v/index.jsp?vgnextchannel=9e4c43db40317010VgnVCM100000dc0ca8c0RCRD&vgnextoid=99744b6faa61c010VgnVCM1000000b205a0aRCRD,PATRIMONIO DE LA HUMANIDAD,CALLE,NUM,39,MADRID,MADRID,28054,BUENAVISTA,CARABANCHEL,435211,4468538,40.36301638063713,-3.764359559786085,915 112 417 ,915 112 418,/contenido/entidadesYorganismos/CentrosEducacion/ColegiosPublicos
5269,Colegio P�blico Pinar del Rey, Comedor - Horario ampliado - Planes de mejora ," BUS: 107 , 125 ", ENSE�ANZA: Educaci�n Infantil - Primaria - Ense�anza Biling&uuml;e ,0,http://www.madrid.es/vgn-ext-templating/v/index.jsp?vgnextchannel=9e4c43db40317010VgnVCM100000dc0ca8c0RCRD&vgnextoid=5a66a3f5ca71c010VgnVCM1000000b205a0aRCRD,SAN LUIS,AVENIDA,NUM,23,MADRID,MADRID,28033,PINAR DEL REY,HORTALEZA,444650,4480518,40.471620244949925,-3.6542420626066923,917 664 763,917 664 763,/contenido/entidadesYorganismos/CentrosEducacion/ColegiosPublicos
5270,Colegio P�blico Pintor Rosales,Comedor - Horario ampliado - Planes de mejora," METRO: Cruz del Rayo   BUS: 29 , 52 ", ENSE�ANZA: Educaci�n Infantil - Primaria - Ense�anza biling&uuml;e -  ,0,http://www.madrid.es/vgn-ext-templating/v/index.jsp?vgnextchannel=9e4c43db40317010VgnVCM100000dc0ca8c0RCRD&vgnextoid=af76a3f5ca71c010VgnVCM1000000b205a0aRCRD,PRINCIPE DE VERGARA,CALLE,V,139,MADRID,MADRID,28002,EL VISO,CHAMARTIN,442559,4477537,40.44462379507087,-3.6786369687124028,"915 623 948                 
",915 638 730,/contenido/entidadesYorganismos/CentrosEducacion/ColegiosPublicos
5273,Colegio P�blico Portugal,Comedor,"METRO: Ventura Rodr�guez , Plaza de Espa�a BUS: 1 , 2 , 44 , 46 , 74 , 75 , 133 , 138 , 148 , 202", ENSE�ANZA: Educaci�n Infantil - Primaria  ,0,http://www.madrid.es/vgn-ext-templating/v/index.jsp?vgnextchannel=9e4c43db40317010VgnVCM100000dc0ca8c0RCRD&vgnextoid=9fb6a3f5ca71c010VgnVCM1000000b205a0aRCRD,JUAN ALVAREZ MENDIZABAL,CALLE,V,20,MADRID,MADRID,28008,ARGUELLES,MONCLOA-ARAVACA,439465,4475374,40.42491865180926,-3.7149121447760582,91 541 73 30,,/contenido/entidadesYorganismos/CentrosEducacion/ColegiosPublicos
5275,Colegio P�blico Pradolongo,Comedor - Horario ampliado,"BUS: 6 , 60 , 78 , 81", ENSE�ANZA: Educaci�n Infantil - Primaria  ,0,http://www.madrid.es/vgn-ext-templating/v/index.jsp?vgnextchannel=9e4c43db40317010VgnVCM100000dc0ca8c0RCRD&vgnextoid=e4d6a3f5ca71c010VgnVCM1000000b205a0aRCRD,PARQUE DE LA PALOMA,CALLE,NUM,9,MADRID,MADRID,28026,ZOFIO,USERA,439345,4470270,40.37893066302815,-3.7158394380500623,91 469 35 81,,/contenido/entidadesYorganismos/CentrosEducacion/ColegiosPublicos
5276,Colegio P�blico Pr�ncipe de Asturias,Comedor ,Desconocido, ENSE�ANZA: Educaci�n Infantil - Primaria  ,0,http://www.madrid.es/vgn-ext-templating/v/index.jsp?vgnextchannel=9e4c43db40317010VgnVCM100000dc0ca8c0RCRD&vgnextoid=3ae6a3f5ca71c010VgnVCM1000000b205a0aRCRD,KANT,CALLE,V,2,MADRID,MADRID,28049,EL GOLOSO,FUENCARRAL-EL PARDO,441102,4488310,40.54156879341023,-3.6968198242534527,917 355 115,917 355 003,/contenido/entidadesYorganismos/CentrosEducacion/ColegiosPublicos
5278,Colegio P�blico Puerto Rico,Comedor - Horario ampliado - Planes de mejora,"BUS: 6 , 60 , 131", ENSE�ANZA: Educaci�n Infantil - Primaria - Ense�anza biling&uuml;e   ,0,http://www.madrid.es/vgn-ext-templating/v/index.jsp?vgnextchannel=9e4c43db40317010VgnVCM100000dc0ca8c0RCRD&vgnextoid=d417a3f5ca71c010VgnVCM1000000b205a0aRCRD,SEGURA,CALLE,V,74,MADRID,MADRID,28041,ORCASITAS,USERA,439033,4469053,40.36794449938085,-3.7193980638250013,913 412 726,913 416 960,/contenido/entidadesYorganismos/CentrosEducacion/ColegiosPublicos
5271,Colegio P�blico P�o Baroja,Comedor - Horario ampliado,"METRO: Artilleros, Pavones BUS: 20, 30, 32 , 100 , 140 , 142", ENSE�ANZA: Educacion Infantil - Primaria - Ense�anza biling&uuml;e   ,0,http://www.madrid.es/vgn-ext-templating/v/index.jsp?vgnextchannel=9e4c43db40317010VgnVCM100000dc0ca8c0RCRD&vgnextoid=f496a3f5ca71c010VgnVCM1000000b205a0aRCRD,LUIS DE HOYOS SAINZ,CALLE,NUM,84,MADRID,MADRID,28030,VINATEROS,MORATALAZ,445977,4472951,40.40354001887506,-3.6379441929941656,917 739 618 - 913 713 235,917 739 618,/contenido/entidadesYorganismos/CentrosEducacion/ColegiosPublicos
5272,Colegio P�blico P�o XII,Comedor - Transporte,"METRO: Plaza de Castilla BUS: 5 , 27 , 42 , 49 , 66 ,124 , 134 , 135 , ", ENSE�ANZA: Educaci�n Infantil - Primaria  ,0,http://www.madrid.es/vgn-ext-templating/v/index.jsp?vgnextchannel=9e4c43db40317010VgnVCM100000dc0ca8c0RCRD&vgnextoid=4aa6a3f5ca71c010VgnVCM1000000b205a0aRCRD,DELFIN,CALLE,NUM,2,MADRID,MADRID,28029,ALMENARA,TETUAN,441285,4480024,40.46693859499291,-3.693889291907082,91 315 12 21,,/contenido/entidadesYorganismos/CentrosEducacion/ColegiosPublicos
5279,Colegio P�blico Rabindranath Tagore,Comedor - Horario ampliado - Planes de mejora,"BUS: 67 , 132", ENSE�ANZA: Educacion Infantil - Primaria - Ense�anza biling&uuml;e   ,0,http://www.madrid.es/vgn-ext-templating/v/index.jsp?vgnextchannel=9e4c43db40317010VgnVCM100000dc0ca8c0RCRD&vgnextoid=2a27a3f5ca71c010VgnVCM1000000b205a0aRCRD,JULIO PALACIOS,CALLE,NUM,35,MADRID,MADRID,28029,LA PAZ,FUENCARRAL-EL PARDO,441128,4481819,40.48309753300499,-3.695908037156805,917 332 373,917 332 373,/contenido/entidadesYorganismos/CentrosEducacion/ColegiosPublicos
6027,Colegio P�blico Ramiro de Maeztu,Comedor - Horario ampliado - Planes de mejora,"Metro: Rep�blica Argentina Bus: 9 , 16 , 19 , 51", Ense�anzas Autorizadas: Educaci�n infantil segundo ciclo - Educaci�n Primaria - Ense�anza biling&uuml;e - Alem�n ,0,http://www.madrid.es/vgn-ext-templating/v/index.jsp?vgnextchannel=9e4c43db40317010VgnVCM100000dc0ca8c0RCRD&vgnextoid=91f4ae10c471c010VgnVCM1000000b205a0aRCRD,SERRANO,CALLE,V,127,MADRID,MADRID,28006,EL VISO,CHAMARTIN,441920,4477261,40.44209298097929,-3.6861462152769775,915 616 249,915 647 056,/contenido/entidadesYorganismos/CentrosEducacion/ColegiosPublicos
5280,Colegio P�blico Ram�n G�mez de la Serna,Comedor - Transporte,"BUS: 59 , 79 RENFE: San Crist�bal de los Angeles", ENSE�ANZA: Educacion Infantil - Primaria - Ense�anza biling&uuml;e   ,0,http://www.madrid.es/vgn-ext-templating/v/index.jsp?vgnextchannel=9e4c43db40317010VgnVCM100000dc0ca8c0RCRD&vgnextoid=7f37a3f5ca71c010VgnVCM1000000b205a0aRCRD,GODELLA,CALLE,V,170,MADRID,MADRID,28021,SAN CRISTOBAL,VILLAVERDE,441540,4465897,40.33969327538041,-3.689581642256062,917 972 522 - 915 053 446,917 972 554,/contenido/entidadesYorganismos/CentrosEducacion/ColegiosPublicos
5281,Colegio P�blico Ram�n Mar�a del Valle Incl�n,Comedor -  Horario ampliado - Planes de mejora,"METRO: San Blas BUS: 38 , 48", ENSE�ANZA: Educaci�n infantil - Primaria  ,0,http://www.madrid.es/vgn-ext-templating/v/index.jsp?vgnextchannel=9e4c43db40317010VgnVCM100000dc0ca8c0RCRD&vgnextoid=c457a3f5ca71c010VgnVCM1000000b205a0aRCRD,ALCONERA,CALLE,V,1,MADRID,MADRID,28037,HELLIN,SAN BLAS-CANILLEJAS,447666,4475860,40.429854215285445,-3.618280698226673,913 130 739,913 130 739,/contenido/entidadesYorganismos/CentrosEducacion/ColegiosPublicos
5282,Colegio P�blico Ram�n P�rez de Ayala,Comedor - Horario ampliado - Planes de mejora," METRO: Canillas   BUS: 73 , 112 , 120 ", ENSE�ANZA: Educaci�n Infantil - Primaria - Ense�anza biling&uuml;e ,0,http://www.madrid.es/vgn-ext-templating/v/index.jsp?vgnextchannel=9e4c43db40317010VgnVCM100000dc0ca8c0RCRD&vgnextoid=1a67a3f5ca71c010VgnVCM1000000b205a0aRCRD,MOTILLA DEL PALANCAR,CALLE,V,19,MADRID,MADRID,28043,CANILLAS,HORTALEZA,446427,4479920,40.46634990040974,-3.6332300542597373,917 592 205,917 599 412,/contenido/entidadesYorganismos/CentrosEducacion/ColegiosPublicos
5283,Colegio P�blico Real Armada, Comedor - Horario ampliado - Planes de mejora ," BUS: 8 , 20 , 30 , 63 , 143 METRO: Artilleros ", ENSE�ANZA: Educaci�n Infantil - Primaria - Ense�anza Biling&uuml;e ,0,http://www.madrid.es/vgn-ext-templating/v/index.jsp?vgnextchannel=9e4c43db40317010VgnVCM100000dc0ca8c0RCRD&vgnextoid=6f77a3f5ca71c010VgnVCM1000000b205a0aRCRD,CORREGIDOR JUAN FRANCISCO DE LUJAN,CALLE,V,114,MADRID,MADRID,28030,FONTARRON,MORATALAZ,445329,4472752,40.401704924123834,-3.645563131710102,"917 736 583        
917 724 429 (Primaria)       
",917 736 583,/contenido/entidadesYorganismos/CentrosEducacion/ColegiosPublicos
5284,Colegio P�blico Regimiento Inmemorial del Rey,Comedor - Horario ampliado - Planes de mejora,"BUS: 8 , 20 , 30 , 32 , 113", ENSE�ANZA: Educaci�n Infantil - Primaria - Ense�anza biling&uuml;e -  ,0,http://www.madrid.es/vgn-ext-templating/v/index.jsp?vgnextchannel=9e4c43db40317010VgnVCM100000dc0ca8c0RCRD&vgnextoid=b497a3f5ca71c010VgnVCM1000000b205a0aRCRD,MORATALAZ,AVENIDA,NUM,51,MADRID,MADRID,28030,MEDIA LEGUA,MORATALAZ,444330,4473390,40.407386072133015,-3.6573909677766716,914 390 948,913 282 535,/contenido/entidadesYorganismos/CentrosEducacion/ColegiosPublicos
5170,Colegio P�blico Reina Victoria,Comedor - Horario ampliado - Planes de mejora," METRO: N��ez de Balboa   BUS: 1 , 29 , 52 , 74 ", ENSE�ANZA: Educaci�n Infantil - Primaria  ,1,http://www.madrid.es/vgn-ext-templating/v/index.jsp?vgnextchannel=9e4c43db40317010VgnVCM100000dc0ca8c0RCRD&vgnextoid=714fa3f5ca71c010VgnVCM1000000b205a0aRCRD,PRINCIPE DE VERGARA,CALLE,NUM,61,MADRID,MADRID,28006,CASTELLANA,SALAMANCA,442462,4476303,40.43350060791133,-3.679668747386544,915 631 283,914 113 067,/contenido/entidadesYorganismos/CentrosEducacion/ColegiosPublicos
5293,Colegio P�blico Rep�blica Dominicana,Comedor - Planes de mejora - Horario ampliado,"BUS: 34 , 35 , 121 , 131 , 139 , 47", ENSE�ANZA: Educaci�n Infantil - Primaria  ,0,http://www.madrid.es/vgn-ext-templating/v/index.jsp?vgnextchannel=9e4c43db40317010VgnVCM100000dc0ca8c0RCRD&vgnextoid=e96813db5b71c010VgnVCM1000000b205a0aRCRD,DON BOSCO,RONDA,NUM,2,MADRID,MADRID,28044,BUENAVISTA,CARABANCHEL,436256,4470002,40.37628543221565,-3.752199516614656,914 629 060,914 662 819,/contenido/entidadesYorganismos/CentrosEducacion/ColegiosPublicos
5289,Colegio P�blico Rep�blica de Brasil,Comedor - Horario ampliado - Planes de mejora,"BUS: 23 , 78 , 123", ENSE�ANZA: Educaci�n Infantil - Primaria  ,0,http://www.madrid.es/vgn-ext-templating/v/index.jsp?vgnextchannel=9e4c43db40317010VgnVCM100000dc0ca8c0RCRD&vgnextoid=0aa7a3f5ca71c010VgnVCM1000000b205a0aRCRD,FUEROS,AVENIDA,NUM,34,MADRID,MADRID,28041,SAN FERMIN,USERA,441537,4469310,40.37043939785913,-3.6899302716018574,917 923 478,917 920 822,/contenido/entidadesYorganismos/CentrosEducacion/ColegiosPublicos
5286,Colegio P�blico Rep�blica de Chile,Comedor - Horario ampliado,"METRO: Simancas BUS: 4 , 38 , 48 , 70 , 109", ENSE�ANZA: Educaci�n infantil - Primaria  ,0,http://www.madrid.es/vgn-ext-templating/v/index.jsp?vgnextchannel=9e4c43db40317010VgnVCM100000dc0ca8c0RCRD&vgnextoid=5fb7a3f5ca71c010VgnVCM1000000b205a0aRCRD,CASTILLO DE UCLES,CALLE,NUM,28,MADRID,MADRID,28037,SIMANCAS,SAN BLAS-CANILLEJAS,447113,4475669,40.42809852476456,-3.6247839198679577,91 304 66 58,,/contenido/entidadesYorganismos/CentrosEducacion/ColegiosPublicos
5285,Colegio P�blico Rep�blica de Colombia,Comedor - Horario ampliado - Planes de mejora,"METRO: Pan Bendito BUS: 47 , 108 , 118 , 121 , 131", ENSE�ANZA: Educaci�n Infantil - Primaria  ,0,http://www.madrid.es/vgn-ext-templating/v/index.jsp?vgnextchannel=9e4c43db40317010VgnVCM100000dc0ca8c0RCRD&vgnextoid=a4d7a3f5ca71c010VgnVCM1000000b205a0aRCRD,ALLOZ,PLAZA,V,3,MADRID,MADRID,28025,PUERTA BONITA,CARABANCHEL,437550,4469963,40.37598607317299,-3.737129783095065,914 650 587,914 650 587,/contenido/entidadesYorganismos/CentrosEducacion/ColegiosPublicos
5290,Colegio P�blico Rep�blica de Ecuador,Comedor -  Horario ampliado - Planes de mejora,"METRO: Oporto , Opa�el BUS: 34 , 35 , 55 , 81 , 108 , 118 , 247", ENSE�ANZA: Educaci�n Infantil - Primaria  ,0,http://www.madrid.es/vgn-ext-templating/v/index.jsp?vgnextchannel=9e4c43db40317010VgnVCM100000dc0ca8c0RCRD&vgnextoid=f9e7a3f5ca71c010VgnVCM1000000b205a0aRCRD,VALLE DE ORO,CALLE,V,41,MADRID,MADRID,28019,OPA�EL,CARABANCHEL,438554,4471240,40.38761083602051,-3.7252507882198085,914 603 284 - 915 600 937,914 603 284,/contenido/entidadesYorganismos/CentrosEducacion/ColegiosPublicos
5291,Colegio P�blico Rep�blica de El Salvador,Comedor - Planes de mejora,"BUS: 22 , 86 , 130", ENSE�ANZA: Educaci�n Infantil - Primaria  ,0,http://www.madrid.es/vgn-ext-templating/v/index.jsp?vgnextchannel=9e4c43db40317010VgnVCM100000dc0ca8c0RCRD&vgnextoid=945813db5b71c010VgnVCM1000000b205a0aRCRD,SACEDON,CALLE,V,2,MADRID,MADRID,28021,LOS ANGELES,VILLAVERDE,440838,4466991,40.34949911149915,-3.6979477280735917,917 964 041,917 987 815,/contenido/entidadesYorganismos/CentrosEducacion/ColegiosPublicos
5287,Colegio P�blico Rep�blica de Paraguay,Comedor - Transporte - Horario ampliado,BUS: 124, ENSE�ANZA: Educaci�n Infantil - Primaria  ,0,http://www.madrid.es/vgn-ext-templating/v/index.jsp?vgnextchannel=9e4c43db40317010VgnVCM100000dc0ca8c0RCRD&vgnextoid=a41813db5b71c010VgnVCM1000000b205a0aRCRD,MANRESA,CALLE,V,60,MADRID,MADRID,28034,VALVERDE,FUENCARRAL-EL PARDO,441190,4482801,40.49194816139676,-3.695267856666852,917 343 888,917 351 680,/contenido/entidadesYorganismos/CentrosEducacion/ColegiosPublicos
5292,Colegio P�blico Rep�blica de Uruguay,Comedor - Horario ampliado - Planes de mejora,"METRO: Carpetana BUS: 17 , 25 , 55, 119", ENSE�ANZA: Educaci�n Infantil - Primaria  ,0,http://www.madrid.es/vgn-ext-templating/v/index.jsp?vgnextchannel=9e4c43db40317010VgnVCM100000dc0ca8c0RCRD&vgnextoid=f92813db5b71c010VgnVCM1000000b205a0aRCRD,NUESTRA SE�ORA DE VALVANERA,AVENIDA,NUM,120,MADRID,MADRID,28047,LOS CARMENES,LATINA,437203,4471902,40.39347350069245,-3.741232360556739,914 661 360,914 613 919,/contenido/entidadesYorganismos/CentrosEducacion/ColegiosPublicos
5288,Colegio P�blico Rep�blica de Venezuela,Comedor - Horario ampliado - Planes de mejora,"METRO: Plaza El�ptica BUS: 6 , 47 , 60 , 81 , 247", ENSE�ANZA: Educaci�n Infantil - Primaria  ,0,http://www.madrid.es/vgn-ext-templating/v/index.jsp?vgnextchannel=9e4c43db40317010VgnVCM100000dc0ca8c0RCRD&vgnextoid=4f3813db5b71c010VgnVCM1000000b205a0aRCRD,CERECINOS,CALLE,V,8,MADRID,MADRID,28026,ZOFIO,USERA,439537,4470785,40.38358402272625,-3.713626711959121,915 698 392,914 695 258,/contenido/entidadesYorganismos/CentrosEducacion/ColegiosPublicos
5295,Colegio P�blico Rosa Luxemburgo,Comedor - Horario ampliado - Planes de mejora,BUS: 160, ENSE�ANZA: Educaci�n Infantil - Primaria - Ense�anza biling&uuml;e   ,0,http://www.madrid.es/vgn-ext-templating/v/index.jsp?vgnextchannel=9e4c43db40317010VgnVCM100000dc0ca8c0RCRD&vgnextoid=3f7813db5b71c010VgnVCM1000000b205a0aRCRD,BARDEGUERAL,CALLE,V,16,MADRID,MADRID,28023,ARAVACA,MONCLOA-ARAVACA,434683,4478202,40.450031818221355,-3.7715711526219784,913 570 212,913 570 661,/contenido/entidadesYorganismos/CentrosEducacion/ColegiosPublicos
5298,Colegio P�blico Rufino Blanco, Horario ampliado - Comedor - Planes de mejora ,"METRO: Canal BUS: 3 , 12 , 37 , 149", ENSE�ANZA: Educacion Infantil - Primaria - Ense�anza biling&uuml;e   ,0,http://www.madrid.es/vgn-ext-templating/v/index.jsp?vgnextchannel=9e4c43db40317010VgnVCM100000dc0ca8c0RCRD&vgnextoid=849813db5b71c010VgnVCM1000000b205a0aRCRD,GENERAL ALVAREZ DE CASTRO,CALLE,V,46,MADRID,MADRID,28010,TRAFALGAR,CHAMBERI,440533,4476841,40.43821121285092,-3.7024604612596157,914 484 083,915 944 701,/contenido/entidadesYorganismos/CentrosEducacion/ColegiosPublicos
5300,Colegio P�blico Sagunto,Comedor - Transporte - Horario ampliado - Planes de mejora.,"BUS: 59 , 79 RENFE: San Crist�bal de los Angeles", ENSE�ANZA: Educaci�n Infantil (Segundo ciclo) - Primaria  ,0,http://www.madrid.es/vgn-ext-templating/v/index.jsp?vgnextchannel=9e4c43db40317010VgnVCM100000dc0ca8c0RCRD&vgnextoid=d9a813db5b71c010VgnVCM1000000b205a0aRCRD,PATERNA,CALLE,V,14,MADRID,MADRID,28021,SAN CRISTOBAL,VILLAVERDE,441938,4466057,40.34116249559141,-3.6849106315684015,917 976 726,917 976 726,/contenido/entidadesYorganismos/CentrosEducacion/ColegiosPublicos
5301,Colegio P�blico San Benito,Comedor - Horario ampliado - Planes de mejora,"BUS: 21 , 70", ENSE�ANZA: Educaci�n Infantil - Primaria - Ense�anza biling&uuml;e ,0,http://www.madrid.es/vgn-ext-templating/v/index.jsp?vgnextchannel=9e4c43db40317010VgnVCM100000dc0ca8c0RCRD&vgnextoid=2fb813db5b71c010VgnVCM1000000b205a0aRCRD,JUAN PEREZ ZU�IGA,CALLE,NUM,36,MADRID,MADRID,28027,CONCEPCION,CIUDAD LINEAL,445248,4477477,40.4442650725657,-3.6469252698024386,913 670 800 - 913 680 735,913 570 800,/contenido/entidadesYorganismos/CentrosEducacion/ColegiosPublicos
5302,Colegio P�blico San Carlos,Planes de mejora,"BUS: 22, 79 , 130 RENFE: Villaverde Alto", ENSE�ANZA: Educaci�n Infantil - Primaria  ,0,http://www.madrid.es/vgn-ext-templating/v/index.jsp?vgnextchannel=9e4c43db40317010VgnVCM100000dc0ca8c0RCRD&vgnextoid=74d813db5b71c010VgnVCM1000000b205a0aRCRD,VILLASTAR,CALLE,V,8,MADRID,MADRID,28021,SAN ANDRES,VILLAVERDE,439712,4466392,40.34402221395892,-3.7111491204293108,917 966 105,917 979 728,/contenido/entidadesYorganismos/CentrosEducacion/ColegiosPublicos
5303,Colegio P�blico San Crist�bal,Comedor - Horario ampliado - Planes de mejora," METRO: Canal   BUS: 3 , 12 , 37 , 149 ", ENSE�ANZA: Educaci�n Infantil - Primaria - Ense�anza biling&uuml;e   ,0,http://www.madrid.es/vgn-ext-templating/v/index.jsp?vgnextchannel=9e4c43db40317010VgnVCM100000dc0ca8c0RCRD&vgnextoid=c9e813db5b71c010VgnVCM1000000b205a0aRCRD,BRAVO MURILLO,CALLE,V,41,MADRID,MADRID,28015,ARAPILES,CHAMBERI,440363,4476756,40.43743329914089,-3.7044567612586508,914 481 381,914 480 206,/contenido/entidadesYorganismos/CentrosEducacion/ColegiosPublicos
5304,Colegio P�blico San Eugenio y San Isidro,Comedor - Horario ampliado - Planes de mejora,"METRO: Embajadores , Acacias BUS: 34 , 36 , 116 , 118 , 119 , Circular 127 , 148 RENFE: Pir�mides , Embajadores", ENSE�ANZA: Educaci�n Infantil - Primaria - Ense�anza biling&uuml;e   ,0,http://www.madrid.es/vgn-ext-templating/v/index.jsp?vgnextchannel=9e4c43db40317010VgnVCM100000dc0ca8c0RCRD&vgnextoid=1ff813db5b71c010VgnVCM1000000b205a0aRCRD,PE�UELAS,CALLE,NUM,31,MADRID,MADRID,28005,ACACIAS,ARGANZUELA,440441,4472837,40.402134715838024,-3.7031694724884066,914 737 711,914 737 785,/contenido/entidadesYorganismos/CentrosEducacion/ColegiosPublicos
5305,Colegio P�blico San Ignacio de Loyola,Comedor - Horario ampliado - Planes de mejora,"METRO: Opa�el , Plaza El�ptica BUS: 47 , 55 , 247", ENSE�ANZA: Educaci�n Infantil - Primaria - Ense�anza biling&uuml;e   ,0,http://www.madrid.es/vgn-ext-templating/v/index.jsp?vgnextchannel=9e4c43db40317010VgnVCM100000dc0ca8c0RCRD&vgnextoid=641913db5b71c010VgnVCM1000000b205a0aRCRD,ABRANTES,AVENIDA,V,1,MADRID,MADRID,28025,ABRANTES,CARABANCHEL,438851,4470931,40.38484910708361,-3.7217220947079097,915 651 989,914 698 461,/contenido/entidadesYorganismos/CentrosEducacion/ColegiosPublicos
6028,Colegio P�blico San Ildefonso,Horario ampliado - Comedor - Planes de mejora.,"BUS: 31 , 50 , 65 , 3 , 148 METRO: Latina", ENSE�ANZA: Educacion Infantil - Primaria - Ense�anza biling&uuml;e   ,0,http://www.madrid.es/vgn-ext-templating/v/index.jsp?vgnextchannel=9e4c43db40317010VgnVCM100000dc0ca8c0RCRD&vgnextoid=e605ae10c471c010VgnVCM1000000b205a0aRCRD,ALFONSO VI,CALLE,V,1,MADRID,MADRID,28005,PALACIO,CENTRO,439686,4474058,40.41307968243987,-3.712170272137244,913 643 923,913 641 170,/contenido/entidadesYorganismos/CentrosEducacion/ColegiosPublicos
5306,Colegio P�blico San Isidoro,Comedor - Horario ampliado - Planes de mejora.,"METRO: Atocha , Men�ndez Pelayo BUS: 10 , 14 , 26 , 32 RENFE: Atocha", ENSE�ANZA: Educaci�n Infantil (Segundo ciclo) - Primaria  ,0,http://www.madrid.es/vgn-ext-templating/v/index.jsp?vgnextchannel=9e4c43db40317010VgnVCM100000dc0ca8c0RCRD&vgnextoid=b92913db5b71c010VgnVCM1000000b205a0aRCRD,FUENTERRABIA,CALLE,NUM,15,MADRID,MADRID,28014,PACIFICO,RETIRO,442297,4473307,40.40650867169137,-3.6813417078981567,915 514 845,915 015 983,/contenido/entidadesYorganismos/CentrosEducacion/ColegiosPublicos
5308,Colegio P�blico San Juan Bautista,Comedor - Horario ampliado - Planes de mejora - Convenio con Bristish Council,BUS: 53, ENSE�ANZA: Educaci�n Infantil - Primaria  ,0,http://www.madrid.es/vgn-ext-templating/v/index.jsp?vgnextchannel=9e4c43db40317010VgnVCM100000dc0ca8c0RCRD&vgnextoid=0f3913db5b71c010VgnVCM1000000b205a0aRCRD,SORZANO,CALLE,NUM,1,MADRID,MADRID,28043,SAN JUAN BAUTISTA,CIUDAD LINEAL,444228,4478250,40.451160716316814,-3.6590202395182456,914 131 225,915 194 638,/contenido/entidadesYorganismos/CentrosEducacion/ColegiosPublicos
5309,Colegio P�blico San Juan Bosco,Comedor -  Horario ampliado - Planes de mejora,"BUS: 110 , 113 , 210", ENSE�ANZA: Educaci�n Infantil - Primaria - Ense�anza biling&uuml;e   ,0,http://www.madrid.es/vgn-ext-templating/v/index.jsp?vgnextchannel=9e4c43db40317010VgnVCM100000dc0ca8c0RCRD&vgnextoid=545913db5b71c010VgnVCM1000000b205a0aRCRD,SANTA IRENE,CALLE,NUM,2,MADRID,MADRID,28017,VENTAS,CIUDAD LINEAL,444750,4474752,40.41968378283889,-3.652559914198146,914 053 610,914 043 233,/contenido/entidadesYorganismos/CentrosEducacion/ColegiosPublicos
5310,Colegio P�blico San Juan de la Cruz,Comedor - Horario ampliado - Planes de mejora,"METRO: Colombia BUS: 11 , 14 , 16, 29, 40 , 51 ,150", ENSE�ANZA: Educacion Infantil - Primaria - Ense�anza biling&uuml;e   ,1,http://www.madrid.es/vgn-ext-templating/v/index.jsp?vgnextchannel=9e4c43db40317010VgnVCM100000dc0ca8c0RCRD&vgnextoid=a96913db5b71c010VgnVCM1000000b205a0aRCRD,HONDURAS,CALLE,V,10,MADRID,MADRID,28016,NUEVA ESPA�A,CHAMARTIN,442495,4479193,40.459537375982286,-3.67954186336266,913 453 044,913 509 861,/contenido/entidadesYorganismos/CentrosEducacion/ColegiosPublicos
5311,Colegio P�blico San Miguel,Comedor - Transporte - Horario ampliado -Planes de mejora,"BUS: 9 , 107 , 72", ENSE�ANZA: Educaci�n Infantil - Primaria  ,0,http://www.madrid.es/vgn-ext-templating/v/index.jsp?vgnextchannel=9e4c43db40317010VgnVCM100000dc0ca8c0RCRD&vgnextoid=fe7913db5b71c010VgnVCM1000000b205a0aRCRD,VIRGEN DEL CARMEN,AVENIDA,NUM,32,MADRID,MADRID,28033,PINAR DEL REY,HORTALEZA,444823,4480826,40.47440638983908,-3.6522282145254072,917 639 281,917 639 281,/contenido/entidadesYorganismos/CentrosEducacion/ColegiosPublicos
5312,Colegio P�blico San Pablo,Horario ampliado - Comedor - Planes de mejora,"METRO: Buenos Aires BUS: 54 , 58 , 103 , 143", ENSE�ANZA: Educaci�n infantil - Primaria  ,0,http://www.madrid.es/vgn-ext-templating/v/index.jsp?vgnextchannel=9e4c43db40317010VgnVCM100000dc0ca8c0RCRD&vgnextoid=449913db5b71c010VgnVCM1000000b205a0aRCRD,PE&Ntilde;A MORRAZ,PLAZA,V,1,MADRID,MADRID,28038,PORTAZGO,PUENTE DE VALLECAS,444793,4471390,40.389399772744945,-3.6517608828166077,913 031 550,913 031 550,/contenido/entidadesYorganismos/CentrosEducacion/ColegiosPublicos
5313,Colegio P�blico San Roque, Comedor - Horario ampliado - Planes de mejora ," BUS: 22 , 79, 86, 130 , 131   RENFE: Puente Alcocer ", ENSE�ANZA: Educaci�n Infantil - Primaria  ,0,http://www.madrid.es/vgn-ext-templating/v/index.jsp?vgnextchannel=9e4c43db40317010VgnVCM100000dc0ca8c0RCRD&vgnextoid=99a913db5b71c010VgnVCM1000000b205a0aRCRD,OXIGENO,CALLE,V,43,MADRID,MADRID,28021,SAN ANDRES,VILLAVERDE,440390,4466702,40.34686367965085,-3.703195663444635,917 962 774,917 100 003,/contenido/entidadesYorganismos/CentrosEducacion/ColegiosPublicos
5314,Colegio P�blico Santa Mar�a,Comedor - Horario ampliado - Planes de mejora,"METRO: Embajadores, Acacias BUS: , 34 , 36 , 41 , 60 , 116 , 118 , 119 , 148 RENFE: Embajadores", ENSE�ANZA: Educaci�n Infantil - Primaria  ,0,http://www.madrid.es/vgn-ext-templating/v/index.jsp?vgnextchannel=9e4c43db40317010VgnVCM100000dc0ca8c0RCRD&vgnextoid=eeb913db5b71c010VgnVCM1000000b205a0aRCRD,CASINO,CALLE,V,7,MADRID,MADRID,28005,EMBAJADORES,CENTRO,440126,4473283,40.406129867007586,-3.7069233554021004,915 275 281,914 673 704,/contenido/entidadesYorganismos/CentrosEducacion/ColegiosPublicos
5315,Colegio P�blico Santo Domingo,Comedor - Horario ampliado - Planes de mejora,"METRO: Alto del Arenal BUS: 54 , 58 , 103 , 143", ENSE�ANZA: Educaci�n infantil - Primaria - Ense�anza biling&uuml;e   ,0,http://www.madrid.es/vgn-ext-templating/v/index.jsp?vgnextchannel=9e4c43db40317010VgnVCM100000dc0ca8c0RCRD&vgnextoid=34d913db5b71c010VgnVCM1000000b205a0aRCRD,SAN FELIU DE GUIXOLS,CALLE,NUM,7,MADRID,MADRID,28038,PORTAZGO,PUENTE DE VALLECAS,445293,4471677,40.39201829942787,-3.6458947958734735,917 785 293,913 037 833,/contenido/entidadesYorganismos/CentrosEducacion/ColegiosPublicos
5316,Colegio P�blico Tirso de Molina, Comedor - Horario ampliado - Planes de mejora ,"  METRO : Arganzuela-Planetario 
  BUS : 62, 148, 156 ", ENSE�ANZA: Educaci�n Infantil - Primaria -  ESO   ,0,http://www.madrid.es/vgn-ext-templating/v/index.jsp?vgnextchannel=9e4c43db40317010VgnVCM100000dc0ca8c0RCRD&vgnextoid=89e913db5b71c010VgnVCM1000000b205a0aRCRD,BRONCE,CALLE,V,1,MADRID,MADRID,28045,LEGAZPI,ARGANZUELA,441707,4471728,40.392243024735016,-3.6881496913853913,915 278 932,914 683 695,/contenido/entidadesYorganismos/CentrosEducacion/ColegiosPublicos
5317,Colegio P�blico Tom�s Bret�n,Transporte - Comedor - Horario ampliado - Integraci�n preferente (mot�ricos),"METRO: Pir�mides BUS: 17 , 36 , 50", ENSE�ANZA: Educaci�n Infantil - Primaria  ,1,http://www.madrid.es/vgn-ext-templating/v/index.jsp?vgnextchannel=9e4c43db40317010VgnVCM100000dc0ca8c0RCRD&vgnextoid=def913db5b71c010VgnVCM1000000b205a0aRCRD,ALEJANDRO DUMAS,CALLE,V,4,MADRID,MADRID,28005,IMPERIAL,ARGANZUELA,439364,4472727,40.40106583461258,-3.7158617370259046,913 642 214,913 667 387,/contenido/entidadesYorganismos/CentrosEducacion/ColegiosPublicos
42016,Colegio P�blico Valdebernardo, Comedor - Horario ampliado - Planes de mejora ," METRO: Valdebernardo BUS: 8 , 30, 71, 100, 130 ", ENSE�ANZA: Educaci�n Infantil - Primaria - Ense�anza biling&uuml;e  ,0,http://www.madrid.es/vgn-ext-templating/v/index.jsp?vgnextchannel=9e4c43db40317010VgnVCM100000dc0ca8c0RCRD&vgnextoid=6ad7598d1351c010VgnVCM1000000b205a0aRCRD,TREN DE ARGANDA,CALLE,V,9,MADRID,MADRID,28032,CASCO H.VICALVARO,VICALVARO,447683,4472924,40.40340595669721,-3.6178383019210627,913 713 523,913 051 773,/contenido/entidadesYorganismos/CentrosEducacion/ColegiosPublicos
5318,Colegio P�blico Vasco N��ez de Balboa,Comedor - Transporte - Horario ampliado - Planes de mejora,"BUS: 66 , 137 RENFE: Fuencarral", ENSE�ANZA: Educaci�n Infantil - Primaria  ,0,http://www.madrid.es/vgn-ext-templating/v/index.jsp?vgnextchannel=9e4c43db40317010VgnVCM100000dc0ca8c0RCRD&vgnextoid=241a13db5b71c010VgnVCM1000000b205a0aRCRD,NUESTRA SE�ORA DE VALVERDE,CALLE,NUM,149,MADRID,MADRID,28034,VALVERDE,FUENCARRAL-EL PARDO,441946,4483622,40.49939736356688,-3.686422886278671,917 343 267 - 917 350 225,917 355 336,/contenido/entidadesYorganismos/CentrosEducacion/ColegiosPublicos
5325,Colegio P�blico Virgen del Cerro,Transporte -  Horario ampliado - Comedor - Planes de mejora - Integraci�n preferente (mot�ricos),"BUS: 63 , 143 , E", ENSE�ANZA: Educaci�n infantil - Primaria  ,0,http://www.madrid.es/vgn-ext-templating/v/index.jsp?vgnextchannel=9e4c43db40317010VgnVCM100000dc0ca8c0RCRD&vgnextoid=145a13db5b71c010VgnVCM1000000b205a0aRCRD,MOHERNANDO,CALLE,NUM,1,MADRID,MADRID,28038,PORTAZGO,PUENTE DE VALLECAS,445024,4472116,40.39595533182647,-3.6491021370173584,917 785 083,917 785 083,/contenido/entidadesYorganismos/CentrosEducacion/ColegiosPublicos
5326,Colegio P�blico Virgen del Cortijo,Comedor - Transporte - Horario ampliado - Integraci�n preferente (Trastorno generalizado del desarrollo),"BUS: 150 , 174", ENSE�ANZA: Educaci�n Infantil - Primaria - Ense�anza biling&uuml;e   ,0,http://www.madrid.es/vgn-ext-templating/v/index.jsp?vgnextchannel=9e4c43db40317010VgnVCM100000dc0ca8c0RCRD&vgnextoid=696a13db5b71c010VgnVCM1000000b205a0aRCRD,MANOTERAS,AVENIDA,V,63,MADRID,MADRID,28050,VALDEFUENTES,HORTALEZA,444173,4482257,40.487253962803756,-3.6600221185724506,917 661 215,913 844 438,/contenido/entidadesYorganismos/CentrosEducacion/ColegiosPublicos
5319,Colegio P�blico V�zquez de Mella,Comedor - Horario ampliado - Planes de mejora,"METRO: La Latina, Puerta de Toledo BUS: 3 , 25 , 39 , 148, Circular", ENSE�ANZA: Educaci�n Infantil - Primaria  ,0,http://www.madrid.es/vgn-ext-templating/v/index.jsp?vgnextchannel=9e4c43db40317010VgnVCM100000dc0ca8c0RCRD&vgnextoid=792a13db5b71c010VgnVCM1000000b205a0aRCRD,BAILEN,CALLE,NUM,18,MADRID,MADRID,28005,PALACIO,CENTRO,439531,4473950,40.41209542948543,-3.7139985334961243,913 654 878 ,913 665 312,/contenido/entidadesYorganismos/CentrosEducacion/ColegiosPublicos
4690940,Colegio P�blico Winston Churchill,Horario ampliado - Comedor," Bus: 4, 100  Metro: Puerta de Arganda ", ENSE�ANZA: Educaci�n infantil - Primaria  ,0,http://www.madrid.es/vgn-ext-templating/v/index.jsp?vgnextchannel=9e4c43db40317010VgnVCM100000dc0ca8c0RCRD&vgnextoid=d3875f9fa7166110VgnVCM1000000b205a0aRCRD,GRAN VIA DEL ESTE,AVENIDA,V,5,MADRID,MADRID,28032,CASCO H.VICALVARO,VICALVARO,449594,4472862,40.4029655566785,-3.595313927334039,913 716 066 - 676 695 332,917 604 921,/contenido/entidadesYorganismos/CentrosEducacion/ColegiosPublicos
4690849,Colegio P�blico �lvaro de Bazan,Horario ampliado - Comedor - Integraci�n prefernete (Trastornos generales del desarrollo),"Bus: 4, 106, 140, 153 ", ENSE�ANZA: Educaci�n infantil - Primaria  ,0,http://www.madrid.es/vgn-ext-templating/v/index.jsp?vgnextchannel=9e4c43db40317010VgnVCM100000dc0ca8c0RCRD&vgnextoid=eb583058a6166110VgnVCM1000000b205a0aRCRD,ZURICH,CALLE,V,10,MADRID,MADRID,28022,ROSAS,SAN BLAS-CANILLEJAS,448596,4474931,40.42154331046489,-3.607241921623869,917 757 114,917 757 114,/contenido/entidadesYorganismos/CentrosEducacion/ColegiosPublicos
