PK,NOMBRE,HORARIO,EQUIPAMIENTO,TRANSPORTE,DESCRIPCION,ACCESIBILIDAD,CONTENT-URL,NOMBRE-VIA,CLASE-VIAL,TIPO-NUM,NUM,LOCALIDAD,PROVINCIA,CODIGO-POSTAL,BARRIO,DISTRITO,COORDENADA-X,COORDENADA-Y,LATITUD,LONGITUD,TELEFONO,TIPO
84763,Centro Comunitario Casino de la Reina,"   De apertura       De lunes a viernes de 8 a 22 horas  S�bados de 10 a 15 horas y de 16 a 22 horas  Domingos, festivos y s�bados de agosto cerrado.     De atenci�n de los Trabajadores Sociales Comunitarios (no es necesaria cita previa)    Lunes a jueves de 9 a 19 horas  Viernes de 9 a 14 horas  Julio y agosto de 9 a 15 horas.    ","  Orientaci�n sobre recursos sociales a vecinos.  Lugar de encuentro y espacio de trabajo compartido de los agentes sociales que trabajan en la cobertura de las necesidades sociales del distrito Centro.  Informaci�n y asesoramiento a asociaciones y colectivos para la puesta en marcha de actividades sociales.  Talleres grupales gratuitos realizados por la Administraci�n P�blica y/o asociaciones, dirigidos a menores, j�venes, familias y adultos.  Apoyo en el desarrollo de proyectos sociales, ofreciendo acompa�amiento t�cnico y facilitando el uso de espacios.  "," Metro: Embajadores  BUS: 27 , 34 , 36 , 41 , 47 , 60 , 78 , 116 , 118 , 119 , 148  Renfe: Embajadores            ", Actividades y talleres grupales.  Beneficiarios: Vecinos y asociaciones del Distrito Centro ,0,http://www.madrid.es/vgn-ext-templating/v/index.jsp?vgnextchannel=9e4c43db40317010VgnVCM100000dc0ca8c0RCRD&vgnextoid=326f38d60b41c010VgnVCM2000000c205a0aRCRD,CASINO,CALLE,V,3,MADRID,MADRID,28005,EMBAJADORES,CENTRO,440323,4473355,40.406792648617134,-3.7046086019457167,91 539 63 10,/contenido/entidadesYorganismos/CentrosAtencionSocial/CentrosServiciosSociales
11962,Centro de Servicios Sociales Badalona,"   Atenci�n al p�blico : de lunes a viernes de 9 a 13 y de 15 a 19 horas, con petici�n de cita previa.  ","  Informaci�n, orientaci�n y asesoramiento sobre derechos y recursos sociales.  Tramitaci�n y gesti�n de servicios sociales municipales (ayudas a domicilio, teleasistencia, centros de d�a municipales, pisos tutelados,  etc. ) y prestaciones econ�micas necesarias en la intervenci�n social.  Gesti�n y tramitaci�n de servicios y prestaciones de la Comunidad de Madrid (Dependencia, residencias de mayores, discapacitados, mujer, menores,  etc. ) Renta M�nima de Inserci�n (RMI) y diferentes prestaciones econ�micas de inserci�n social.  Informaci�n y gesti�n de los programas de prevenci�n dirigidos a menores, adolescentes, adultos, mayores,  etc.   "," Metro: Fuencarral (l�nea 10)  Bus: 66, 125, 137 y 178 ",  Ambito de Actuaci�n    Barrio Pilar (excepto algunas calles a consultar en el Centro de Servicios Sociales)  Barrio La Paz  Barrio Valverde  Barrio Mirasierra (excepto algunas calles a consultar en el Centro de Servicios Sociales)  Barrio El Goloso            ,0,http://www.madrid.es/vgn-ext-templating/v/index.jsp?vgnextchannel=9e4c43db40317010VgnVCM100000dc0ca8c0RCRD&vgnextoid=7e42d4985261c010VgnVCM1000000b205a0aRCRD,BADALONA,CALLE,NUM,122,MADRID,MADRID,28034,VALVERDE,FUENCARRAL-EL PARDO,441072,4482983,40.49357929928593,-3.696677139485103,917 355 510 (Centralita) / 917 355 511 (Cita previa),/contenido/entidadesYorganismos/CentrosAtencionSocial/CentrosServiciosSociales
11977,Centro de Servicios Sociales Calahorra,"   Atenci�n al p�blico : de lunes a viernes de 9 a 13 y de 15 a 19 horas, con petici�n de cita previa*     *La atenci�n en horario de tarde, de 15 a 19 horas, se realiza, para todo el distrito, en Centro Servicios Sociales &quot;Valdebernardo&quot; situado en la C/ Ladera de los Almendros, 6.  ","  Informaci�n, orientaci�n y asesoramiento sobre derechos y recursos sociales.  Tramitaci�n y gesti�n de servicios sociales municipales (ayudas a domicilio, teleasistencia, centros de d�a municipales, pisos tutelados,  etc. ) y prestaciones econ�micas necesarias en la intervenci�n social.  Gesti�n y tramitaci�n de servicios y prestaciones de la Comunidad de Madrid (Dependencia, residencias de mayores, discapacitados, mujer, menores,  etc.  ) Renta M�nima de Inserci�n (RMI) y diferentes prestaciones econ�micas de inserci�n social.  Informaci�n y gesti�n de los programas de prevenci�n dirigidos a menores, adolescentes, adultos, mayores,  etc.   "," Metro: Vic�lvaro (l�nea 9)  Bus: 4, 100, 106, 130, E3 ",,0,http://www.madrid.es/vgn-ext-templating/v/index.jsp?vgnextchannel=9e4c43db40317010VgnVCM100000dc0ca8c0RCRD&vgnextoid=11b966051361c010VgnVCM1000000b205a0aRCRD,CALAHORRA,CALLE,V,11B,MADRID,MADRID,28032,AMBROZ,VICALVARO,448118,4473303,40.406847513994755,-3.6127431819124416,917 753 150,/contenido/entidadesYorganismos/CentrosAtencionSocial/CentrosServiciosSociales
11978,Centro de Servicios Sociales Concepci�n Arenal," 
  Atenci�n al p�blico : de lunes a viernes de 9 a 13 y de 15 a 19 horas, con petici�n de cita previa. 
 "," 
 Informaci�n, orientaci�n y asesoramiento sobre derechos y recursos sociales. 
 Tramitaci�n y gesti�n de servicios sociales municipales (ayudas a domicilio, teleasistencia, centros de d�a municipales, pisos tutelados,  etc. ) y prestaciones econ�micas necesarias en la intervenci�n social. 
 Gesti�n y tramitaci�n de servicios y prestaciones de la Comunidad de Madrid (Dependencia, residencias de mayores, discapacitados, mujer, menores,  etc. ) Renta M�nima de Inserci�n (RMI) y diferentes prestaciones econ�micas de inserci�n social. 
 Informaci�n y gesti�n de los programas de prevenci�n dirigidos a menores, adolescentes, adultos, mayores,  etc.  
 "," Metro: Canillas (l�nea 4), Mar de Cristal (l�neas 4 y 8) 
 Bus: 73 ","  Ambito de Actuaci�n  
 
 Barrio Palomas 
 Barrio Piovera 
 Barrio Canillas 
 Barrio Pinar del Rey 
 Barrio Ap�stol Santiago 
 Barrio Valdefuentes 
 
        ",0,http://www.madrid.es/vgn-ext-templating/v/index.jsp?vgnextchannel=9e4c43db40317010VgnVCM100000dc0ca8c0RCRD&vgnextoid=ca8966051361c010VgnVCM1000000b205a0aRCRD,JAVIER DEL QUINTO,CALLE,V,12,MADRID,MADRID,28043,CANILLAS,HORTALEZA,445666,4479948,40.46655261519155,-3.6422084742926653,913 821 563 / 913 821 561 ,/contenido/entidadesYorganismos/CentrosAtencionSocial/CentrosServiciosSociales
11961,Centro de Servicios Sociales Dehesa de la Villa,"   Atenci�n al p�blico : de lunes a viernes de 9 a 13 y de 15 a 19 horas, con petici�n de cita previa.   Petici�n de citas:    En el Centro de Servicios Sociales: presencial o telef�nicamente de lunes a viernes en horario de 9 a 14 horas.    ","  Informaci�n, orientaci�n y asesoramiento sobre derechos y recursos sociales.  Tramitaci�n y gesti�n de servicios sociales municipales (ayudas a domicilio, teleasistencia, centros de d�a municipales, pisos tutelados,  etc. ) y prestaciones econ�micas necesarias en la intervenci�n social.  Gesti�n y tramitaci�n de servicios y prestaciones de la Comunidad de Madrid (Dependencia, residencias de mayores, discapacitados, mujer, menores,  etc. ) Renta M�nima de Inserci�n (RMI) y diferentes prestaciones econ�micas de inserci�n social.  Informaci�n y gesti�n de los programas de prevenci�n dirigidos a menores, adolescentes, adultos, mayores,  etc.   zona wifi  "," Metro: Antonio Machado (l�nea 7), Valdezarza (l�nea 7)  Bus: 126, 127 y 132 ",  Ambito de Actuaci�n    Barrio Ciudad Universitaria  Barrio Valdezarza           ,1,http://www.madrid.es/vgn-ext-templating/v/index.jsp?vgnextchannel=9e4c43db40317010VgnVCM100000dc0ca8c0RCRD&vgnextoid=67d966051361c010VgnVCM1000000b205a0aRCRD,ANTONIO MACHADO,CALLE,V,22,MADRID,MADRID,28035,VALDEZARZA,MONCLOA-ARAVACA,439113,4480061,40.46711526748946,-3.7195114936540987,913 730 224 / 913 768 772 / 913 732 564,/contenido/entidadesYorganismos/CentrosAtencionSocial/CentrosServiciosSociales
11954,Centro de Servicios Sociales Eduardo Minguito,"   Atenci�n al p�blico : de lunes a viernes de 9 a 13 y de 15 a 19 horas, con petici�n de cita previa.  ","  Informaci�n, orientaci�n y asesoramiento sobre derechos y recursos sociales.  Tramitaci�n y gesti�n de servicios sociales municipales (ayudas a domicilio, teleasistencia, centros de d�a municipales, pisos tutelados,  etc. ) y prestaciones econ�micas necesarias en la intervenci�n social  Gesti�n y tramitaci�n de servicios y prestaciones de la Comunidad de Madrid (Dependencia, residencias de mayores, discapacitados, mujer, menores,  etc. ) Renta M�nima de Inserci�n (RMI) y diferentes prestaciones econ�micas de inserci�n social  Informaci�n y gesti�n de los programas de prevenci�n dirigidos a menores, adolescentes, adultos, mayores,  etc.   Zona wifi  "," Metro: Villaverde Bajo Cruce (l�nea 3)  Bus: 85, 123  Renfe: Villaverde Bajo ",  Ambito de Actuaci�n    Barrio de San Crist�bal  Barrio de Butarque  Barrio de Los Rosales   ,0,http://www.madrid.es/vgn-ext-templating/v/index.jsp?vgnextchannel=9e4c43db40317010VgnVCM100000dc0ca8c0RCRD&vgnextoid=6c3c66051361c010VgnVCM1000000b205a0aRCRD,LEONOR GONGORA,CALLE,V,62,MADRID,MADRID,28021,LOS ROSALES,VILLAVERDE,441806,4466878,40.34854935708132,-3.686539661954902,917 109 356,/contenido/entidadesYorganismos/CentrosAtencionSocial/CentrosServiciosSociales
11957,Centro de Servicios Sociales Entrev�as," 
  Atenci�n al p�blico : de lunes a viernes de 9 a 13 y de 15 a 19 horas, con petici�n de cita previa. 
  Petici�n de citas: 
 
 En el Centro de Servicios Sociales: presencial o telef�nicamente de lunes a viernes en horario de 9 a 14 horas. 
 
 
 "," 
 Informaci�n, orientaci�n y asesoramiento sobre derechos y recursos sociales. 
 Tramitaci�n y gesti�n de servicios sociales municipales (ayudas a domicilio, teleasistencia, centros de d�a municipales, pisos tutelados,  etc. ) y prestaciones econ�micas necesarias en la intervenci�n social. 
 Gesti�n y tramitaci�n de servicios y prestaciones de la Comunidad de Madrid (Dependencia, residencias de mayores, discapacitados, mujer, menores,  etc. ) Renta M�nima de Inserci�n (RMI) y diferentes prestaciones econ�micas de inserci�n social. 
 Informaci�n y gesti�n de los programas de prevenci�n dirigidos a menores, adolescentes, adultos, mayores,  etc.  
 Zona wifi 
 "," Bus: 102, 103 y 111 
 Renfe: Asamblea de Madrid-Entrev�as ","  Ambito de Actuaci�n  
 
 Barrios Entrevias 
 Barrio el Pozo 
 ",0,http://www.madrid.es/vgn-ext-templating/v/index.jsp?vgnextchannel=9e4c43db40317010VgnVCM100000dc0ca8c0RCRD&vgnextoid=bdf966051361c010VgnVCM1000000b205a0aRCRD,YUSTE,CALLE,V,8,MADRID,MADRID,28053,ENTREVIAS,PUENTE DE VALLECAS,443295,4469960,40.37641666740886,-3.6692821142332264,"915 079 270     
Tel�fono cita previa: 915 079 271",/contenido/entidadesYorganismos/CentrosAtencionSocial/CentrosServiciosSociales
11979,Centro de Servicios Sociales Fuente Carrantona,"   Atenci�n al p�blico : de lunes a viernes de 9 a 13 y de 15 a 19 horas, con petici�n de cita previa.  ","  Informaci�n, orientaci�n y asesoramiento sobre derechos y recursos sociales.  Tramitaci�n y gesti�n de servicios sociales municipales (ayudas a domicilio, teleasistencia, centros de d�a municipales, pisos tutelados,  etc. ) y prestaciones econ�micas necesarias en la intervenci�n social.  Gesti�n y tramitaci�n de servicios y prestaciones de la Comunidad de Madrid (Dependencia, residencias de mayores, discapacitados, mujer, menores,  etc. ) Renta M�nima de Inserci�n (RMI) y diferentes prestaciones econ�micas de inserci�n social.  Informaci�n y gesti�n de los programas de prevenci�n dirigidos a menores, adolescentes, adultos, mayores,  etc.   "," Metro : Pavones (l�nea 9)  Bus: 8, 20, 30, 32, 71, 100, 140, 142 y 144 ",  Ambito de Actuaci�n    Barrio Pavones  Barrio Horcajo  Barrio Marroquina  Barrio Media Legua  Barrio Fontarr�n  Barrio Vinateros            ,0,http://www.madrid.es/vgn-ext-templating/v/index.jsp?vgnextchannel=9e4c43db40317010VgnVCM100000dc0ca8c0RCRD&vgnextoid=042a66051361c010VgnVCM1000000b205a0aRCRD,FUENTE CARRANTONA,CALLE,V,12,MADRID,MADRID,28030,PAVONES,MORATALAZ,446191,4472756,40.40179722425483,-3.6354058846496793,915 887 462 / 915 880 462 / 915 887 469,/contenido/entidadesYorganismos/CentrosAtencionSocial/CentrosServiciosSociales
6255479,Centro de Servicios Sociales Fuerte de Navidad,"   Atenci�n al p�blico : de lunes a viernes de 9 a 13 y de 15 a 19 horas, con petici�n de cita previa.  ","  Informaci�n, orientaci�n y asesoramiento sobre derechos y recursos sociales.  Tramitaci�n y gesti�n de servicios sociales municipales (ayudas a domicilio, teleasistencia, centros de d�a municipales, pisos tutelados,  etc. ) y prestaciones econ�micas necesarias en la intervenci�n social.  Gesti�n y tramitaci�n de servicios y prestaciones de la Comunidad de Madrid (Dependencia, residencias de mayores, discapacitados, mujer, menores,  etc. ) Renta M�nima de Inserci�n (RMI) y diferentes prestaciones econ�micas de inserci�n social.  Informaci�n y gesti�n de los programas de prevenci�n dirigidos a menores, adolescentes, adultos, mayores,  etc.   "," Metro: Aluche (l�nea 5)  Bus: 17, 34, 117 y 155  Renfe: Fanjul ",  Ambito de actuaci�n     Barrio Las Aguilas  Barrio Campamento  Barrio Cuatro Vientos  Barrio de Aluche  ,1,http://www.madrid.es/vgn-ext-templating/v/index.jsp?vgnextchannel=9e4c43db40317010VgnVCM100000dc0ca8c0RCRD&vgnextoid=ff96857d40ef3310VgnVCM1000000b205a0aRCRD,FUERTE DE NAVIDAD,CALLE,V,15,MADRID,MADRID,28044,LAS AGUILAS,LATINA,435112,4470487,40.380566072889415,-3.7657241589764547,914 800 513 / 914 800 367,/contenido/entidadesYorganismos/CentrosAtencionSocial/CentrosServiciosSociales
11981,Centro de Servicios Sociales Gallur,"   Atenci�n al p�blico : de lunes a viernes de 9 a 13 y de 15 a 19 horas, con petici�n de cita previa.  ","  Informaci�n, orientaci�n y asesoramiento sobre derechos y recursos sociales.  Tramitaci�n y gesti�n de servicios sociales municipales (ayudas a domicilio, teleasistencia, centros de d�a municipales, pisos tutelados,  etc. ) y prestaciones econ�micas necesarias en la intervenci�n social.  Gesti�n y tramitaci�n de servicios y prestaciones de la Comunidad de Madrid (Dependencia, residencias de mayores, discapacitados, mujer, menores,  etc. ) Renta M�nima de Inserci�n (RMI) y diferentes prestaciones econ�micas de inserci�n social.  Informaci�n y gesti�n de los programas de prevenci�n dirigidos a menores, adolescentes, adultos, mayores,  etc.   "," Metro: Laguna (l�nea 6)  Bus: 17, 25, 31, 55 y 119  Renfe: Laguna ",  Ambito de actuaci�n     Barrio Los Carmenes  Barrio Puerta del �ngel  ,1,http://www.madrid.es/vgn-ext-templating/v/index.jsp?vgnextchannel=9e4c43db40317010VgnVCM100000dc0ca8c0RCRD&vgnextoid=a07a66051361c010VgnVCM1000000b205a0aRCRD,GALLUR,CALLE,V,24,MADRID,MADRID,28047,LOS CARMENES,LATINA,437206,4472364,40.39763562192633,-3.741242653897222,914 220 340,/contenido/entidadesYorganismos/CentrosAtencionSocial/CentrosServiciosSociales
11966,Centro de Servicios Sociales Guindalera,"   Atenci�n al p�blico : de lunes a viernes de 9 a 13 y de 15 a 19 horas, con petici�n de cita previa.  ","  Informaci�n, orientaci�n y asesoramiento sobre derechos y recursos sociales.  Tramitaci�n y gesti�n de servicios sociales municipales (ayudas a domicilio, teleasistencia, centros de d�a municipales, pisos tutelados,  etc. ) y prestaciones econ�micas necesarias en la intervenci�n social.  Gesti�n y tramitaci�n de servicios y prestaciones de la Comunidad de Madrid (Dependencia, residencias de mayores, discapacitados, mujer, menores,  etc. ) Renta M�nima de Inserci�n (RMI) y diferentes prestaciones econ�micas de inserci�n social.  Informaci�n y gesti�n de los programas de prevenci�n dirigidos a menores, adolescentes, adultos, mayores,  etc.   zona wifi  ","Metro: Diego de Leon (l�neas 4, 5 y 6) Bus: 1, 43, 48 y 74",  Ambito de Actuaci�n    Barrio Recoletos  Barrio Goya  Barrio Fuente del Berro  Barrio Guindalera  Barrio Lista  Barrio Castellana            ,1,http://www.madrid.es/vgn-ext-templating/v/index.jsp?vgnextchannel=9e4c43db40317010VgnVCM100000dc0ca8c0RCRD&vgnextoid=f69a66051361c010VgnVCM1000000b205a0aRCRD,PILAR DE ZARAGOZA,CALLE,V,28,MADRID,MADRID,28028,GUINDALERA,SALAMANCA,443357,4476296,40.43349910050292,-3.6691167784691703,917 130 701 ,/contenido/entidadesYorganismos/CentrosAtencionSocial/CentrosServiciosSociales
5886896,Centro de Servicios Sociales Huerta de Villaverde,"   Atenci�n al p�blico : de lunes a viernes de 9 a 13 y de 15 a 19 horas, con petici�n de cita previa.  ","  Informaci�n, orientaci�n y asesoramiento sobre derechos y recursos sociales.  Tramitaci�n y gesti�n de servicios sociales municipales (ayudas a domicilio, teleasistencia, centros de d�a municipales, pisos tutelados,  etc. ) y prestaciones econ�micas necesarias en la intervenci�n social.  Gesti�n y tramitaci�n de servicios y prestaciones de la Comunidad de Madrid (Dependencia, residencias de mayores, discapacitados, mujer, menores,  etc.  ) Renta M�nima de Inserci�n (RMI) y diferentes prestaciones econ�micas de inserci�n social.  Informaci�n y gesti�n de los programas de prevenci�n dirigidos a menores, adolescentes, adultos, mayores,  etc.   "," Bus: 22, 76, 79, 86, 131   Renfe: Puente Alcocer  El Centro esta ubicado en el mismo edificio de la Junta Municipal de Villaverde, y su entrada se encuentra en la fachada trasera. ",  Ambito de Actuaci�n    Barrio de San Andr�s  Barrio de Los �ngeles  ,0,http://www.madrid.es/vgn-ext-templating/v/index.jsp?vgnextchannel=9e4c43db40317010VgnVCM100000dc0ca8c0RCRD&vgnextoid=9ecc8ef4e77ac210VgnVCM1000000b205a0aRCRD,HUERTA DE VILLAVERDE (JUNTA MUNICIPAL DISTRITO),CALLE,V,16,MADRID,MADRID,28021,SAN ANDRES,VILLAVERDE,439875,4466845,40.348114880237965,-3.7092727813976794,915 887 794 / 915 888 900,/contenido/entidadesYorganismos/CentrosAtencionSocial/CentrosServiciosSociales
11970,Centro de Servicios Sociales Jose Villarreal,"   Atenci�n al p�blico : de lunes a viernes de 9 a 13 y de 15 a 19 horas, con petici�n de cita previa.  ","  Informaci�n, orientaci�n y asesoramiento sobre derechos y recursos sociales.  Tramitaci�n y gesti�n de servicios sociales municipales (ayudas a domicilio, teleasistencia, centros de d�a municipales, pisos tutelados,  etc. ) y prestaciones econ�micas necesarias en la intervenci�n social.  Gesti�n y tramitaci�n de servicios y prestaciones de la Comunidad de Madrid (Dependencia, residencias de mayores, discapacitados, mujer, menores,  etc. ) Renta M�nima de Inserci�n (RMI) y diferentes prestaciones econ�micas de inserci�n social.  Informaci�n y gesti�n de los programas de prevenci�n dirigidos a menores, adolescentes, adultos, mayores,  etc.   "," Metro: Legazpi (lineas 3 y 6)  Bus: 8, 16, 18, 19, 45, 47, 59, 62, 76, 78, 85, 86, 148, 247. ",  Ambito de Actuaci�n    Barrio Imperial  Barrio Acacias  Barrio Chopera  Barrio Legazpi  Barrio Delicias  Barrio Palos de Moguer  Barrio Atocha  ,0,http://www.madrid.es/vgn-ext-templating/v/index.jsp?vgnextchannel=9e4c43db40317010VgnVCM100000dc0ca8c0RCRD&vgnextoid=746966051361c010VgnVCM1000000b205a0aRCRD,GUILLERMO DE OSMA,CALLE,V,14,MADRID,MADRID,28045,CHOPERA,ARGANZUELA,440953,4471932,40.39401854488283,-3.697052144961612,"915 177 217 / 915 177 224 / 915 177 225                                                  
",/contenido/entidadesYorganismos/CentrosAtencionSocial/CentrosServiciosSociales
4821180,Centro de Servicios Sociales Loyola de Palacio,"   Atenci�n al p�blico : de lunes a viernes de 9 a 13 y de 15 a 19 horas, con petici�n de cita previa.  ","  Informaci�n, orientaci�n y asesoramiento sobre derechos y recursos sociales.  Tramitaci�n y gesti�n de servicios sociales municipales (ayudas a domicilio, teleasistencia, centros de d�a municipales, pisos tutelados,  etc. ) y prestaciones econ�micas necesarias en la intervenci�n social.  Gesti�n y tramitaci�n de servicios y prestaciones de la Comunidad de Madrid (Dependencia, residencias de mayores, discapacitados, mujer, menores,  etc. ) Renta M�nima de Inserci�n (RMI) y diferentes prestaciones econ�micas de inserci�n social.  Informaci�n y gesti�n de los programas de prevenci�n dirigidos a menores, adolescentes, adultos, mayores,  etc.   ","Metro: San Ferm�n-Orcasur (l�nea 3)  Bus: 18, 22, 23, 59, 78, 79, 85, 86, 123 y 130 ",  Ambito de Actuaci�n    Barrio de San Ferm�n  Barrio de Orcasur  ,0,http://www.madrid.es/vgn-ext-templating/v/index.jsp?vgnextchannel=9e4c43db40317010VgnVCM100000dc0ca8c0RCRD&vgnextoid=a4bea27cd8978110VgnVCM1000000b205a0aRCRD,SILVINA,CALLE,V,10,MADRID,MADRID,28041,SAN FERMIN,USERA,441386,4468853,40.36631185725801,-3.6916666866352674,915 006 846 / 915 003 738,/contenido/entidadesYorganismos/CentrosAtencionSocial/CentrosServiciosSociales
11955,Centro de Servicios Sociales Luis Vives,"   Atenci�n al p�blico : de lunes a viernes de 9 a 13, y de 15 a 19 horas, con petici�n de cita previa.  ","  Informaci�n, orientaci�n y asesoramiento sobre derechos y recursos sociales.  Tramitaci�n y gesti�n de servicios sociales municipales (ayudas a domicilio, teleasistencia, centros de d�a municipales, pisos tutelados,  etc. ) y prestaciones econ�micas necesarias en la intervenci�n social.  Gesti�n y tramitaci�n de servicios y prestaciones de la Comunidad de Madrid (Dependencia, residencias de mayores, discapacitados, mujer, menores,  etc. ) Renta M�nima de Inserci�n (RMI) y diferentes prestaciones econ�micas de inserci�n social.  Informaci�n y gesti�n de los programas de prevenci�n dirigidos a menores, adolescentes, adultos, mayores,  etc.   zona wifi  "," Metro: Simancas (l�nea 7)  Bus: 4, 38, 48, 70 y 109 ",  Ambito de Actuaci�n    Barrio Ventas  Barrio Quintana  Barrio Concepci�n  Barrio San Pascual  Barrio San Juan Bautista  Barrio Colina  Barrio Atalaya  Barrio Costillares  ,1,http://www.madrid.es/vgn-ext-templating/v/index.jsp?vgnextchannel=9e4c43db40317010VgnVCM100000dc0ca8c0RCRD&vgnextoid=4dba66051361c010VgnVCM1000000b205a0aRCRD,HERMANOS GARCIA NOBLEJAS,CALLE,NUM,160,MADRID,MADRID,28037,PUEBLO NUEVO,CIUDAD LINEAL,446786,4475211,40.42395169186788,-3.6286003047950564,914 402 360 (Citas) / 914 402 362 (Informaci�n del Centro),/contenido/entidadesYorganismos/CentrosAtencionSocial/CentrosServiciosSociales
174917,Centro de Servicios Sociales Maravillas,"   Atenci�n al p�blico : de lunes a viernes de 9 a 13 y de 15 a 19 horas, con petici�n de cita previa.  ","  Informaci�n, orientaci�n y asesoramiento sobre derechos y recursos sociales.  Tramitaci�n y gesti�n de servicios sociales municipales (ayudas a domicilio, teleasistencia, centros de d�a municipales, pisos tutelados,  etc. ) y prestaciones econ�micas necesarias en la intervenci�n social.  Gesti�n y tramitaci�n de servicios y prestaciones de la Comunidad de Madrid (Dependencia, residencias de mayores, discapacitados, mujer, menores,  etc. ), Renta M�nima de Inserci�n (RMI) y diferentes prestaciones econ�micas de inserci�n social.  Informaci�n y gesti�n de los programas de prevenci�n dirigidos a menores, adolescentes, adultos, mayores,  etc.   "," Metro: Tribunal (l�neas 1 y 10)  Bus: 40, 149 y M2 ",  Ambito de Actuaci�n    Barrio Universidad  Barrio Justicia   ,0,http://www.madrid.es/vgn-ext-templating/v/index.jsp?vgnextchannel=9e4c43db40317010VgnVCM100000dc0ca8c0RCRD&vgnextoid=06fd14c4d661c010VgnVCM1000000b205a0aRCRD,SAN JOAQUIN,CALLE,V,10,MADRID,MADRID,28004,UNIVERSIDAD,CENTRO,440605,4475331,40.42461360444157,-3.7014702220707294,915 888 818 / 915 888 897,/contenido/entidadesYorganismos/CentrosAtencionSocial/CentrosServiciosSociales
11963,Centro de Servicios Sociales Marta Esquivias Tallada,"   Atenci�n al p�blico : de lunes a viernes de 9 a 13 y de 15 a 19 horas, con petici�n de cita previa.  ","  Informaci�n, orientaci�n y asesoramiento sobre derechos y recursos sociales.  Tramitaci�n y gesti�n de servicios sociales municipales (ayudas a domicilio, teleasistencia, centros de d�a municipales, pisos tutelados,  etc. ) y prestaciones econ�micas necesarias en la intervenci�n social.  Gesti�n y tramitaci�n de servicios y prestaciones de la Comunidad de Madrid (Dependencia, residencias de mayores, discapacitados, mujer, menores,  etc. ) Renta M�nima de Inserci�n (RMI) y diferentes prestaciones econ�micas de inserci�n social.  Informaci�n y gesti�n de los programas de prevenci�n dirigidos a menores, adolescentes, adultos, mayores,  etc.   "," Metro: Quevedo (l�nea 2), Moncloa (l�neas 3 y 6) y Arg&uuml;elles (l�neas 3, 4 y 6)  Bus: 2, 16, 61  ",  Ambito de Actuaci�n    Barrio Gaztambide  Barrio Arapiles  Barrio Trafalgar  Barrio Almagro  Barrio Rios Rosas  Barrio Vallehermoso  ,0,http://www.madrid.es/vgn-ext-templating/v/index.jsp?vgnextchannel=9e4c43db40317010VgnVCM100000dc0ca8c0RCRD&vgnextoid=5a4a66051361c010VgnVCM1000000b205a0aRCRD,PONTEVEDRA,CALLE,V,S/N (a la altura de C/ Galileo n�45),MADRID,MADRID,28015,ARAPILES,CHAMBERI,439804,4476444,40.43458232083789,-3.71101765428563,915 499 934 / 915499936 / 915 499 900 / 915 499 933                    ,/contenido/entidadesYorganismos/CentrosAtencionSocial/CentrosServiciosSociales
55076,Centro de Servicios Sociales Mar�a Zayas,"   Atenci�n al p�blico : de lunes a viernes de 9 a 13 y de 15 a 19 horas, con petici�n de cita previa.  ","  Informaci�n, orientaci�n y asesoramiento sobre derechos y recursos sociales.  Tramitaci�n y gesti�n de servicios sociales municipales (ayudas a domicilio, teleasistencia, centros de d�a municipales, pisos tutelados,  etc. ) y prestaciones econ�micas necesarias en la intervenci�n social.  Gesti�n y tramitaci�n de servicios y prestaciones de la Comunidad de Madrid (Dependencia, residencias de mayores, discapacitados, mujer, menores,  etc. ) Renta M�nima de Inserci�n (RMI) y diferentes prestaciones econ�micas de inserci�n social.  Informaci�n y gesti�n de los programas de prevenci�n dirigidos a menores, adolescentes, adultos, mayores,  etc.   "," Metro: Tetu�n (l�nea 1)  Bus: 11, 66 y 124 ",  Ambito de Actuaci�n    Barrio de Bellas Vistas  Barrio de Cuatro Caminos  Barrio de Berruguete  Barrio Castillejos (compartido con el Centro de Servicios Sociales Vicente Ferrer)  ,0,http://www.madrid.es/vgn-ext-templating/v/index.jsp?vgnextchannel=9e4c43db40317010VgnVCM100000dc0ca8c0RCRD&vgnextoid=5a56b3e42751c010VgnVCM2000000c205a0aRCRD,MARIA ZAYAS,TRAVESIA,V,S/N,MADRID,MADRID,28039,BERRUGUETE,TETUAN,440645,4479191,40.45938903047262,-3.7013600299327027,914 492 140 / 914 492 141,/contenido/entidadesYorganismos/CentrosAtencionSocial/CentrosServiciosSociales
11959,Centro de Servicios Sociales Monse�or Oscar Romero," 
  Atenci�n al p�blico : de lunes a viernes de 9 a 13 y de 15 a 19 horas, con petici�n de cita previa. 
 "," 
 Informaci�n, orientaci�n y asesoramiento sobre derechos y recursos sociales. 
 Tramitaci�n y gesti�n de servicios sociales municipales (ayudas a domicilio, teleasistencia, centros de d�a municipales, pisos tutelados,  etc. ) y prestaciones econ�micas necesarias en la intervenci�n social. 
 Gesti�n y tramitaci�n de servicios y prestaciones de la Comunidad de Madrid (Dependencia, residencias de mayores, discapacitados, mujer, menores,  etc. ) Renta M�nima de Inserci�n (RMI) y diferentes prestaciones econ�micas de inserci�n social. 
 Informaci�n y gesti�n de los programas de prevenci�n dirigidos a menores, adolescentes, adultos, mayores,  etc.  
 "," Metro: Eugenia de Montijo (l�nea 5) 
 Bus: 17, 34, 35 y 108 ","  �mbito de actuaci�n  
 
 Barrio Vista Alegre 
 Barrio Buenavista 
 Barrio Puerta Bonita ( excepto algunas calles a consultar en el Centro de Servicios Sociales) 
 Barrio de Abrantes  (excepto algunas calles a consultar en el Centro de Servicios Sociales ) 
 ",0,http://www.madrid.es/vgn-ext-templating/v/index.jsp?vgnextchannel=9e4c43db40317010VgnVCM100000dc0ca8c0RCRD&vgnextoid=93ea66051361c010VgnVCM1000000b205a0aRCRD,MONSE�OR OSCAR ROMERO,CALLE,V,42,MADRID,MADRID,28025,VISTA ALEGRE,CARABANCHEL,436916,4470615,40.381857918294784,-3.744486133499755,913 602 980 / 913 602 981,/contenido/entidadesYorganismos/CentrosAtencionSocial/CentrosServiciosSociales
5211604,Centro de Servicios Sociales Pablo Casals,"   Atenci�n al p�blico : de lunes a viernes de 9 a 13 y de 15 a 19 horas, con petici�n de cita previa.  ","  Informaci�n, orientaci�n y asesoramiento sobre derechos y recursos sociales.  Tramitaci�n y gesti�n de servicios sociales municipales (ayudas a domicilio, teleasistencia, centros de d�a municipales, pisos tutelados,  etc. ) y prestaciones econ�micas necesarias en la intervenci�n social.  Gesti�n y tramitaci�n de servicios y prestaciones de la Comunidad de Madrid (Dependencia, residencias de mayores, discapacitados, mujer, menores,  etc. ), Renta M�nima de Inserci�n (RMI) y diferentes prestaciones econ�micas de inserci�n social.  Informaci�n y gesti�n de los programas de prevenci�n dirigidos a menores, adolescentes, adultos, mayores,  etc.   "," Metro: San Blas (l�nea 7), Simancas (l�nea 7)  Bus: 4, 38, 48, 153 ",  �mbito de actuaci�n    Barrio de Hell�n  Barrio de Amposta  Barrio de Arcos  Barrio de Las Rosas  ,0,http://www.madrid.es/vgn-ext-templating/v/index.jsp?vgnextchannel=9e4c43db40317010VgnVCM100000dc0ca8c0RCRD&vgnextoid=f2b7e6ad5aade110VgnVCM1000000b205a0aRCRD,POBLADURA DEL VALLE,CALLE,V,13,MADRID,MADRID,28037,AMPOSTA,SAN BLAS-CANILLEJAS,447549,4475448,40.42612627597509,-3.6196258294576653,917 609 840,/contenido/entidadesYorganismos/CentrosAtencionSocial/CentrosServiciosSociales
11972,Centro de Servicios Sociales Pablo Neruda," 
  Atenci�n al p�blico : de lunes a viernes de 9 a 13 y de 15 a 19 horas, con petici�n de cita previa. 
  Petici�n de citas: 
 
 En el Centro de Servicios Sociales: presencial o telef�nicamente de lunes a viernes en horario de 9 a 14 horas. 
 
 
 "," 
 Informaci�n, orientaci�n y asesoramiento sobre derechos y recursos sociales. 
 Tramitaci�n y gesti�n de servicios sociales municipales (ayudas a domicilio, teleasistencia, centros de d�a municipales, pisos tutelados,  etc. ) y prestaciones econ�micas necesarias en la intervenci�n social. 
 Gesti�n y tramitaci�n de servicios y prestaciones de la Comunidad de Madrid (Dependencia, residencias de mayores, discapacitados, mujer, menores,  etc. ) Renta M�nima de Inserci�n (RMI) y diferentes prestaciones econ�micas de inserci�n social. 
 Informaci�n y gesti�n de los programas de prevenci�n dirigidos a menores, adolescentes, adultos, mayores,  etc.  
 zona wifi 
 "," Metro: Miguel Hern�ndez (l�nea 1) 
 Bus: 10, 57, 144 y 310 ","  �mbito de actuaci�n  
 
 Barrio  Palomeras Sureste 
 Barrio Portazgo (compartido con el Centro de Servicios Sociales Ram�n Perez de Ayala) 
 ",1,http://www.madrid.es/vgn-ext-templating/v/index.jsp?vgnextchannel=9e4c43db40317010VgnVCM100000dc0ca8c0RCRD&vgnextoid=e90b66051361c010VgnVCM1000000b205a0aRCRD,GERARDO DIEGO,CALLE,NUM,8,MADRID,MADRID,28018,PALOMERAS SURESTE,PUENTE DE VALLECAS,445409,4470917,40.385179370371446,-3.6444628142076514,"913 806 842   
Tel�fono cita previa: 913 806 840 ",/contenido/entidadesYorganismos/CentrosAtencionSocial/CentrosServiciosSociales
165907,Centro de Servicios Sociales Plaza El�ptica," 
  Atenci�n al p�blico : de lunes a viernes de 9 a 13 y de 15 a 19 horas, con petici�n de cita previa. 
 "," 
 Informaci�n, orientaci�n y asesoramiento sobre derechos y recursos sociales. 
 Tramitaci�n y gesti�n de servicios sociales municipales (ayudas a domicilio, teleasistencia, centros de d�a municipales, pisos tutelados,  etc. ) y prestaciones econ�micas necesarias en la intervenci�n social. 
 Gesti�n y tramitaci�n de servicios y prestaciones de la Comunidad de Madrid (Dependencia, residencias de mayores, discapacitados, mujer, menores,  etc. ) Renta M�nima de Inserci�n (RMI) y diferentes prestaciones econ�micas de inserci�n social. 
 Informaci�n y gesti�n de los programas de prevenci�n dirigidos a menores, adolescentes, adultos, mayores,  etc.  
 "," Metro: Plaza El�ptica (l�neas 6 y 11) 
 Bus: 47, 55, 60, 81, 116, 155, 247 y E1 ","  Actividades  
 
 Orientadas a la integraci�n social     
 
  �mbito de actuaci�n  
 
 Barrio Comillas 
 Barrio Opa�el 
 Barrio Abrantes 
 ",0,http://www.madrid.es/vgn-ext-templating/v/index.jsp?vgnextchannel=9e4c43db40317010VgnVCM100000dc0ca8c0RCRD&vgnextoid=19369475d381c010VgnVCM1000000b205a0aRCRD,ANTONIO DE LEYVA,CALLE,V,86,MADRID,MADRID,28019,OPA�EL,CARABANCHEL,439223,4471078,40.386209559998555,-3.717365633719129,915 655 660 / 915 655 661,/contenido/entidadesYorganismos/CentrosAtencionSocial/CentrosServiciosSociales
11965,Centro de Servicios Sociales Puerta de Toledo,"   Atenci�n al p�blico : de lunes a viernes de 9 a 13 y de 15 a 19 horas, con petici�n de cita previa.  ","  Informaci�n, orientaci�n y asesoramiento sobre derechos y recursos sociales.  Tramitaci�n y gesti�n de servicios sociales municipales (ayudas a domicilio, teleasistencia, centros de d�a municipales, pisos tutelados,  etc. ) y prestaciones econ�micas necesarias en la intervenci�n social.  Gesti�n y tramitaci�n de servicios y prestaciones de la Comunidad de Madrid (Dependencia, residencias de mayores, discapacitados, mujer, menores,  etc. ) Renta M�nima de Inserci�n (RMI) y diferentes prestaciones econ�micas de inserci�n social.  Informaci�n y gesti�n de los programas de prevenci�n dirigidos a menores, adolescentes, adultos, mayores,  etc.    "," Metro: Puerta Toledo (l�nea 5)  Bus: 3, 17 , 18 , 23 , 35, 41, 60, 148, C1 y C2. ",  �mbito de Actuaci�n:    Barrio Sol  Barrio Embajadores  Barrio Palacio  Barrio Cortes  ,1,http://www.madrid.es/vgn-ext-templating/v/index.jsp?vgnextchannel=9e4c43db40317010VgnVCM100000dc0ca8c0RCRD&vgnextoid=303b66051361c010VgnVCM1000000b205a0aRCRD,PALOMA,CALLE,V,39,MADRID,MADRID,28005,PALACIO,CENTRO,439732,4473455,40.40765084302009,-3.711582703514813,915 885 067 / 915 885 068 / 915 885 069,/contenido/entidadesYorganismos/CentrosAtencionSocial/CentrosServiciosSociales
11973,Centro de Servicios Sociales Ram�n P�rez de Ayala," 
  Atenci�n al p�blico : de lunes a viernes de 9 a 13 y de 15 a 19 horas, con petici�n de cita previa. 
  Petici�n de citas: 
 
 En el Centro de Servicios Sociales: presencial o telef�nicamente de lunes a viernes en horario de 9 a 14 horas. 
 
 
 "," 
 Informaci�n, orientaci�n y asesoramiento sobre derechos y recursos sociales. 
 Tramitaci�n y gesti�n de servicios sociales municipales (ayudas a domicilio, teleasistencia, centros de d�a municipales, pisos tutelados,  etc. y prestaciones econ�micas necesarias en la intervenci�n social. 
 Gesti�n y tramitaci�n de servicios y prestaciones de la Comunidad de Madrid (Dependencia, residencias de mayores, discapacitados, mujer, menores,  etc. , Renta M�nima de Inserci�n (RMI) y diferentes prestaciones econ�micas de inserci�n social. 
 Informaci�n y gesti�n de los programas de prevenci�n dirigidos a menores, adolescentes, adultos, mayores,  etc.  
 "," Metro: Buenos Aires (l�nea 1) 
 Bus: 54, 141, 143 ","  �mbito de actuaci�n  
 
 Barrio Numancia 
 Barrio Portazgo (compartido con el Centro Pablo Neruda) 
 ",0,http://www.madrid.es/vgn-ext-templating/v/index.jsp?vgnextchannel=9e4c43db40317010VgnVCM100000dc0ca8c0RCRD&vgnextoid=865b66051361c010VgnVCM1000000b205a0aRCRD,MARISMAS,CALLE,V,24,MADRID,MADRID,28038,NUMANCIA,PUENTE DE VALLECAS,444659,4472715,40.401327256909376,-3.6534549961219147,"915 021 911    
Tel�fono cita previa: 915 021 915",/contenido/entidadesYorganismos/CentrosAtencionSocial/CentrosServiciosSociales
11971,Centro de Servicios Sociales Retiro,"   Atenci�n al p�blico : de lunes a viernes de 9 a 13 y de 15 a 19 horas, con petici�n de cita previa.  ","  Informaci�n, orientaci�n y asesoramiento sobre derechos y recursos sociales.  Tramitaci�n y gesti�n de servicios sociales municipales (ayudas a domicilio, teleasistencia, centros de d�a municipales, pisos tutelados,  etc. ) y prestaciones econ�micas necesarias en la intervenci�n social.  Gesti�n y tramitaci�n de servicios y prestaciones de la Comunidad de Madrid (Dependencia, residencias de mayores, discapacitados, mujer, menores,  etc. ) Renta M�nima de Inserci�n (RMI) y diferentes prestaciones econ�micas de inserci�n social.  Informaci�n y gesti�n de los programas de prevenci�n dirigidos a menores, adolescentes, adultos, mayores,  etc.   "," Metro: Sainz de Baranda (l�neas 6 y 9)   Bus: 30 , 56 , 143 y 156 ",  Ambito de Actuaci�n    Barrio Pac�fico  Barrio Adelfas  Barrio Estrella  Barrio Ibiza  Barrio Jer�nimos  Barrio Ni�o Jes�s  ,1,http://www.madrid.es/vgn-ext-templating/v/index.jsp?vgnextchannel=9e4c43db40317010VgnVCM100000dc0ca8c0RCRD&vgnextoid=dc7b66051361c010VgnVCM1000000b205a0aRCRD,JOSE MARTINEZ DE VELASCO,CALLE,V,22,MADRID,MADRID,28007,ESTRELLA,RETIRO,443455,4474199,40.41461489944016,-3.667774590446818,915 571 300 ,/contenido/entidadesYorganismos/CentrosAtencionSocial/CentrosServiciosSociales
49836,Centro de Servicios Sociales San Diego," 
  Atenci�n al p�blico : de lunes a viernes de 9 a 13 y de 15 a 19 horas, con petici�n de cita previa. 
  Petici�n de citas: 
 
 En el Centro de Servicios Sociales: presencial o telef�nicamente de lunes a viernes en horario de 9 a 14 horas. 
 
 
 ","  Equipamientos:  
 
 Zona Wifi 
 
  Servicios:  
 
 Informaci�n, orientaci�n y asesoramiento sobre derechos y recursos sociales. 
 Tramitaci�n y gesti�n de servicios sociales municipales (ayudas a domicilio, teleasistencia, centros de d�a municipales, pisos tutelados,  etc. ) y prestaciones econ�micas necesarias en la intervenci�n social. 
 Gesti�n y tramitaci�n de servicios y prestaciones de la Comunidad de Madrid (Dependencia, residencias de mayores, discapacitados, mujer, menores,  etc. ) Renta M�nima de Inserci�n (RMI) y diferentes prestaciones econ�micas de inserci�n social. 
 Informaci�n y gesti�n de los programas de prevenci�n dirigidos a menores, adolescentes, adultos, mayores,  etc.  
 "," Metro: Portazgo (l�nea 1) 
 Bus: 57, 103, 111, 144 y 310 ","  Ambito de Actuaci�n  
 
 Barrio Palomeras Bajas 
 Barrio San Diego 
 ",1,http://www.madrid.es/vgn-ext-templating/v/index.jsp?vgnextchannel=9e4c43db40317010VgnVCM100000dc0ca8c0RCRD&vgnextoid=41b3598d1351c010VgnVCM1000000b205a0aRCRD,JAVIER DE MIGUEL,CALLE,NUM,10,MADRID,MADRID,28018,PALOMERAS BAJAS,PUENTE DE VALLECAS,443780,4471322,40.38871930363662,-3.663689575700872,"917 571 913        
Tel�fono cita previa: 917 571 900",/contenido/entidadesYorganismos/CentrosAtencionSocial/CentrosServiciosSociales
11958,Centro de Servicios Sociales San Filiberto,"   Atenci�n al p�blico : de lunes a viernes de 9 a 13 y de 15 a 19 horas, con petici�n de cita previa.  ","  Informaci�n, orientaci�n y asesoramiento sobre derechos y recursos sociales.  Tramitaci�n y gesti�n de servicios sociales municipales (ayudas a domicilio, teleasistencia, centros de d�a municipales, pisos tutelados,  etc. ) y prestaciones econ�micas necesarias en la intervenci�n social.  Gesti�n y tramitaci�n de servicios y prestaciones de la Comunidad de Madrid (Dependencia, residencias de mayores, discapacitados, mujer, menores,  etc. ) Renta M�nima de Inserci�n (RMI) y diferentes prestaciones econ�micas de inserci�n social.  Informaci�n y gesti�n de los programas de prevenci�n dirigidos a menores, adolescentes, adultos, mayores,  etc.   "," Metro: Plaza El�ptica (l�neas 6 y 11)  Bus: 47, 55, 60, 81, 116, 247 y E1 ",  Ambito de Actuaci�n     Barrio de Moscard�  Barrio de Zof�o  Barrio de Pradolongo  Barrio de Almendrales  Barrio de Orcasitas  ,0,http://www.madrid.es/vgn-ext-templating/v/index.jsp?vgnextchannel=9e4c43db40317010VgnVCM100000dc0ca8c0RCRD&vgnextoid=79cb66051361c010VgnVCM1000000b205a0aRCRD,SAN FILIBERTO,CALLE,V,7,MADRID,MADRID,28026,MOSCARDO,USERA,439407,4471034,40.38581767783423,-3.7151818881165277,915 656 020 / 915 656 021 / 915 656 022,/contenido/entidadesYorganismos/CentrosAtencionSocial/CentrosServiciosSociales
5865468,Centro de Servicios Sociales San Vicente de Paul,"   Atenci�n al p�blico : de lunes a viernes de 9 a 13 y de 15 a 19 horas, con petici�n de cita previa.    Los vecinos de El Pardo que utilicen los canales de L�nea Madrid (010, OAC, en l�nea) ser�n citados en el Centro de Servicios Sociales &quot;San Vicente de Pa�l&quot;.  ","  Informaci�n, orientaci�n y asesoramiento sobre derechos y recursos sociales.  Tramitaci�n y gesti�n de servicios sociales municipales (ayudas a domicilio, teleasistencia, centros de d�a municipales, pisos tutelados,  etc. ) y prestaciones econ�micas necesarias en la intervenci�n social.  Gesti�n y tramitaci�n de servicios y prestaciones de la Comunidad de Madrid (Dependencia, residencias de mayores, discapacitados, mujer, menores,  etc. ) Renta M�nima de Inserci�n (RMI) y diferentes prestaciones econ�micas de inserci�n social.  Informaci�n y gesti�n de los programas de prevenci�n dirigidos a menores, adolescentes, adultos, mayores,  etc.   "," Metro: Antonio Machado (l�nea 7)  Bus: 42, 127 y 132 ",   �mbito de actuaci�n     Barrio El Pardo  Barrio Fuentelarreina  Barrio Pe�agrande  Barrio Pilar (excepto algunas calles a consultar en el Centro de Servicios Sociales)  Barrio Mirasierra (excepto algunas calles a consultar en el Centro de Servicios Sociales)  ,0,http://www.madrid.es/vgn-ext-templating/v/index.jsp?vgnextchannel=9e4c43db40317010VgnVCM100000dc0ca8c0RCRD&vgnextoid=4efaf29b4725c210VgnVCM2000000c205a0aRCRD,BUITRAGO DEL LOZOYA,CALLE,V,22,MADRID,MADRID,28035,PE�A GRANDE,FUENCARRAL-EL PARDO,439364,4480655,40.47248462688415,-3.716607833008478,"913 866 021 / 913 169 802 / 913 860 622 / 913 734 569                                                                         
",/contenido/entidadesYorganismos/CentrosAtencionSocial/CentrosServiciosSociales
6552184,Centro de Servicios Sociales Santa Felicidad,"   Atenci�n al p�blico : de lunes a viernes de 9 a 13 y de 15 a 19 horas, con petici�n de cita previa*    *La atenci�n en horario de tarde (de 15 a 19 horas) se realiza, para todo el Distrito, en el Centro de Servicios Sociales &quot;Luis Vives&quot;, ubicado en C/ Hnos. Garc�a Noblejas 160.   ","  Informaci�n, orientaci�n y asesoramiento sobre derechos y recursos sociales.  Tramitaci�n y gesti�n de servicios sociales municipales (ayudas a domicilio, teleasistencia, centros de d�a municipales, pisos tutelados,  etc. ) y prestaciones econ�micas necesarias en la intervenci�n social.  Gesti�n y tramitaci�n de servicios y prestaciones de la Comunidad de Madrid (Dependencia, residencias de mayores, discapacitados, mujer, menores,  etc. ) Renta M�nima de Inserci�n (RMI) y diferentes prestaciones econ�micas de inserci�n social.  Informaci�n y gesti�n de los programas de prevenci�n dirigidos a menores, adolescentes, adultos, mayores,  etc.   "," Metro: La Elipa (l�nea 2)  Bus: 15, 28, 106, 110, 113 y 210 ",  Ambito de Actuaci�n    Barrio Pueblo Nuevo  Barrio La Elipa  ,1,http://www.madrid.es/vgn-ext-templating/v/index.jsp?vgnextchannel=9e4c43db40317010VgnVCM100000dc0ca8c0RCRD&vgnextoid=a27519363a099310VgnVCM2000000c205a0aRCRD,SANTA FELICIDAD,CALLE,V,37,MADRID,MADRID,28017,La Elipa,CIUDAD LINEAL,444941,4475293,40.42457010006919,-3.6503555607280367,913 401 298,/contenido/entidadesYorganismos/CentrosAtencionSocial/CentrosServiciosSociales
11967,Centro de Servicios Sociales Santa Hortensia," 
  Atenci�n al p�blico : de lunes a viernes de 9 a 13 y de 15 a 19 horas, con petici�n de cita previa. 
 ","  Equipamientos:  
 
 Zona Wifi 
 
  Servicios:   
 
 Informaci�n, orientaci�n y asesoramiento sobre derechos y recursos sociales. 
 Tramitaci�n y gesti�n de servicios sociales municipales (ayudas a domicilio, teleasistencia, centros de d�a municipales, pisos tutelados,  etc. ) y prestaciones econ�micas necesarias en la intervenci�n social. 
 Gesti�n y tramitaci�n de servicios y prestaciones de la Comunidad de Madrid (Dependencia, residencias de mayores, discapacitados, mujer, menores,  etc. ) Renta M�nima de Inserci�n (RMI) y diferentes prestaciones econ�micas de inserci�n social. 
 Informaci�n y gesti�n de los programas de prevenci�n dirigidos a menores, adolescentes, adultos, mayores,  etc.  
 "," Metro: Prosperidad (l�nea 4), Alfonso XIII (l�nea 4) 
 Bus: 9 , 43 , 72 , 73 y 122 ","  Ambito de Actuaci�n  
 
 Barrio de El Viso 
 Barrio de Prosperidad 
 Barrio de Ciudad Jard�n 
 Barrio de Hispanoam�rica 
 Barrio de Nueva Espa�a 
 Barrio de Castilla 
 ",0,http://www.madrid.es/vgn-ext-templating/v/index.jsp?vgnextchannel=9e4c43db40317010VgnVCM100000dc0ca8c0RCRD&vgnextoid=cfeb66051361c010VgnVCM1000000b205a0aRCRD,SANTA HORTENSIA,CALLE,V,15,MADRID,MADRID,28002,PROSPERIDAD,CHAMARTIN,443360,4477547,40.44476894081767,-3.6691931472225465,915 106 850 / 915 106 851,/contenido/entidadesYorganismos/CentrosAtencionSocial/CentrosServiciosSociales
36367,Centro de Servicios Sociales Teresa de Calcuta,"   Atenci�n al p�blico : de lunes a viernes de 9 a 13 y de 15 a 19 horas, con petici�n de cita previa.  ","  Informaci�n, orientaci�n y asesoramiento sobre derechos y recursos sociales.  Tramitaci�n y gesti�n de servicios sociales municipales (ayudas a domicilio, teleasistencia, centros de d�a municipales, pisos tutelados,  etc. ) y prestaciones econ�micas necesarias en la intervenci�n social.  Gesti�n y tramitaci�n de servicios y prestaciones de la Comunidad de Madrid (Dependencia, residencias de mayores, discapacitados, mujer, menores,  etc. ), Renta M�nima de Inserci�n (RMI) y diferentes prestaciones econ�micas de inserci�n social.  Informaci�n y gesti�n de los programas de prevenci�n dirigidos a menores, adolescentes, adultos, mayores,  etc.   "," Metro: Alameda de Osuna (l�nea 5)  Bus: 101, 105, 112, 114, 115, 151, 200 ",  Ambito de Actuaci�n    Barrio de Alameda de Osuna  Barrio del Aeropuerto  Barrio Casco Hist�rico de Barajas  Barrio de Tim�n  Barrio de Corralejos  ,0,http://www.madrid.es/vgn-ext-templating/v/index.jsp?vgnextchannel=9e4c43db40317010VgnVCM100000dc0ca8c0RCRD&vgnextoid=a086b3e42751c010VgnVCM2000000c205a0aRCRD,NAVIO,PLAZA,V,4,MADRID,MADRID,28042,ALAMEDA DE OSUNA,BARAJAS,450284,4478668,40.45531140556268,-3.587638001688095,913 295 920 / 913 292 235,/contenido/entidadesYorganismos/CentrosAtencionSocial/CentrosServiciosSociales
11974,Centro de Servicios Sociales Torre Arias,"   Atenci�n al p�blico : de lunes a viernes de 9 a 13 y de 15 a 19 horas, con petici�n de cita previa.  ","  Informaci�n, orientaci�n y asesoramiento sobre derechos y recursos sociales.  Tramitaci�n y gesti�n de servicios sociales municipales (ayudas a domicilio, teleasistencia, centros de d�a municipales, pisos tutelados,  etc. ) y prestaciones econ�micas necesarias en la intervenci�n social.  Gesti�n y tramitaci�n de servicios y prestaciones de la Comunidad de Madrid (Dependencia, residencias de mayores, discapacitados, mujer, menores,  etc.  ) Renta M�nima de Inserci�n (RMI) y diferentes prestaciones econ�micas de inserci�n social.  Informaci�n y gesti�n de los programas de prevenci�n dirigidos a menores, adolescentes, adultos, mayores,  etc.   "," Metro: Canillejas (l�nea 5), Torre Arias (l�nea 5)  Bus: 48, 77, 101, 105, 114, 115, 140, 151, 153 ",  �mbito de Actuaci�n:     Barrio Simancas  Barrio Rosas  Barrio Rejas  Barrio Canillejas  Barrio Salvador  ,1,http://www.madrid.es/vgn-ext-templating/v/index.jsp?vgnextchannel=9e4c43db40317010VgnVCM100000dc0ca8c0RCRD&vgnextoid=23ab66051361c010VgnVCM1000000b205a0aRCRD,TORRE ARIAS,CALLE,V,2,MADRID,MADRID,28022,CANILLEJAS,SAN BLAS-CANILLEJAS,448182,4477675,40.446228131783236,-3.6123577639630957,913 717 384,/contenido/entidadesYorganismos/CentrosAtencionSocial/CentrosServiciosSociales
5169789,Centro de Servicios Sociales Valdebernardo,"   Atenci�n al p�blico : de lunes a viernes de 9 a 13 y de 15 a 19 horas, con petici�n de cita previa.  ","  Informaci�n, orientaci�n y asesoramiento sobre derechos y recursos sociales.  Tramitaci�n y gesti�n de servicios sociales municipales (ayudas a domicilio, teleasistencia, centros de d�a municipales, pisos tutelados,  etc. ) y prestaciones econ�micas necesarias en la intervenci�n social.  Gesti�n y tramitaci�n de servicios y prestaciones de la Comunidad de Madrid (Dependencia, residencias de mayores, discapacitados, mujer, menores,  etc. ) Renta M�nima de Inserci�n (RMI) y diferentes prestaciones econ�micas de inserci�n social.  Informaci�n y gesti�n de los programas de prevenci�n dirigidos a menores, adolescentes, adultos, mayores,  etc.   "," Metro: Valdebernardo (l�nea 9)  Bus: 8, 71, 100, 130 ",  Ambito de Actuaci�n    Barrio Casco Hist�rico  Barrio de Ambroz  ,0,http://www.madrid.es/vgn-ext-templating/v/index.jsp?vgnextchannel=9e4c43db40317010VgnVCM100000dc0ca8c0RCRD&vgnextoid=a6fb665e5dead110VgnVCM2000000c205a0aRCRD,LADERA DE LOS ALMENDROS,CALLE,V,6,MADRID,MADRID,28032,CASCO HIST�RICO VICALVARO,VICALVARO,447216,4472900,40.40316021249795,-3.623339471293246,913 016 714,/contenido/entidadesYorganismos/CentrosAtencionSocial/CentrosServiciosSociales
5711384,Centro de Servicios Sociales Vicente Ferrer,"   Atenci�n al p�blico : de lunes a viernes de 9 a 13 y de 15 a 19 horas, con petici�n de cita previa.  ","  Informaci�n, orientaci�n y asesoramiento sobre derechos y recursos sociales.  Tramitaci�n y gesti�n de servicios sociales municipales (ayudas a domicilio, teleasistencia, centros de d�a municipales, pisos tutelados,  etc. ) y prestaciones econ�micas necesarias en la intervenci�n social.  Gesti�n y tramitaci�n de servicios y prestaciones de la Comunidad de Madrid (Dependencia, residencias de mayores, discapacitados, mujer, menores,  etc.  ) Renta M�nima de Inserci�n (RMI) y diferentes prestaciones econ�micas de inserci�n social.  Informaci�n y gesti�n de los programas de prevenci�n dirigidos a menores, adolescentes, adultos, mayores,  etc.   "," Metro: Ventilla (l�nea 9), Plaza Castilla (l�nea 9)  Bus: 177  Renfe: Chamart�n ",  Ambito de Actuaci�n    Barrio de Almenara  Barrio de Valdeacederas  Barrio Castillejos (compartido con el Centro de Servicios Sociales Mar�a Zayas)   ,0,http://www.madrid.es/vgn-ext-templating/v/index.jsp?vgnextchannel=9e4c43db40317010VgnVCM100000dc0ca8c0RCRD&vgnextoid=299dd12d14209210VgnVCM2000000c205a0aRCRD,GENERAL ARANDA,CALLE,V,30,MADRID,MADRID,28029,ALMENARA,TETUAN,441273,4480718,40.47318957937898,-3.6940951975368956,913 148 992,/contenido/entidadesYorganismos/CentrosAtencionSocial/CentrosServiciosSociales
11968,Centro de Servicios Sociales Villa de Vallecas,"   Atenci�n al p�blico : de lunes a viernes de 9 a 13 y de 15 a 19 horas, con petici�n de cita previa.  ","  Informaci�n, orientaci�n y asesoramiento sobre derechos y recursos sociales.  Tramitaci�n y gesti�n de servicios sociales municipales (ayudas a domicilio, teleasistencia, centros de d�a municipales, pisos tutelados,  etc.  ) y prestaciones econ�micas necesarias en la intervenci�n social.  Gesti�n y tramitaci�n de servicios y prestaciones de la Comunidad de Madrid (Dependencia, residencias de mayores, discapacitados, mujer, menores,  etc. ) Renta M�nima de Inserci�n (RMI) y diferentes prestaciones econ�micas de inserci�n social.  Informaci�n y gesti�n de los programas de prevenci�n dirigidos a menores, adolescentes, adultos, mayores,  etc.   "," Metro: Villa de Vallecas (l�nea 1)  Bus: 54, 58, 103, 142 ",  Ambito de Actuaci�n    Barrio Casco Hist�rico de Vallecas  Barrio de Santa Eugenia  ,0,http://www.madrid.es/vgn-ext-templating/v/index.jsp?vgnextchannel=9e4c43db40317010VgnVCM100000dc0ca8c0RCRD&vgnextoid=161c66051361c010VgnVCM1000000b205a0aRCRD,PE&Ntilde;A VEIGA,CALLE,V,"6, LOCAL 10",MADRID,MADRID,28031,CASCO H.VALLECAS,VILLA DE VALLECAS,447203,4470025,40.377250481772194,-3.623253766865595,913 807 940,/contenido/entidadesYorganismos/CentrosAtencionSocial/CentrosServiciosSociales
11960,Centro de Servicios Sociales Y�benes,"   Atenci�n al p�blico : de lunes a viernes de 9 a 13 y de 15 a 19 horas, con petici�n de cita previa.  ","  Informaci�n, orientaci�n y asesoramiento sobre derechos y recursos sociales.  Tramitaci�n y gesti�n de servicios sociales municipales (ayudas a domicilio, teleasistencia, centros de d�a municipales, pisos tutelados,  etc. ) y prestaciones econ�micas necesarias en la intervenci�n social.  Gesti�n y tramitaci�n de servicios y prestaciones de la Comunidad de Madrid (Dependencia, residencias de mayores, discapacitados, mujer, menores,  etc. ) Renta M�nima de Inserci�n (RMI) y diferentes prestaciones econ�micas de inserci�n social.  Informaci�n y gesti�n de los programas de prevenci�n dirigidos a menores, adolescentes, adultos, mayores,  etc.   ", Metro: Eugenia de Montijo (l�nea 5)  Bus: 31 ,  �mbito de actuaci�n     Barrio Lucero  Barrio Aluche    ,1,http://www.madrid.es/vgn-ext-templating/v/index.jsp?vgnextchannel=9e4c43db40317010VgnVCM100000dc0ca8c0RCRD&vgnextoid=b26c66051361c010VgnVCM1000000b205a0aRCRD,LOS YEBENES,CALLE,V,241,MADRID,MADRID,28047,ALUCHE,LATINA,436348,4471655,40.391183407465824,-3.7512812696024738,917 196 500 / 917 196 506,/contenido/entidadesYorganismos/CentrosAtencionSocial/CentrosServiciosSociales
5211603,Centro de Servicios Sociales Zaida," 
  Atenci�n al p�blico : de lunes a viernes de 9 a 13 y de 15 a 19 horas, con petici�n de cita previa. 
 "," 
 Informaci�n, orientaci�n y asesoramiento sobre derechos y recursos sociales. 
 Tramitaci�n y gesti�n de servicios sociales municipales (ayudas a domicilio, teleasistencia, centros de d�a municipales, pisos tutelados,  etc. ) y prestaciones econ�micas necesarias en la intervenci�n social. 
 Gesti�n y tramitaci�n de servicios y prestaciones de la Comunidad de Madrid (Dependencia, residencias de mayores, discapacitados, mujer, menores,  etc. ) Renta M�nima de Inserci�n (RMI) y diferentes prestaciones econ�micas de inserci�n social. 
 Informaci�n y gesti�n de los programas de prevenci�n dirigidos a menores, adolescentes, adultos, mayores,  etc.  
 "," Metro: Carpetana (l�nea 6), Oporto (l�nea 5 y 6) 
 Bus: 17, 25, 55, 119 ","  �mbito de actuaci�n  
 
 Barrio de San Isidro 
 Barrio de Comillas 
 Barrio de Opa�el 
 Barrio de Puerta  Bonita ( excepto algunas calles a consultar en el Centro de S. Sociales ) 
 ",0,http://www.madrid.es/vgn-ext-templating/v/index.jsp?vgnextchannel=9e4c43db40317010VgnVCM100000dc0ca8c0RCRD&vgnextoid=88516a937aade110VgnVCM2000000c205a0aRCRD,ZAIDA,CALLE,V,36,MADRID,MADRID,28019,SAN ISIDRO,CARABANCHEL,437640,4471882,40.39332622277917,-3.7360816376660386,915 256 100 / 915 256 282,/contenido/entidadesYorganismos/CentrosAtencionSocial/CentrosServiciosSociales
10045041,Punto de Atenci�n Social - Centro Municipal de Mayores Castilla," 
  Atenci�n al p�blico : lunes de 9 a 13:30 con petici�n de cita previa. 
 ","  Servicios:   
 
 Informaci�n, orientaci�n y asesoramiento sobre derechos y recursos sociales. 
 Tramitaci�n y gesti�n de servicios sociales municipales (ayudas a domicilio, teleasistencia, centros de d�a municipales, pisos tutelados,  etc. ) y prestaciones econ�micas necesarias en la intervenci�n social. 
 Gesti�n y tramitaci�n de servicios y prestaciones de la Comunidad de Madrid (Dependencia, residencias de mayores, discapacitados, mujer, menores,  etc. ) Renta M�nima de Inserci�n (RMI) y diferentes prestaciones econ�micas de inserci�n social. 
 Informaci�n y gesti�n de los programas de prevenci�n dirigidos a menores, adolescentes, adultos, mayores,  etc.  
 "," Metro: Bego�a 
 Bus: 173,174,176 (linea 10) ","  Ambito de Actuaci�n  
 
 Barrio de Castilla 
 ",0,http://www.madrid.es/vgn-ext-templating/v/index.jsp?vgnextchannel=9e4c43db40317010VgnVCM100000dc0ca8c0RCRD&vgnextoid=3aaf678c36a24510VgnVCM1000001d4a900aRCRD,CASTELLANA,PASEO,V,304,MADRID,MADRID,28046,CASTILLA,CHAMARTIN,442060,4481584,40.48105532122308,-3.68487922341459,,/contenido/entidadesYorganismos/CentrosAtencionSocial/CentrosServiciosSociales
